id,line,name,lat,lng,kakao_place_id,kakao_place_name,kakao_address,kakao_road_address,kakao_phone,kakao_place_url,kakao_lat,kakao_lng,kakao_category_group_code,kakao_category_group_name,kakao_category_name
401,"01호선","직산",36.870593,127.143904,"21160561","직산역 1호선","충남 천안시 서북구 직산읍 모시리 58-11","충남 천안시 서북구 직산읍 천안대로 1471-33","041-583-7788","http://place.map.kakao.com/21160561","127.143823728817","36.8709328418739","SW8","지하철역","교통,수송 > 지하철,전철 > 수도권1호선"
402,"01호선","두정",36.833705,127.14896,"7859206","두정역 1호선","충남 천안시 서북구 두정동 84-1","충남 천안시 서북구 두정로 289","041-562-7791","http://place.map.kakao.com/7859206","127.149080841068","36.8335990318913","SW8","지하철역","교통,수송 > 지하철,전철 > 수도권1호선"
403,"01호선","천안",36.810005,127.146826,"7859206","두정역 1호선","충남 천안시 서북구 두정동 84-1","충남 천안시 서북구 두정로 289","041-562-7791","http://place.map.kakao.com/7859206","127.149080841068","36.8335990318913","SW8","지하철역","교통,수송 > 지하철,전철 > 수도권1호선"
404,"01호선","광명",37.416182,126.884466,"21160603","광명역 1호선","경기 광명시 일직동 276-1","경기 광명시 광명역로 21","02-899-9270","http://place.map.kakao.com/21160603","126.884961689119","37.4167362171922","SW8","지하철역","교통,수송 > 지하철,전철 > 수도권1호선"
405,"04호선","산본",37.358101,126.933274,"21160833","산본역 4호선","경기 군포시 산본동 1231","경기 군포시 번영로 504","1544-7788","http://place.map.kakao.com/21160833","126.933046329836","37.3580193085257","SW8","지하철역","교통,수송 > 지하철,전철 > 수도권4호선"
406,"04호선","대야미",37.328467,126.917332,"21160745","대야미역 4호선","경기 군포시 대야미동 229-1","경기 군포시 대야1로 28","1544-7788","http://place.map.kakao.com/21160745","126.916897519557","37.327965125951","SW8","지하철역","교통,수송 > 지하철,전철 > 수도권4호선"
407,"04호선","반월",37.312212,126.903524,"10408776","반월역 4호선","경기 안산시 상록구 건건동 산 62-1","경기 안산시 상록구 건건로 119-10","031-438-7788","http://place.map.kakao.com/10408776","126.90382444207","37.3123817631801","SW8","지하철역","교통,수송 > 지하철,전철 > 수도권4호선"
408,"04호선","상록수",37.302795,126.866489,"21160744","상록수역 4호선","경기 안산시 상록구 본오동 1177","경기 안산시 상록구 상록수로 61","031-407-7788","http://place.map.kakao.com/21160744","126.8666056400078","37.30285235924208","SW8","지하철역","교통,수송 > 지하철,전철 > 수도권4호선"
409,"04호선","한대앞",37.309689,126.85344,"21160500","한대앞역 4호선","경기 안산시 상록구 이동 211-5","경기 안산시 상록구 충장로 337","031-406-7788","http://place.map.kakao.com/21160500","126.85402320176591","37.309429480381965","SW8","지하철역","교통,수송 > 지하철,전철 > 수도권4호선"
410,"04호선","중앙",37.315941,126.838573,"21160651","중앙역 4호선","경기 안산시 단원구 고잔동 167-378","경기 안산시 단원구 중앙대로 918","031-485-7788","http://place.map.kakao.com/21160651","126.83883035405907","37.31599451967913","SW8","지하철역","교통,수송 > 지하철,전철 > 수도권4호선"
411,"04호선","고잔",37.316777,126.823249,"21160832","고잔역 4호선","경기 안산시 단원구 고잔동 453-53","경기 안산시 단원구 중앙대로 784","031-482-7788","http://place.map.kakao.com/21160832","126.82359875532677","37.3167693077138","SW8","지하철역","교통,수송 > 지하철,전철 > 수도권4호선"
412,"04호선","초지",37.320646,126.805913,"21160650","초지역 4호선","경기 안산시 단원구 초지동 25-1","경기 안산시 단원구 중앙대로 620","1544-7788","http://place.map.kakao.com/21160650","126.80647314589804","37.3204403767323","SW8","지하철역","교통,수송 > 지하철,전철 > 수도권4호선"
413,"04호선","안산",37.327082,126.788532,"21160743","안산역 4호선","경기 안산시 단원구 원곡동 377-1","경기 안산시 단원구 중앙대로 462","031-491-7790","http://place.map.kakao.com/21160743","126.7892163493839","37.32685867641246","SW8","지하철역","교통,수송 > 지하철,전철 > 수도권4호선"
414,"04호선","신길온천",37.338212,126.765844,"21160831","신길온천역 4호선","경기 안산시 단원구 신길동 216-2","경기 안산시 단원구 황고개로 2","1544-7788","http://place.map.kakao.com/21160831","126.76752183250063","37.33737450574518","SW8","지하철역","교통,수송 > 지하철,전철 > 수도권4호선"
415,"04호선","정왕",37.351735,126.742989,"10713436","정왕역 4호선","경기 시흥시 정왕동 2325-12","경기 시흥시 마유로418번길 15","1544-7788","http://place.map.kakao.com/10713436","126.74335018635819","37.351701334544885","SW8","지하철역","교통,수송 > 지하철,전철 > 수도권4호선"
416,"04호선","오이도",37.362357,126.738714,"21160677","오이도역 4호선","경기 시흥시 정왕동 878","경기 시흥시 역전로 430","031-319-7788","http://place.map.kakao.com/21160677","126.73840352940697","37.36170269464333","SW8","지하철역","교통,수송 > 지하철,전철 > 수도권4호선"
417,"04호선","수리산",37.349801,126.925365,"21160652","수리산역 4호선","경기 군포시 산본동 1231-1","경기 군포시 번영로 385","1544-7788","http://place.map.kakao.com/21160652","126.92563095069","37.3505579695805","SW8","지하철역","교통,수송 > 지하철,전철 > 수도권4호선"
418,"수인선","오이도",37.362357,126.738714,"1530126217","오이도역 수인분당선","경기 시흥시 정왕동 878","경기 시흥시 역전로 430","031-319-7788","http://place.map.kakao.com/1530126217","126.73892305019992","37.362929236026645","SW8","지하철역","교통,수송 > 지하철,전철 > 수인분당선"
419,"01호선","개봉",37.494594,126.85868,"21160790","개봉역 1호선","서울 구로구 개봉동 415","서울 구로구 경인로40길 47","02-2639-3297","http://place.map.kakao.com/21160790","126.858715959622","37.4946417150651","SW8","지하철역","교통,수송 > 지하철,전철 > 수도권1호선"
420,"01호선","오류동",37.494526,126.845365,"21160569","오류동역 1호선","서울 구로구 오류동 66","서울 구로구 경인로20길 13","02-2639-3417","http://place.map.kakao.com/21160569","126.84480744815397","37.49439720933549","SW8","지하철역","교통,수송 > 지하철,전철 > 수도권1호선"
421,"01호선","역곡",37.485178,126.811502,"17494023","역곡역 1호선","경기 부천시 역곡동 382","경기 부천시 역곡로 1","02-2639-3434","http://place.map.kakao.com/17494023","126.81205932067193","37.485314358615625","SW8","지하철역","교통,수송 > 지하철,전철 > 수도권1호선"
422,"01호선","군포",37.35356,126.948462,"21160528","군포역 1호선","경기 군포시 당동 134-1","경기 군포시 군포역1길 27","031-452-7788","http://place.map.kakao.com/21160528","126.948517502286","37.35419227847359","SW8","지하철역","교통,수송 > 지하철,전철 > 수도권1호선"
423,"01호선","당정",37.344285,126.948345,"16000488","당정역 1호선","경기 군포시 당정동 938","경기 군포시 당정역로 91","031-457-0998","http://place.map.kakao.com/16000488","126.94837119045768","37.343689819399884","SW8","지하철역","교통,수송 > 지하철,전철 > 수도권1호선"
424,"01호선","서동탄",37.195504,127.051672,"11796240","서동탄역 1호선","경기 오산시 외삼미동 242","경기 오산시 외삼미로15번길 75-60","031-613-9581","http://place.map.kakao.com/11796240","127.051856779194","37.1957351505295","SW8","지하철역","교통,수송 > 지하철,전철 > 수도권1호선"
425,"01호선","부천",37.48405,126.782686,"21160521","부천역 1호선","경기 부천시 심곡본동 316-2","경기 부천시 부천로 1","032-665-7775","http://place.map.kakao.com/21160521","126.783081743529","37.4839888842916","SW8","지하철역","교통,수송 > 지하철,전철 > 수도권1호선"
426,"01호선","송내",37.4876,126.753664,"21160606","송내역 1호선","경기 부천시 송내동 632-4","경기 부천시 송내대로 43","032-662-7788","http://place.map.kakao.com/21160606","126.75316170607587","37.48764230897348","SW8","지하철역","교통,수송 > 지하철,전철 > 수도권1호선"
427,"01호선","부평",37.489493,126.724805,"21160577","부평역 1호선","인천 부평구 부평동 738-21","인천 부평구 광장로 16","032-528-1439","http://place.map.kakao.com/21160577","126.724331088618","37.4894490429055","SW8","지하철역","교통,수송 > 지하철,전철 > 수도권1호선"
428,"01호선","백운",37.483664,126.707704,"21160498","백운역 1호선","인천 부평구 십정동 541-1","인천 부평구 마장로55번길 14","032-524-7788","http://place.map.kakao.com/21160498","126.707294407871","37.483342495597","SW8","지하철역","교통,수송 > 지하철,전철 > 수도권1호선"
429,"01호선","주안",37.464941,126.679923,"21160576","주안역 1호선","인천 미추홀구 주안동 125","인천 미추홀구 주안로 95-19","032-865-7787","http://place.map.kakao.com/21160576","126.679970189053","37.4650532935666","SW8","지하철역","교통,수송 > 지하철,전철 > 수도권1호선"
430,"01호선","제물포",37.466769,126.656666,"21160800","제물포역 1호선","인천 미추홀구 숭의동 450-39","인천 미추홀구 경인로 129","032-883-7788","http://place.map.kakao.com/21160800","126.65749387411809","37.466819329634994","SW8","지하철역","교통,수송 > 지하철,전철 > 수도권1호선"
431,"01호선","동인천",37.475276,126.632802,"21160563","동인천역 1호선","인천 중구 인현동 1-613","인천 중구 참외전로 121","032-772-7788","http://place.map.kakao.com/21160563","126.63261605410459","37.4754032677399","SW8","지하철역","교통,수송 > 지하철,전철 > 수도권1호선"
432,"01호선","인천",37.476691,126.616936,"21160515","인천역 1호선","인천 중구 북성동1가 3-1","인천 중구 제물량로 269","032-772-0784","http://place.map.kakao.com/21160515","126.616821060576","37.4761676094062","SW8","지하철역","교통,수송 > 지하철,전철 > 수도권1호선"
433,"01호선","구일",37.496756,126.870793,"21160566","구일역 1호선","서울 구로구 구로동 636-45","서울 구로구 구일로 133","02-865-6190","http://place.map.kakao.com/21160566","126.86969110539","37.496254517687","SW8","지하철역","교통,수송 > 지하철,전철 > 수도권1호선"
434,"01호선","소사",37.482753,126.79544,"21160568","소사역 1호선","경기 부천시 소사본동 395","경기 부천시 소사로 272","02-2639-3242","http://place.map.kakao.com/21160568","126.79564427244556","37.48280032710237","SW8","지하철역","교통,수송 > 지하철,전철 > 수도권1호선"
435,"01호선","부개",37.488418,126.74109,"21160789","부개역 1호선","인천 부평구 부개동 468","인천 부평구 수변로 22","032-517-7788","http://place.map.kakao.com/21160789","126.740730089704","37.488477043182","SW8","지하철역","교통,수송 > 지하철,전철 > 수도권1호선"
436,"01호선","간석",37.464737,126.694181,"8674073","간석역 1호선","인천 남동구 간석동 757","인천 남동구 석정로 522-14","032-427-7788","http://place.map.kakao.com/8674073","126.69351903231802","37.46470628162983","SW8","지하철역","교통,수송 > 지하철,전철 > 수도권1호선"
437,"01호선","도원",37.468446,126.642706,"21160616","도원역 1호선","인천 동구 창영동 179-1","인천 동구 참외전로 245","032-773-7788","http://place.map.kakao.com/21160616","126.64253515710824","37.46877255664296","SW8","지하철역","교통,수송 > 지하철,전철 > 수도권1호선"
438,"01호선","온수",37.492258,126.823388,"21160464","온수역 1호선","서울 구로구 온수동 51-7","서울 구로구 부일로 872","02-2639-3461","http://place.map.kakao.com/21160464","126.823828819915","37.4923999909922","SW8","지하철역","교통,수송 > 지하철,전철 > 수도권1호선"
439,"01호선","중동",37.486562,126.764843,"21160520","중동역 1호선","경기 부천시 송내동 632","경기 부천시 중동로 73","032-666-7788","http://place.map.kakao.com/21160520","126.764535113735","37.4866816250266","SW8","지하철역","교통,수송 > 지하철,전철 > 수도권1호선"
440,"수인분당선","서울숲",37.543617,127.044707,"18234120","서울숲역 수인분당선","서울 성동구 성수동1가 656-436","서울 성동구 왕십리로 지하 77","1544-7788","http://place.map.kakao.com/18234120","127.044746216358","37.543645796605","SW8","지하철역","교통,수송 > 지하철,전철 > 수인분당선"
441,"수인분당선","압구정로데오",37.527381,127.040534,"18234115","압구정로데오역 수인분당선","서울 강남구 압구정동 495","서울 강남구 압구정로 지하 402","1544-7788","http://place.map.kakao.com/18234115","127.0406027693898","37.5275184818021","SW8","지하철역","교통,수송 > 지하철,전철 > 수인분당선"
442,"수인분당선","강남구청",37.517186,127.04128,"21160738","선정릉역 수인분당선","서울 강남구 삼성동 111-114","서울 강남구 선릉로 지하 580","1544-7788","http://place.map.kakao.com/21160738","127.043627289129","37.5109326388803","SW8","지하철역","교통,수송 > 지하철,전철 > 수인분당선"
443,"수인분당선","선정릉",37.51098,127.043593,"21160738","선정릉역 수인분당선","서울 강남구 삼성동 111-114","서울 강남구 선릉로 지하 580","1544-7788","http://place.map.kakao.com/21160738","127.043627289129","37.5109326388803","SW8","지하철역","교통,수송 > 지하철,전철 > 수인분당선"
444,"수인분당선","가천대",37.448605,127.126697,"21160741","가천대역 수인분당선","경기 성남시 수정구 태평동 7131","경기 성남시 수정구 성남대로 지하 1332","031-752-7788","http://place.map.kakao.com/21160741","127.1266967573021","37.44856169280611","SW8","지하철역","교통,수송 > 지하철,전철 > 수인분당선"
445,"수인분당선","태평",37.440019,127.127709,"8105524","태평역 수인분당선","경기 성남시 수정구 수진동 4808","경기 성남시 수정구 성남대로 지하 1229","031-751-7788","http://place.map.kakao.com/8105524","127.12774980543841","37.43978918729356","SW8","지하철역","교통,수송 > 지하철,전철 > 수인분당선"
446,"수인분당선","모란",37.43213,127.129087,"8105524","태평역 수인분당선","경기 성남시 수정구 수진동 4808","경기 성남시 수정구 성남대로 지하 1229","031-751-7788","http://place.map.kakao.com/8105524","127.12774980543841","37.43978918729356","SW8","지하철역","교통,수송 > 지하철,전철 > 수인분당선"
447,"수인분당선","야탑",37.411185,127.128715,"17492800","야탑역 수인분당선","경기 성남시 분당구 야탑동 488-1","경기 성남시 분당구 성남대로 지하 903","031-703-3238","http://place.map.kakao.com/17492800","127.128742990837","37.4113736407028","SW8","지하철역","교통,수송 > 지하철,전철 > 수인분당선"
448,"수인분당선","서현",37.385126,127.123592,"21160865","서현역 수인분당선","경기 성남시 분당구 서현동 263","경기 성남시 분당구 성남대로 지하 601","031-703-7788","http://place.map.kakao.com/21160865","127.123431479636","37.3850154269126","SW8","지하철역","교통,수송 > 지하철,전철 > 수인분당선"
449,"수인분당선","수내",37.378455,127.114322,"21161057","수내역 수인분당선","경기 성남시 분당구 수내동 14","경기 성남시 분당구 성남대로 지하 491","1544-7788","http://place.map.kakao.com/21161057","127.114288846291","37.3784687674046","SW8","지하철역","교통,수송 > 지하철,전철 > 수인분당선"
450,"수인분당선","정자",37.36706,127.108105,"21160864","정자역 수인분당선","경기 성남시 분당구 정자동 95-1","경기 성남시 분당구 성남대로 지하 333","031-712-7788","http://place.map.kakao.com/21160864","127.108097457244","37.3661737923199","SW8","지하철역","교통,수송 > 지하철,전철 > 수인분당선"
451,"수인분당선","미금",37.350077,127.10891,"21160930","미금역 수인분당선","경기 성남시 분당구 금곡동 222","경기 성남시 분당구 성남대로 지하 156","1544-7788","http://place.map.kakao.com/21160930","127.10900662549734","37.35007159880101","SW8","지하철역","교통,수송 > 지하철,전철 > 수인분당선"
452,"수인분당선","이매",37.396104,127.12827,"9912179","이매역 수인분당선","경기 성남시 분당구 이매동 129-1","경기 성남시 분당구 성남대로 지하 738","031-781-6483","http://place.map.kakao.com/9912179","127.128287899628","37.3962081628338","SW8","지하철역","교통,수송 > 지하철,전철 > 수인분당선"
453,"수인분당선","신갈",37.286102,127.111313,"17080645","신갈역 수인분당선","경기 용인시 기흥구 신갈동 167","경기 용인시 기흥구 기흥로 지하 136","1544-7788","http://place.map.kakao.com/17080645","127.111284750107","37.2861483619847","SW8","지하철역","교통,수송 > 지하철,전철 > 수인분당선"
454,"수인분당선","상갈",37.26181,127.108847,"15110703","상갈역 수인분당선","경기 용인시 기흥구 상갈동 463-4","경기 용인시 기흥구 금화로 지하 40","1544-7788","http://place.map.kakao.com/15110703","127.108737254546","37.261811831367","SW8","지하철역","교통,수송 > 지하철,전철 > 수인분당선"
455,"수인분당선","청명",37.259489,127.078934,"15110709","청명역 수인분당선","경기 수원시 영통구 영통동 1055","경기 수원시 영통구 봉영로 지하 1670","1544-7788","http://place.map.kakao.com/15110709","127.078969000537","37.2595395723925","SW8","지하철역","교통,수송 > 지하철,전철 > 수인분당선"
456,"수인분당선","영통",37.251568,127.071394,"15110708","영통역 수인분당선","경기 수원시 영통구 영통동 1055","경기 수원시 영통구 봉영로 지하 1560","1544-7788","http://place.map.kakao.com/15110708","127.07133191773","37.2515035095752","SW8","지하철역","교통,수송 > 지하철,전철 > 수인분당선"
457,"수인분당선","망포",37.245795,127.057353,"18454387","망포역 수인분당선","경기 수원시 영통구 영통동 1069","경기 수원시 영통구 덕영대로 지하 1520","1544-7788","http://place.map.kakao.com/18454387","127.056854781327","37.2458383703858","SW8","지하철역","교통,수송 > 지하철,전철 > 수인분당선"
458,"수인분당선","매탄권선",37.252759,127.040566,"22110383","매탄권선역 수인분당선","경기 수원시 영통구 매탄동 687-4","경기 수원시 영통구 권선로 지하 841","1544-7788","http://place.map.kakao.com/22110383","127.040808657326","37.2525055074191","SW8","지하철역","교통,수송 > 지하철,전철 > 수인분당선"
459,"수인분당선","수원시청",37.261911,127.030736,"22110556","수원시청역 수인분당선","경기 수원시 권선구 권선동 1122","경기 수원시 권선구 효원로 지하 270","1544-7788","http://place.map.kakao.com/22110556","127.030857188083","37.2619226180172","SW8","지하철역","교통,수송 > 지하철,전철 > 수인분당선"
460,"수인분당선","매교",37.265481,127.015678,"15110713","매교역 수인분당선","경기 수원시 팔달구 매교동 283","경기 수원시 팔달구 효원로 지하 126","031-232-7785","http://place.map.kakao.com/15110713","127.01590057208","37.2655153235144","SW8","지하철역","교통,수송 > 지하철,전철 > 수인분당선"
461,"수인선","달월",37.379681,126.745177,"1530505793","달월역 수인분당선","경기 시흥시 월곶동 662-3","경기 시흥시 서해안로736번길 55","1544-7788","http://place.map.kakao.com/1530505793","126.74540347645","37.3800267658985","SW8","지하철역","교통,수송 > 지하철,전철 > 수인분당선"
462,"수인선","월곶",37.391769,126.742699,"1530316187","월곶역 수인분당선","경기 시흥시 월곶동 992-8","경기 시흥시 월곶중앙로14번길 56","031-8077-5512","http://place.map.kakao.com/1530316187","126.742707561155","37.3918207044367","SW8","지하철역","교통,수송 > 지하철,전철 > 수인분당선"
463,"경강선","세종대왕릉",37.295309,127.570938,"898296364","세종대왕릉역 경강선","경기 여주시 능서면 신지리 275","경기 여주시 능서면 양화로 877","070-7821-5710","http://place.map.kakao.com/898296364","127.570659645212","37.2936335226433","SW8","지하철역","교통,수송 > 지하철,전철 > 경강선"
464,"01호선","오산",37.145885,127.06672,"21160564","오산역 1호선","경기 오산시 오산동 603-116","경기 오산시 역광장로 59","031-374-7788","http://place.map.kakao.com/21160564","127.066630122646","37.1447171633287","SW8","지하철역","교통,수송 > 지하철,전철 > 수도권1호선"
465,"01호선","진위",37.109447,127.062278,"10779285","진위역 1호선","경기 평택시 진위면 하북리 139-3","경기 평택시 진위면 경기대로 1855","031-667-7652","http://place.map.kakao.com/10779285","127.062355993621","37.1100790285838","SW8","지하철역","교통,수송 > 지하철,전철 > 수도권1호선"
466,"01호선","동암",37.471408,126.702896,"21160516","동암역 1호선","인천 부평구 십정동 541","인천 부평구 동암광장로 10","032-421-7788","http://place.map.kakao.com/21160516","126.702889753462","37.4706957867304","SW8","지하철역","교통,수송 > 지하철,전철 > 수도권1호선"
467,"01호선","도화",37.46607,126.668672,"21160800","제물포역 1호선","인천 미추홀구 숭의동 450-39","인천 미추홀구 경인로 129","032-883-7788","http://place.map.kakao.com/21160800","126.65749387411809","37.466819329634994","SW8","지하철역","교통,수송 > 지하철,전철 > 수도권1호선"
468,"수인분당선","구성",37.298969,127.105664,"15110701","구성역 수인분당선","경기 용인시 기흥구 마북동 460-3","경기 용인시 기흥구 용구대로 2403","1544-7788","http://place.map.kakao.com/15110701","127.105695833197","37.2989770487314","SW8","지하철역","교통,수송 > 지하철,전철 > 수인분당선"
469,"수인선","소래포구",37.40095,126.733522,"1530161379","소래포구역 수인분당선","인천 남동구 논현동 731-7","인천 남동구 소래역로 51","031-8077-5522","http://place.map.kakao.com/1530161379","126.733492081979","37.4009402347666","SW8","지하철역","교통,수송 > 지하철,전철 > 수인분당선"
470,"수인선","인천논현",37.400614,126.722478,"1530392316","인천논현역 수인분당선","인천 남동구 논현동 731-4","인천 남동구 청능대로 567","031-8077-5532","http://place.map.kakao.com/1530392316","126.722452080127","37.4006589466073","SW8","지하철역","교통,수송 > 지하철,전철 > 수인분당선"
471,"수인선","호구포",37.401637,126.708627,"1530384665","호구포역 수인분당선","인천 남동구 논현동 731-1","인천 남동구 호구포로 205","031-8077-5542","http://place.map.kakao.com/1530384665","126.708683171095","37.4016421735726","SW8","지하철역","교통,수송 > 지하철,전철 > 수인분당선"
472,"수인선","남동인더스파크",37.407722,126.695216,"1530382731","남동인더스파크역 수인분당선","인천 남동구 고잔동 970-14","인천 남동구 은청로 17","031-8077-5553","http://place.map.kakao.com/1530382731","126.695227491501","37.4077423820652","SW8","지하철역","교통,수송 > 지하철,전철 > 수인분당선"
473,"수인선","원인재",37.412603,126.687389,"1530320891","원인재역 수인분당선","인천 연수구 연수동 585-1","인천 연수구 벚꽃로 195","031-8077-5571","http://place.map.kakao.com/1530320891","126.686457819329","37.4132120460243","SW8","지하철역","교통,수송 > 지하철,전철 > 수인분당선"
474,"수인선","연수",37.417804,126.67894,"1530451268","송도역 수인분당선","인천 연수구 옥련동 산 51-3","인천 연수구 비류대로 175","031-8077-5592","http://place.map.kakao.com/1530451268","126.654675713707","37.4299616326114","SW8","지하철역","교통,수송 > 지하철,전철 > 수인분당선"
475,"수인선","송도",37.428514,126.657772,"1530451268","송도역 수인분당선","인천 연수구 옥련동 산 51-3","인천 연수구 비류대로 175","031-8077-5592","http://place.map.kakao.com/1530451268","126.654675713707","37.4299616326114","SW8","지하철역","교통,수송 > 지하철,전철 > 수인분당선"
476,"수인선","인하대",37.448493,126.649619,"1530481819","인하대역 수인분당선","인천 미추홀구 용현동 672-1","인천 미추홀구 독배로 지하 313","1544-7788","http://place.map.kakao.com/1530481819","126.649763418519","37.4483386165197","SW8","지하철역","교통,수송 > 지하철,전철 > 수인분당선"
477,"수인선","숭의",37.460789,126.638297,"1530226436","숭의역 수인분당선","인천 미추홀구 용현동 686-55","인천 미추홀구 인주대로 지하 6",0,"http://place.map.kakao.com/1530226436","126.63841022084426","37.460799611154286","SW8","지하철역","교통,수송 > 지하철,전철 > 수인분당선"
478,"수인선","인천",37.476691,126.616936,"1530226436","숭의역 수인분당선","인천 미추홀구 용현동 686-55","인천 미추홀구 인주대로 지하 6",0,"http://place.map.kakao.com/1530226436","126.63841022084426","37.460799611154286","SW8","지하철역","교통,수송 > 지하철,전철 > 수인분당선"
479,"01호선","방학",37.667503,127.044273,"21160795","방학역 1호선","서울 도봉구 방학동 728","서울 도봉구 도봉로150다길 3","02-3492-0197","http://place.map.kakao.com/21160795","127.044321721307","37.6674383662755","SW8","지하철역","교통,수송 > 지하철,전철 > 수도권1호선"
480,"01호선","도봉",37.679563,127.045595,"21160786","도봉역 1호선","서울 도봉구 도봉동 639","서울 도봉구 도봉로170길 2","02-3493-8874","http://place.map.kakao.com/21160786","127.045534886672","37.6792119046658","SW8","지하철역","교통,수송 > 지하철,전철 > 수도권1호선"
481,"01호선","도봉산",37.689313,127.046222,"21160517","도봉산역 1호선","서울 도봉구 도봉동 301-5","서울 도봉구 도봉로 948","1544-7788","http://place.map.kakao.com/21160517","127.04606271663916","37.68951167833238","SW8","지하철역","교통,수송 > 지하철,전철 > 수도권1호선"
482,"01호선","망월사",37.709914,127.047455,"11322295","망월사역 1호선","경기 의정부시 호원동 50-5","경기 의정부시 평화로 221","031-873-7788","http://place.map.kakao.com/11322295","127.047418285506","37.7102191609902","SW8","지하철역","교통,수송 > 지하철,전철 > 수도권1호선"
483,"01호선","회룡",37.724846,127.046895,"10965595","회룡역 1호선","경기 의정부시 호원동 50-5","경기 의정부시 평화로 363","031-872-7744","http://place.map.kakao.com/10965595","127.047295368138","37.7238058806629","SW8","지하철역","교통,수송 > 지하철,전철 > 수도권1호선"
484,"01호선","의정부",37.738415,127.045958,"21160452","의정부역 1호선","경기 의정부시 의정부동 168-54","경기 의정부시 평화로 525","031-872-7788","http://place.map.kakao.com/21160452","127.045956826767","37.7383624923599","SW8","지하철역","교통,수송 > 지하철,전철 > 수도권1호선"
485,"01호선","가능",37.748577,127.044213,"8115724","가능역 1호선","경기 의정부시 가능동 197-1","경기 의정부시 평화로 633","031-842-7788","http://place.map.kakao.com/8115724","127.044288264841","37.7483963196456","SW8","지하철역","교통,수송 > 지하철,전철 > 수도권1호선"
486,"01호선","양주",37.774381,127.044708,"7994426","양주역 1호선","경기 양주시 남방동 94-1","경기 양주시 평화로 919","031-841-7787","http://place.map.kakao.com/7994426","127.044721319691","37.7741421622165","SW8","지하철역","교통,수송 > 지하철,전철 > 수도권1호선"
487,"01호선","덕계",37.818486,127.056486,"21160792","덕계역 1호선","경기 양주시 덕계동 209-5","경기 양주시 덕계로 126","031-866-6792","http://place.map.kakao.com/21160792","127.056691678415","37.8187525814885","SW8","지하철역","교통,수송 > 지하철,전철 > 수도권1호선"
488,"01호선","덕정",37.843188,127.061277,"10307395","덕정역 1호선","경기 양주시 덕정동 350-14","경기 양주시 화합로 1356","031-858-2788","http://place.map.kakao.com/10307395","127.06155932141","37.8431876500694","SW8","지하철역","교통,수송 > 지하철,전철 > 수도권1호선"
489,"01호선","지행",37.892334,127.055716,"10772093","지행역 1호선","경기 동두천시 지행동 424-1","경기 동두천시 평화로 2285","031-862-2788","http://place.map.kakao.com/10772093","127.05579309162063","37.892342734325595","SW8","지하철역","교통,수송 > 지하철,전철 > 수도권1호선"
490,"01호선","동두천중앙",37.901885,127.056482,"21160524","동두천중앙역 1호선","경기 동두천시 생연동 726-3","경기 동두천시 동두천로 228","031-865-2788","http://place.map.kakao.com/21160524","127.05642330094","37.9017807357936","SW8","지하철역","교통,수송 > 지하철,전철 > 수도권1호선"
491,"01호선","동두천",37.927878,127.05479,"10772093","지행역 1호선","경기 동두천시 지행동 424-1","경기 동두천시 평화로 2285","031-862-2788","http://place.map.kakao.com/10772093","127.05579309162063","37.892342734325595","SW8","지하철역","교통,수송 > 지하철,전철 > 수도권1호선"
492,"03호선","원당",37.653324,126.843041,"21160549","원당역 3호선","경기 고양시 덕양구 성사동 410-7","경기 고양시 덕양구 고양대로 1429","1544-7788","http://place.map.kakao.com/21160549","126.842918441607","37.6531102058516","SW8","지하철역","교통,수송 > 지하철,전철 > 수도권3호선"
493,"03호선","대곡",37.631626,126.811024,"21160817","대곡역 3호선","경기 고양시 덕양구 대장동 420-1","경기 고양시 덕양구 대주로107번길 71-81","1544-7788","http://place.map.kakao.com/21160817","126.810929998862","37.6316955592152","SW8","지하철역","교통,수송 > 지하철,전철 > 수도권3호선"
494,"03호선","백석",37.643114,126.78787,"21160594","백석역 3호선","경기 고양시 일산동구 백석동 1538","경기 고양시 일산동구 중앙로 지하 1042","031-902-7788","http://place.map.kakao.com/21160594","126.788131509803","37.6429623651607","SW8","지하철역","교통,수송 > 지하철,전철 > 수도권3호선"
495,"03호선","마두",37.652206,126.77762,"21160818","마두역 3호선","경기 고양시 일산동구 마두동 765-1","경기 고양시 일산동구 중앙로 지하 1180","031-901-7728","http://place.map.kakao.com/21160818","126.77761059652867","37.65224113444557","SW8","지하철역","교통,수송 > 지하철,전철 > 수도권3호선"
496,"03호선","정발산",37.659477,126.773359,"8062875","정발산역 3호선","경기 고양시 일산동구 마두동 1123","경기 고양시 일산동구 중앙로 지하 1270","1544-7788","http://place.map.kakao.com/8062875","126.773405960872","37.659480619983","SW8","지하철역","교통,수송 > 지하철,전철 > 수도권3호선"
497,"03호선","주엽",37.670072,126.761334,"8514169","주엽역 3호선","경기 고양시 일산서구 주엽동 166-7","경기 고양시 일산서구 중앙로 지하 1432","031-911-7772","http://place.map.kakao.com/8514169","126.761263524195","37.6701494878278","SW8","지하철역","교통,수송 > 지하철,전철 > 수도권3호선"
498,"03호선","대화",37.676087,126.747569,"21160547","대화역 3호선","경기 고양시 일산서구 대화동 2221","경기 고양시 일산서구 중앙로 지하 1569","031-917-7799","http://place.map.kakao.com/21160547","126.747500970967","37.676157377075","SW8","지하철역","교통,수송 > 지하철,전철 > 수도권3호선"
499,"수인분당선","청량리",37.580178,127.046835,"1113878626","청량리역 수인분당선","서울 동대문구 전농동 591-53","서울 동대문구 왕산로 214","1544-7788","http://place.map.kakao.com/1113878626","127.047847862522","37.5808953806814","SW8","지하철역","교통,수송 > 지하철,전철 > 수인분당선"
500,"수인분당선","보정",37.312752,127.108196,"15110702","보정역 수인분당선","경기 용인시 기흥구 보정동 1285","경기 용인시 기흥구 용구대로 지하 2560","031-265-7736","http://place.map.kakao.com/15110702","127.108336816968","37.3127749181936","SW8","지하철역","교통,수송 > 지하철,전철 > 수인분당선"
501,"01호선","보산",37.913702,127.057277,"7892430","보산역 1호선","경기 동두천시 보산동 422","경기 동두천시 평화로 2539","031-866-4987","http://place.map.kakao.com/7892430","127.0571810247491","37.914144018035586","SW8","지하철역","교통,수송 > 지하철,전철 > 수도권1호선"
502,"03호선","원흥",37.650658,126.872642,"26102869","원흥역 3호선","경기 고양시 덕양구 원흥동 569-15","경기 고양시 덕양구 권율대로 681","1544-7788","http://place.map.kakao.com/26102869","126.87302523491","37.6506921774602","SW8","지하철역","교통,수송 > 지하철,전철 > 수도권3호선"
503,"03호선","삼송",37.653083,126.895558,"21160635","삼송역 3호선","경기 고양시 덕양구 삼송동 18-5","경기 고양시 덕양구 삼송로 지하 194","1544-7788","http://place.map.kakao.com/21160635","126.895671839107","37.6530749531282","SW8","지하철역","교통,수송 > 지하철,전철 > 수도권3호선"
504,"인천선","계양",37.571462,126.735637,"21160972","계양역 인천1호선","인천 계양구 귤현동 451-264","인천 계양구 다남로 24","032-710-9105","http://place.map.kakao.com/21160972","126.73633456381877","37.571517804153075","SW8","지하철역","교통,수송 > 지하철,전철 > 인천1호선"
505,"인천선","귤현",37.566379,126.742654,"21161101","귤현역 인천1호선","인천 계양구 귤현동 334-1","인천 계양구 장제로 1136","032-515-9104","http://place.map.kakao.com/21161101","126.742679119614","37.5662988350728","SW8","지하철역","교통,수송 > 지하철,전철 > 인천1호선"
506,"인천선","박촌",37.553703,126.745077,"21160511","박촌역 인천1호선","인천 계양구 박촌동 101-8","인천 계양구 장제로 지하 992","032-519-3122","http://place.map.kakao.com/21160511","126.74506746745","37.5536612597496","SW8","지하철역","교통,수송 > 지하철,전철 > 인천1호선"
507,"인천선","임학",37.545059,126.738665,"21161025","임학역 인천1호선","인천 계양구 임학동 93","인천 계양구 장제로 지하 875","032-541-3113","http://place.map.kakao.com/21161025","126.738633379569","37.5450120455649","SW8","지하철역","교통,수송 > 지하철,전철 > 인천1호선"
508,"인천선","계산",37.543238,126.728128,"21160989","계산역 인천1호선","인천 계양구 계산동 1014","인천 계양구 경명대로 지하 1089","032-546-3151","http://place.map.kakao.com/21160989","126.7277312169","37.5433079533771","SW8","지하철역","교통,수송 > 지하철,전철 > 인천1호선"
509,"인천선","경인교대입구",37.538157,126.722597,"21160973","경인교대입구역 인천1호선","인천 계양구 계산동 1034","인천 계양구 계양대로 지하 162","032-553-3394","http://place.map.kakao.com/21160973","126.722631302651","37.538124360683","SW8","지하철역","교통,수송 > 지하철,전철 > 인천1호선"
510,"인천선","작전",37.530415,126.722527,"27455724","작전역 인천1호선","인천 계양구 작전동 878","인천 계양구 계양대로 지하 73","032-543-3116","http://place.map.kakao.com/27455724","126.722560827351","37.5302710952892","SW8","지하철역","교통,수송 > 지하철,전철 > 인천1호선"
511,"인천선","갈산",37.517268,126.721514,"21161102","갈산역 인천1호선","인천 부평구 청천동 112","인천 부평구 부평대로 지하 286","032-511-4245","http://place.map.kakao.com/21161102","126.721550773775","37.5171177260985","SW8","지하철역","교통,수송 > 지하철,전철 > 인천1호선"
512,"인천선","부평구청",37.508336,126.720548,"21160974","부평시장역 인천1호선","인천 부평구 부평동 126-10","인천 부평구 부평대로 지하 69","032-512-3119","http://place.map.kakao.com/21160974","126.722285373949","37.4983641942962","SW8","지하철역","교통,수송 > 지하철,전철 > 인천1호선"
513,"인천선","부평시장",37.498383,126.722244,"21160974","부평시장역 인천1호선","인천 부평구 부평동 126-10","인천 부평구 부평대로 지하 69","032-512-3119","http://place.map.kakao.com/21160974","126.722285373949","37.4983641942962","SW8","지하철역","교통,수송 > 지하철,전철 > 인천1호선"
514,"인천선","부평",37.489493,126.724805,"21160990","부평역 인천1호선","인천 부평구 부평동 126-10","인천 부평구 광장로 지하 15","032-515-9103","http://place.map.kakao.com/21160990","126.723454741807","37.4903768319169","SW8","지하철역","교통,수송 > 지하철,전철 > 인천1호선"
515,"인천선","동수",37.485312,126.718247,"21161024","동수역 인천1호선","인천 부평구 부평동 686","인천 부평구 경인로 지하 877","032-516-3121","http://place.map.kakao.com/21161024","126.718606270842","37.4855071635951","SW8","지하철역","교통,수송 > 지하철,전철 > 인천1호선"
516,"인천선","부평삼거리",37.477679,126.710208,"21161100","부평삼거리역 인천1호선","인천 부평구 십정동 592","인천 부평구 경인로 지하 765","032-516-3122","http://place.map.kakao.com/21161100","126.71029378166388","37.477834830017315","SW8","지하철역","교통,수송 > 지하철,전철 > 인천1호선"
517,"인천선","인천시청",37.457405,126.702221,"11474514","인천시청역 인천1호선","인천 남동구 간석동 927","인천 남동구 예술로 지하 264","032-441-3124","http://place.map.kakao.com/11474514","126.70223575350143","37.45773583769292","SW8","지하철역","교통,수송 > 지하철,전철 > 인천1호선"
518,"인천선","예술회관",37.449396,126.701012,"21160970","예술회관역 인천1호선","인천 남동구 구월동 1408","인천 남동구 예술로 지하 172","032-441-3125","http://place.map.kakao.com/21160970","126.700916120922","37.4485259845342","SW8","지하철역","교통,수송 > 지하철,전철 > 인천1호선"
519,"인천선","인천터미널",37.442383,126.699706,"21161098","인천터미널역 인천1호선","인천 미추홀구 관교동 14","인천 미추홀구 예술로 지하 85","032-441-3126","http://place.map.kakao.com/21161098","126.699694889876","37.4419166733897","SW8","지하철역","교통,수송 > 지하철,전철 > 인천1호선"
520,"인천선","문학경기장",37.434935,126.698579,"21161098","인천터미널역 인천1호선","인천 미추홀구 관교동 14","인천 미추홀구 예술로 지하 85","032-441-3126","http://place.map.kakao.com/21161098","126.699694889876","37.4419166733897","SW8","지하철역","교통,수송 > 지하철,전철 > 인천1호선"
521,"인천선","선학",37.426684,126.698863,"21161023","선학역 인천1호선","인천 연수구 선학동 241-2","인천 연수구 경원대로 지하 480","032-821-3128","http://place.map.kakao.com/21161023","126.69892316532737","37.4269470843403","SW8","지하철역","교통,수송 > 지하철,전철 > 인천1호선"
522,"인천선","신연수",37.41804,126.693863,"21161099","신연수역 인천1호선","인천 연수구 선학동 384","인천 연수구 경원대로 지하 368","032-813-3129","http://place.map.kakao.com/21161099","126.694019681969","37.4181081550544","SW8","지하철역","교통,수송 > 지하철,전철 > 인천1호선"
523,"인천선","원인재",37.412603,126.687389,"21160987","원인재역 인천1호선","인천 연수구 연수동 647","인천 연수구 경원대로 지하 285","032-816-3130","http://place.map.kakao.com/21160987","126.687889114089","37.4123688782408","SW8","지하철역","교통,수송 > 지하철,전철 > 인천1호선"
524,"인천선","동춘",37.404737,126.681015,"21160968","동춘역 인천1호선","인천 연수구 동춘동 926-11","인천 연수구 경원대로 지하 180","032-814-5702","http://place.map.kakao.com/21160968","126.680851046438","37.404576119239","SW8","지하철역","교통,수송 > 지하철,전철 > 인천1호선"
525,"인천선","동막",37.397878,126.674005,"21161021","동막역 인천1호선","인천 연수구 동춘동 927-1","인천 연수구 경원대로 지하 80","032-816-5584","http://place.map.kakao.com/21161021","126.673448014592","37.3979424375979","SW8","지하철역","교통,수송 > 지하철,전철 > 인천1호선"
526,"인천선","캠퍼스타운",37.387855,126.661673,"21161097","캠퍼스타운역 인천1호선","인천 연수구 송도동 3-47","인천 연수구 송도국제대로 지하 66","032-451-3183","http://place.map.kakao.com/21161097","126.662206121031","37.38844295632","SW8","지하철역","교통,수송 > 지하철,전철 > 인천1호선"
527,"인천선","테크노파크",37.382268,126.656365,"21160969","테크노파크역 인천1호선","인천 연수구 송도동 7-51","인천 연수구 송도국제대로 지하 150","032-451-3184","http://place.map.kakao.com/21160969","126.656299104753","37.3822809834253","SW8","지하철역","교통,수송 > 지하철,전철 > 인천1호선"
528,"인천선","지식정보단지",37.378384,126.645168,"21160985","지식정보단지역 인천1호선","인천 연수구 송도동 48","인천 연수구 인천타워대로 지하 57","032-451-3185","http://place.map.kakao.com/21160985","126.645861381029","37.37750721892","SW8","지하철역","교통,수송 > 지하철,전철 > 인천1호선"
529,"인천선","인천대입구",37.386007,126.639484,"21161020","인천대입구역 인천1호선","인천 연수구 송도동 48","인천 연수구 인천타워대로 지하 155","032-451-3186","http://place.map.kakao.com/21161020","126.639542234479","37.3862063921103","SW8","지하철역","교통,수송 > 지하철,전철 > 인천1호선"
530,"인천선","센트럴파크",37.393054,126.634729,"21161096","센트럴파크역 인천1호선","인천 연수구 송도동 78","인천 연수구 인천타워대로 지하 240","032-451-3187","http://place.map.kakao.com/21161096","126.634988814949","37.3928455432657","SW8","지하철역","교통,수송 > 지하철,전철 > 인천1호선"
531,"인천선","국제업무지구",37.399907,126.630347,"21160984","국제업무지구역 인천1호선","인천 연수구 송도동 78","인천 연수구 인천타워대로 지하 334","032-451-3188","http://place.map.kakao.com/21160984","126.630542158102","37.3996578386606","SW8","지하철역","교통,수송 > 지하철,전철 > 인천1호선"
532,"인천2호선","마전",37.597566,126.666998,"87949608","마전역 인천2호선","인천 서구 마전동 999-25","인천 서구 완정로 68","032-451-4304","http://place.map.kakao.com/87949608","126.667223457118","37.5976340869751","SW8","지하철역","교통,수송 > 지하철,전철 > 인천2호선"
533,"인천2호선","독정",37.585212,126.675844,"641502477","독정역 인천2호선","인천 서구 백석동 74-1","인천 서구 서곶로 760","032-451-4306","http://place.map.kakao.com/641502477","126.67600264877679","37.58484825991949","SW8","지하철역","교통,수송 > 지하철,전철 > 인천2호선"
534,"인천2호선","검바위",37.561405,126.677566,"212139049","검바위역 인천2호선","인천 서구 검암동 산 72-15","인천 서구 서곶로 492","032-451-4308","http://place.map.kakao.com/212139049","126.677531491203","37.5611257424349","SW8","지하철역","교통,수송 > 지하철,전철 > 인천2호선"
535,"인천2호선","서구청",37.543742,126.676787,"2107697625","서구청역 인천2호선","인천 서구 심곡동 산 7-4","인천 서구 서곶로 294","032-451-4310","http://place.map.kakao.com/2107697625","126.676844673062","37.5440446154284","SW8","지하철역","교통,수송 > 지하철,전철 > 인천2호선"
536,"인천2호선","가정",37.524649,126.675539,"1729778871","가정역 인천2호선","인천 서구 가정동 산 116-5","인천 서구 봉오대로 234","032-451-4311","http://place.map.kakao.com/1729778871","126.675357432309","37.5248168619511","SW8","지하철역","교통,수송 > 지하철,전철 > 인천2호선"
537,"인천2호선","인천가좌",37.4897,126.675208,"1382062628","가재울역 인천2호선","인천 서구 가좌동 288","인천 서구 열우물로 252","032-451-4316","http://place.map.kakao.com/1382062628","126.683769149033","37.4841504406643","SW8","지하철역","교통,수송 > 지하철,전철 > 인천2호선"
538,"인천2호선","가재울",37.484192,126.683673,"1382062628","가재울역 인천2호선","인천 서구 가좌동 288","인천 서구 열우물로 252","032-451-4316","http://place.map.kakao.com/1382062628","126.683769149033","37.4841504406643","SW8","지하철역","교통,수송 > 지하철,전철 > 인천2호선"
539,"인천2호선","주안국가산단",37.473703,126.68113,"1135226397","주안국가산단역 인천2호선","인천 서구 가좌동 606-11","인천 서구 방축로 343","032-451-4317","http://place.map.kakao.com/1135226397","126.68122005538342","37.47391267095278","SW8","지하철역","교통,수송 > 지하철,전철 > 인천2호선"
540,"인천2호선","인천시청",37.457405,126.702221,"1085121951","인천시청역 인천2호선","인천 남동구 간석동 493-27","인천 남동구 구월로 지하 99","032-451-4321","http://place.map.kakao.com/1085121951","126.701104251603","37.4569130627376","SW8","지하철역","교통,수송 > 지하철,전철 > 인천2호선"
541,"인천2호선","석천사거리",37.456805,126.709986,"1362443467","석천사거리역 인천2호선","인천 남동구 구월동 73-3","인천 남동구 구월로 지하 181","032-451-4322","http://place.map.kakao.com/1362443467","126.710422456642","37.4567884972007","SW8","지하철역","교통,수송 > 지하철,전철 > 인천2호선"
542,"인천2호선","모래내시장",37.45583,126.719298,"260198474","모래내시장역 인천2호선","인천 남동구 구월동 341-6","인천 남동구 구월로 지하 255","032-451-4323","http://place.map.kakao.com/260198474","126.719621557604","37.4558628174958","SW8","지하철역","교통,수송 > 지하철,전철 > 인천2호선"
543,"인천2호선","만수",37.454911,126.732094,"214182212","만수역 인천2호선","인천 남동구 만수동 993","인천 남동구 구월로 지하 367","032-451-4324","http://place.map.kakao.com/214182212","126.731736248865","37.4549755117309","SW8","지하철역","교통,수송 > 지하철,전철 > 인천2호선"
544,"인천2호선","운연",37.440127,126.75997,"1127858078","운연역 인천2호선","인천 남동구 운연동 130-1","인천 남동구 매소홀로 1229","032-451-4327","http://place.map.kakao.com/1127858078","126.759606687799","37.4396425989597","SW8","지하철역","교통,수송 > 지하철,전철 > 인천2호선"
545,"인천2호선","검암",37.569104,126.673728,"212139049","검바위역 인천2호선","인천 서구 검암동 산 72-15","인천 서구 서곶로 492","032-451-4308","http://place.map.kakao.com/212139049","126.677531491203","37.5611257424349","SW8","지하철역","교통,수송 > 지하철,전철 > 인천2호선"
546,"인천2호선","가정중앙시장",37.517054,126.676672,"737814794","가정중앙시장역 인천2호선","인천 서구 가정동 529","인천 서구 가남로 400","032-451-4312","http://place.map.kakao.com/737814794","126.676823324228","37.5175263931377","SW8","지하철역","교통,수송 > 지하철,전철 > 인천2호선"
547,"인천2호선","석남",37.506193,126.676203,"928506772","석남역 인천2호선","인천 서구 석남동 600","인천 서구 가석로 257","032-451-4313","http://place.map.kakao.com/928506772","126.67630003104057","37.507474300017016","SW8","지하철역","교통,수송 > 지하철,전철 > 인천2호선"
548,"인천2호선","서부여성회관",37.506193,126.676203,"385437291","서부여성회관역 인천2호선","인천 서구 석남동 563-4","인천 서구 가석로 169","032-451-4314","http://place.map.kakao.com/385437291","126.675870541598","37.5003434953542","SW8","지하철역","교통,수송 > 지하철,전철 > 인천2호선"
549,"인천2호선","주안",37.464941,126.679923,"1214858746","시민공원역 인천2호선","인천 미추홀구 주안동 189","인천 미추홀구 경인로 지하 371","032-451-4319","http://place.map.kakao.com/1214858746","126.681074618963","37.4583852139167","SW8","지하철역","교통,수송 > 지하철,전철 > 인천2호선"
550,"인천2호선","시민공원",37.458335,126.681192,"1214858746","시민공원역 인천2호선","인천 미추홀구 주안동 189","인천 미추홀구 경인로 지하 371","032-451-4319","http://place.map.kakao.com/1214858746","126.681074618963","37.4583852139167","SW8","지하철역","교통,수송 > 지하철,전철 > 인천2호선"
551,"인천2호선","석바위시장",37.457611,126.692575,"1232260667","석바위시장역 인천2호선","인천 미추홀구 주안동 1597","인천 미추홀구 구월로 지하 19","032-451-4320","http://place.map.kakao.com/1232260667","126.692353074376","37.4576690774014","SW8","지하철역","교통,수송 > 지하철,전철 > 인천2호선"
552,"09호선","개화",37.578608,126.798153,"8683474","개화역 9호선","서울 강서구 개화동 664","서울 강서구 개화동로8길 19","02-2656-0901","http://place.map.kakao.com/8683474","126.796891362602","37.5783445148797","SW8","지하철역","교통,수송 > 지하철,전철 > 수도권9호선"
553,"09호선","김포공항",37.562434,126.801058,"8237395","김포공항역 9호선","서울 강서구 방화동 886","서울 강서구 하늘길 지하 77","02-2656-0902","http://place.map.kakao.com/8237395","126.80191361988808","37.56196757232288","SW8","지하철역","교통,수송 > 지하철,전철 > 수도권9호선"
554,"09호선","공항시장",37.563726,126.810678,"8184889","공항시장역 9호선","서울 강서구 공항동 산 20-2","서울 강서구 방화동로 지하 30","02-2656-0903","http://place.map.kakao.com/8184889","126.81060964296609","37.56368922800772","SW8","지하철역","교통,수송 > 지하철,전철 > 수도권9호선"
555,"09호선","신방화",37.567532,126.816601,"7972954","신방화역 9호선","서울 강서구 방화동 217-156","서울 강서구 방화대로 지하 301","02-2656-0904","http://place.map.kakao.com/7972954","126.81723757150974","37.56748745669626","SW8","지하철역","교통,수송 > 지하철,전철 > 수도권9호선"
556,"09호선","마곡나루",37.567336,126.829497,"21160717","마곡나루역 9호선","서울 강서구 마곡동 760-3","서울 강서구 마곡중앙5로 지하 2","02-2656-0905","http://place.map.kakao.com/21160717","126.827420928424","37.5667126094974","SW8","지하철역","교통,수송 > 지하철,전철 > 수도권9호선"
557,"09호선","양천향교",37.568381,126.841333,"8428742","양천향교역 9호선","서울 강서구 가양동 159-3","서울 강서구 양천로 지하 341","02-2656-0906","http://place.map.kakao.com/8428742","126.841978835328","37.5680808809647","SW8","지하철역","교통,수송 > 지하철,전철 > 수도권9호선"
558,"09호선","증미",37.557402,126.861939,"11147967","증미역 9호선","서울 강서구 등촌동 666-40","서울 강서구 양천로 지하 560","02-2656-0908","http://place.map.kakao.com/11147967","126.86063675500975","37.558133059903305","SW8","지하철역","교통,수송 > 지하철,전철 > 수도권9호선"
559,"09호선","등촌",37.550632,126.865689,"7852356","등촌역 9호선","서울 강서구 등촌동 666-94","서울 강서구 공항대로 지하 529","02-2656-0909","http://place.map.kakao.com/7852356","126.86557100595411","37.550728980328884","SW8","지하철역","교통,수송 > 지하철,전철 > 수도권9호선"
560,"09호선","선유도",37.53802,126.893525,"7939160","선유도역 9호선","서울 영등포구 양평동5가 66-1","서울 영등포구 양평로 지하 124","02-2656-0912","http://place.map.kakao.com/7939160","126.89333386450167","37.53815865606546","SW8","지하철역","교통,수송 > 지하철,전철 > 수도권9호선"
561,"09호선","샛강",37.517274,126.928422,"7929049","샛강역 9호선","서울 영등포구 여의도동 5-6","서울 영등포구 의사당대로 지하 166","02-2656-0916","http://place.map.kakao.com/7929049","126.928375058271","37.5173737710931","SW8","지하철역","교통,수송 > 지하철,전철 > 수도권9호선"
562,"09호선","노량진",37.514219,126.942454,"11293715","노량진역 9호선","서울 동작구 노량진동 60-11","서울 동작구 노량진로 지하 130","02-2656-0917","http://place.map.kakao.com/11293715","126.940893179777","37.5135856714992","SW8","지하철역","교통,수송 > 지하철,전철 > 수도권9호선"
563,"09호선","흑석",37.50877,126.963708,"21160782","흑석역 9호선","서울 동작구 흑석동 4","서울 동작구 현충로 지하 90","02-2656-0919","http://place.map.kakao.com/21160782","126.963463063008","37.5091654719404","SW8","지하철역","교통,수송 > 지하철,전철 > 수도권9호선"
564,"09호선","구반포",37.501364,126.987332,"8189616","구반포역 9호선","서울 서초구 반포동 817","서울 서초구 신반포로 지하 17","02-2656-0921","http://place.map.kakao.com/8189616","126.987464905696","37.5014398319603","SW8","지하철역","교통,수송 > 지하철,전철 > 수도권9호선"
565,"09호선","신반포",37.503415,126.995925,"7968042","신반포역 9호선","서울 서초구 반포동 128-1","서울 서초구 신반포로 지하 105","02-2656-0922","http://place.map.kakao.com/7968042","126.996082392175","37.5035091412544","SW8","지하철역","교통,수송 > 지하철,전철 > 수도권9호선"
566,"09호선","신논현",37.504598,127.02506,"7967869","신논현역 9호선","서울 강남구 역삼동 800","서울 강남구 봉은사로 지하 102","02-2656-0925","http://place.map.kakao.com/7967869","127.025492036104","37.504811111562","SW8","지하철역","교통,수송 > 지하철,전철 > 수도권9호선"
567,"공항철도","김포공항",37.562434,126.801058,"21160920","김포공항역 공항철도","서울 강서구 방화동 886","서울 강서구 하늘길 지하 77","032-745-7440","http://place.map.kakao.com/21160920","126.802473107985","37.5618297564202","SW8","지하철역","교통,수송 > 지하철,전철 > 공항철도"
568,"공항철도","계양",37.571462,126.735637,"21161052","계양역 공항철도","인천 계양구 귤현동 451-264","인천 계양구 다남로 24","032-745-7450","http://place.map.kakao.com/21161052","126.73627367694554","37.57177084709832","SW8","지하철역","교통,수송 > 지하철,전철 > 공항철도"
569,"신분당선","동천",37.337928,127.102976,"27392613","동천역 신분당선","경기 용인시 수지구 동천동 323-4","경기 용인시 수지구 신수로 지하 760","031-270-5912","http://place.map.kakao.com/27392613","127.102870440698","37.3378429142383","SW8","지하철역","교통,수송 > 지하철,전철 > 신분당선"
570,"신분당선","수지구청",37.322702,127.095026,"27392621","수지구청역 신분당선","경기 용인시 수지구 풍덕천동 1045-1","경기 용인시 수지구 풍덕천로 지하 120","031-8018-7790","http://place.map.kakao.com/27392621","127.094658560596","37.322492584304","SW8","지하철역","교통,수송 > 지하철,전철 > 신분당선"
571,"신분당선","성복",37.313335,127.0801,"27392622","성복역 신분당선","경기 용인시 수지구 성복동 720-6","경기 용인시 수지구 수지로 지하 134","031-270-5912","http://place.map.kakao.com/27392622","127.08038367116","37.3135324511783","SW8","지하철역","교통,수송 > 지하철,전철 > 신분당선"
572,"신분당선","상현",37.297664,127.069342,"27392636","상현역 신분당선","경기 용인시 수지구 상현동 502-10","경기 용인시 수지구 광교중앙로 지하 312","031-270-5912","http://place.map.kakao.com/27392636","127.069363534097","37.2978289663421","SW8","지하철역","교통,수송 > 지하철,전철 > 신분당선"
573,"신분당선","광교중앙",37.288617,127.051478,"27392591","광교중앙역 신분당선","경기 수원시 영통구 이의동 268-1","경기 수원시 영통구 도청로 지하 45","031-270-5912","http://place.map.kakao.com/27392591","127.051726324729","37.2883843017536","SW8","지하철역","교통,수송 > 지하철,전철 > 신분당선"
574,"인천2호선","왕길",37.59518,126.642696,"824066386","검단사거리역 인천2호선","인천 서구 왕길동 234-1","인천 서구 검단로 473","032-451-4303","http://place.map.kakao.com/824066386","126.65643839271","37.6016612295398","SW8","지하철역","교통,수송 > 지하철,전철 > 인천2호선"
575,"인천2호선","완정",37.592928,126.673203,"1655613640","완정역 인천2호선","인천 서구 당하동 1077-10","인천 서구 원당대로 650","032-451-4305","http://place.map.kakao.com/1655613640","126.673033100577","37.5928390497566","SW8","지하철역","교통,수송 > 지하철,전철 > 인천2호선"
576,"09호선","염창",37.546936,126.874916,"21160716","염창역 9호선","서울 강서구 염창동 284-84","서울 강서구 공항대로 지하 631","02-2656-0910","http://place.map.kakao.com/21160716","126.874871603971","37.546982941543","SW8","지하철역","교통,수송 > 지하철,전철 > 수도권9호선"
577,"09호선","신목동",37.544277,126.88308,"10524953","신목동역 9호선","서울 양천구 목동 136-2","서울 양천구 목동중앙로 지하 217","02-2656-0911","http://place.map.kakao.com/10524953","126.883095790252","37.5442883741577","SW8","지하철역","교통,수송 > 지하철,전철 > 수도권9호선"
578,"09호선","당산",37.53438,126.902281,"21161048","당산역 9호선","서울 영등포구 당산동6가 227-1","서울 영등포구 양평로 지하 40","02-2656-0913","http://place.map.kakao.com/21161048","126.902165052778","37.5337892432802","SW8","지하철역","교통,수송 > 지하철,전철 > 수도권9호선"
579,"09호선","국회의사당",37.528105,126.917874,"8690986","국회의사당역 9호선","서울 영등포구 여의도동 1-6","서울 영등포구 국회대로 지하 758","02-2656-0914","http://place.map.kakao.com/8690986","126.91783895106","37.5281465047706","SW8","지하철역","교통,수송 > 지하철,전철 > 수도권9호선"
580,"09호선","여의도",37.521624,126.924191,"10652921","여의도역 9호선","서울 영등포구 여의도동 2-6","서울 영등포구 의사당대로 지하 101","02-2656-0915","http://place.map.kakao.com/10652921","126.92466104293","37.5211700890445","SW8","지하철역","교통,수송 > 지하철,전철 > 수도권9호선"
581,"09호선","노들",37.512887,126.953222,"10188645","노들역 9호선","서울 동작구 본동 475-1","서울 동작구 노량진로 지하 238","02-2656-0918","http://place.map.kakao.com/10188645","126.953096069577","37.5126721234205","SW8","지하철역","교통,수송 > 지하철,전철 > 수도권9호선"
582,"09호선","동작",37.502971,126.979306,"11293715","노량진역 9호선","서울 동작구 노량진동 60-11","서울 동작구 노량진로 지하 130","02-2656-0917","http://place.map.kakao.com/11293715","126.940893179777","37.5135856714992","SW8","지하철역","교통,수송 > 지하철,전철 > 수도권9호선"
583,"09호선","고속터미널",37.50481,127.004943,"21160718","고속터미널역 9호선","서울 서초구 반포동 19-11","서울 서초구 신반포로 지하 188","02-2656-0923","http://place.map.kakao.com/21160718","127.004211793489","37.5059814899483","SW8","지하철역","교통,수송 > 지하철,전철 > 수도권9호선"
584,"09호선","사평",37.504206,127.015259,"7918693","사평역 9호선","서울 서초구 반포동 128-7","서울 서초구 사평대로 지하 285","02-2656-0924","http://place.map.kakao.com/7918693","127.015272484531","37.5042326273953","SW8","지하철역","교통,수송 > 지하철,전철 > 수도권9호선"
585,"공항철도","마곡나루",37.567336,126.829497,"960581878","마곡나루역 공항철도","서울 강서구 마곡동 373-14","서울 강서구 마곡중앙로 지하 135","032-745-6280","http://place.map.kakao.com/960581878","126.82749586320818","37.56563152507763","SW8","지하철역","교통,수송 > 지하철,전철 > 공항철도"
586,"공항철도","검암",37.569104,126.673728,"21160719","검암역 공항철도","인천 서구 검암동 414-204","인천 서구 검바위로 26","032-745-7788","http://place.map.kakao.com/21160719","126.67364220875055","37.56925281871912","SW8","지하철역","교통,수송 > 지하철,전철 > 공항철도"
587,"신분당선","정자",37.36706,127.108105,"18384269","정자역 신분당선","경기 성남시 분당구 정자동 95-1","경기 성남시 분당구 성남대로 지하 333","031-8018-7760","http://place.map.kakao.com/18384269","127.108519062566","37.3673267196137","SW8","지하철역","교통,수송 > 지하철,전철 > 신분당선"
588,"신분당선","미금",37.350077,127.10891,"4499346","미금역 신분당선","경기 성남시 분당구 금곡동 222","경기 성남시 분당구 성남대로 지하 163","031-8018-7770","http://place.map.kakao.com/4499346","127.10879895547586","37.35007178997763","SW8","지하철역","교통,수송 > 지하철,전철 > 신분당선"
589,"의정부경전철","동오",37.745271,127.056947,"17606175","동오역 의정부경전철","경기 의정부시 신곡동 547-15","경기 의정부시 장곡로 471","031-820-1000","http://place.map.kakao.com/17606175","127.056985043204","37.745269911047","SW8","지하철역","교통,수송 > 지하철,전철 > 의정부경전철"
590,"의정부경전철","새말",37.748885,127.06362,"17606176","새말역 의정부경전철","경기 의정부시 신곡동 815-1","경기 의정부시 장곡로 551","031-820-1000","http://place.map.kakao.com/17606176","127.063759511679","37.7488486906286","SW8","지하철역","교통,수송 > 지하철,전철 > 의정부경전철"
591,"의정부경전철","경기도청북부청사",37.75059,127.071495,"17606177","경기도청북부청사역 의정부경전철","경기 의정부시 신곡동 815-2","경기 의정부시 장곡로 615","031-820-1000","http://place.map.kakao.com/17606177","127.071617829299","37.7507650408734","SW8","지하철역","교통,수송 > 지하철,전철 > 의정부경전철"
592,"의정부경전철","효자",37.754025,127.076902,"17606181","효자역 의정부경전철","경기 의정부시 신곡동 773-2","경기 의정부시 부용로 159-40","031-820-1000","http://place.map.kakao.com/17606181","127.077226606947","37.7539905661041","SW8","지하철역","교통,수송 > 지하철,전철 > 의정부경전철"
593,"09호선","가양",37.561391,126.854456,"8115681","가양역 9호선","서울 강서구 가양동 14-61","서울 강서구 양천로 지하 485","02-2656-0907","http://place.map.kakao.com/8115681","126.85442142615852","37.56143311719883","SW8","지하철역","교통,수송 > 지하철,전철 > 수도권9호선"
594,"공항철도","서울",37.554648,126.972559,"21161051","서울역 공항철도","서울 용산구 동자동 43-205","서울 용산구 청파로 378","1599-7788","http://place.map.kakao.com/21161051","126.969747353686","37.5533307290007","SW8","지하철역","교통,수송 > 지하철,전철 > 공항철도"
595,"공항철도","공덕",37.544018,126.951592,"21161051","서울역 공항철도","서울 용산구 동자동 43-205","서울 용산구 청파로 378","1599-7788","http://place.map.kakao.com/21161051","126.969747353686","37.5533307290007","SW8","지하철역","교통,수송 > 지하철,전철 > 공항철도"
596,"공항철도","홍대입구",37.557192,126.925381,"18294418","홍대입구역 공항철도","서울 마포구 동교동 190-1","서울 마포구 양화로 지하 188","1599-7788","http://place.map.kakao.com/18294418","126.927010430346","37.5573052656667","SW8","지하철역","교통,수송 > 지하철,전철 > 공항철도"
597,"공항철도","디지털미디어시티",37.576646,126.900984,"27256221","디지털미디어시티역 공항철도","서울 마포구 상암동 1140","서울 마포구 성암로 지하 184","1599-7788","http://place.map.kakao.com/27256221","126.89788299035767","37.5775200243725","SW8","지하철역","교통,수송 > 지하철,전철 > 공항철도"
598,"공항철도","청라국제도시",37.555878,126.625327,"24907984","청라국제도시역 공항철도","인천 서구 청라동 3-50",0,"1599-7788","http://place.map.kakao.com/24907984","126.62465841357525","37.55646453155236","SW8","지하철역","교통,수송 > 지하철,전철 > 공항철도"
599,"공항철도","운서",37.492904,126.49379,"21160783","운서역 공항철도","인천 중구 운서동 1427-27","인천 중구 흰바위로59번길 26","1599-7788","http://place.map.kakao.com/21160783","126.493729942049","37.4928088834418","SW8","지하철역","교통,수송 > 지하철,전철 > 공항철도"
600,"신분당선","양재시민의숲",37.470023,127.03842,"18382446","양재시민의숲역 신분당선","서울 서초구 양재동 233-2","서울 서초구 매헌로 지하 116","031-8018-7730","http://place.map.kakao.com/18382446","127.038471341381","37.4701332061395","SW8","지하철역","교통,수송 > 지하철,전철 > 신분당선"
601,"신분당선","판교",37.394761,127.111217,"21161059","판교역 신분당선","경기 성남시 분당구 백현동 19-2","경기 성남시 분당구 판교역로 지하 160","031-8018-7750","http://place.map.kakao.com/21161059","127.111196698916","37.3947766273829","SW8","지하철역","교통,수송 > 지하철,전철 > 신분당선"
602,"신분당선","광교",37.30211,127.044483,"27392591","광교중앙역 신분당선","경기 수원시 영통구 이의동 268-1","경기 수원시 영통구 도청로 지하 45","031-270-5912","http://place.map.kakao.com/27392591","127.051726324729","37.2883843017536","SW8","지하철역","교통,수송 > 지하철,전철 > 신분당선"
603,"의정부경전철","회룡",37.724846,127.046895,"17606161","회룡역 의정부경전철","경기 의정부시 호원동 50-5","경기 의정부시 평화로 363","031-820-1000","http://place.map.kakao.com/17606161","127.047069262756","37.7249952537983","SW8","지하철역","교통,수송 > 지하철,전철 > 의정부경전철"
604,"의정부경전철","범골",37.728755,127.04353,"17606162","범골역 의정부경전철","경기 의정부시 호원동 326-24","경기 의정부시 신흥로 141","031-820-1000","http://place.map.kakao.com/17606162","127.043668564435","37.7287878498671","SW8","지하철역","교통,수송 > 지하철,전철 > 의정부경전철"
605,"의정부경전철","경전철의정부",37.737202,127.043257,"17606190","탑석역 의정부경전철","경기 의정부시 용현동 558","경기 의정부시 충의로 20","031-820-1000","http://place.map.kakao.com/17606190","127.088908165858","37.7334871006703","SW8","지하철역","교통,수송 > 지하철,전철 > 의정부경전철"
606,"의정부경전철","의정부시청",37.739256,127.034781,"17606168","의정부시청역 의정부경전철","경기 의정부시 의정부동 617","경기 의정부시 의정로 69","031-820-1000","http://place.map.kakao.com/17606168","127.034848091039","37.739234834508","SW8","지하철역","교통,수송 > 지하철,전철 > 의정부경전철"
607,"의정부경전철","흥선",37.743302,127.037023,"17606169","흥선역 의정부경전철","경기 의정부시 가능동 343-52","경기 의정부시 호국로 1197","031-820-1000","http://place.map.kakao.com/17606169","127.03717589317614","37.74328307869396","SW8","지하철역","교통,수송 > 지하철,전철 > 의정부경전철"
608,"의정부경전철","의정부중앙",37.743676,127.049565,"17606170","의정부중앙역 의정부경전철","경기 의정부시 의정부동 15-10","경기 의정부시 호국로 1305","031-820-1000","http://place.map.kakao.com/17606170","127.049649812523","37.7436803165603","SW8","지하철역","교통,수송 > 지하철,전철 > 의정부경전철"
609,"의정부경전철","곤제",37.750471,127.083715,"17606186","곤제역 의정부경전철","경기 의정부시 용현동 547-10","경기 의정부시 천보로 173","031-820-1000","http://place.map.kakao.com/17606186","127.083822421136","37.7505371570413","SW8","지하철역","교통,수송 > 지하철,전철 > 의정부경전철"
610,"의정부경전철","어룡",37.742802,127.085035,"17606188","어룡역 의정부경전철","경기 의정부시 용현동 564","경기 의정부시 충의로 125","031-820-1000","http://place.map.kakao.com/17606188","127.085206837732","37.7426941378158","SW8","지하철역","교통,수송 > 지하철,전철 > 의정부경전철"
611,"공항철도","공항화물청사",37.458366,126.476241,"21160734","공항화물청사역 공항철도","인천 중구 운서동 2844-7","인천 중구 공항동로135번길 86","1599-7788","http://place.map.kakao.com/21160734","126.47751440637","37.4590625046021","SW8","지하철역","교통,수송 > 지하철,전철 > 공항철도"
612,"공항철도","인천공항1터미널",37.4475222,126.4503887,"21161050","인천공항1터미널역 공항철도","인천 중구 운서동 2851","인천 중구 공항로 271","032-745-7788","http://place.map.kakao.com/21161050","126.452583415737","37.4475285398516","SW8","지하철역","교통,수송 > 지하철,전철 > 공항철도"
613,"공항철도","인천공항2터미널",37.4848197,126.4374276,"698163025","인천공항2터미널역 공항철도","인천 중구 운서동 2840","인천 중구 공항로 272","032-745-7788","http://place.map.kakao.com/698163025","126.433640888212","37.4688002145258","SW8","지하철역","교통,수송 > 지하철,전철 > 공항철도"
614,"공항철도","영종",37.511466,126.5237,"27531321","영종역 공항철도","인천 중구 운북동 465-37","인천 중구 백운로414번길 75","1599-7788","http://place.map.kakao.com/27531321","126.524975940011","37.5120289919535","SW8","지하철역","교통,수송 > 지하철,전철 > 공항철도"
615,"신분당선","강남",37.497175,127.027926,"18381853","강남역 신분당선","서울 강남구 역삼동 858","서울 강남구 강남대로 지하 396","031-8018-7710","http://place.map.kakao.com/18381853","127.028185245594","37.4967771303817","SW8","지하철역","교통,수송 > 지하철,전철 > 신분당선"
616,"신분당선","양재",37.484147,127.034631,"18382446","양재시민의숲역 신분당선","서울 서초구 양재동 233-2","서울 서초구 매헌로 지하 116","031-8018-7730","http://place.map.kakao.com/18382446","127.038471341381","37.4701332061395","SW8","지하철역","교통,수송 > 지하철,전철 > 신분당선"
617,"용인경전철","강남대",37.270161,127.126033,"21161063","강남대역 에버라인","경기 용인시 기흥구 구갈동 480-42","경기 용인시 기흥구 중부대로 578","031-329-3542","http://place.map.kakao.com/21161063","127.12606689205987","37.27017072715994","SW8","지하철역","교통,수송 > 지하철,전철 > 용인에버라인"
618,"용인경전철","지석",37.269606,127.136515,"21160871","지석역 에버라인","경기 용인시 기흥구 상하동 401-1","경기 용인시 기흥구 어정로 28","031-329-3543","http://place.map.kakao.com/21160871","127.13663256032949","37.269737317702365","SW8","지하철역","교통,수송 > 지하철,전철 > 용인에버라인"
619,"용인경전철","어정",37.274917,127.143714,"21160936","어정역 에버라인","경기 용인시 기흥구 상하동 620-50","경기 용인시 기흥구 어정로 128","031-329-3544","http://place.map.kakao.com/21160936","127.14374986977646","37.27495131826632","SW8","지하철역","교통,수송 > 지하철,전철 > 용인에버라인"
620,"용인경전철","동백",37.269043,127.152716,"21160887","동백역 에버라인","경기 용인시 기흥구 중동 1087","경기 용인시 기흥구 동백죽전대로 314","031-329-3545","http://place.map.kakao.com/21160887","127.15269056435368","37.269101384338924","SW8","지하철역","교통,수송 > 지하철,전철 > 용인에버라인"
621,"용인경전철","초당",37.260752,127.159443,"21161062","초당역 에버라인","경기 용인시 기흥구 중동 1090","경기 용인시 기흥구 동백죽전대로 204","031-329-3546","http://place.map.kakao.com/21161062","127.15946923688787","37.26080647373655","SW8","지하철역","교통,수송 > 지하철,전철 > 용인에버라인"
622,"용인경전철","시청·용인대",37.239151,127.178406,"21160935","시청.용인대역 에버라인","경기 용인시 처인구 삼가동 255-15","경기 용인시 처인구 중부대로 1199-1","031-329-3573","http://place.map.kakao.com/21160935","127.17888509175044","37.23944203003437","SW8","지하철역","교통,수송 > 지하철,전철 > 용인에버라인"
623,"용인경전철","명지대",37.237964,127.190294,"21160886","명지대역 에버라인","경기 용인시 처인구 역북동 484-10","경기 용인시 처인구 금학로 241","031-329-3574","http://place.map.kakao.com/21160886","127.19029130857074","37.23807628801618","SW8","지하철역","교통,수송 > 지하철,전철 > 용인에버라인"
624,"용인경전철","김량장",37.237247,127.198781,"21160869","운동장.송담대역 에버라인","경기 용인시 처인구 김량장동 144-6","경기 용인시 처인구 금학로 409","031-329-3576","http://place.map.kakao.com/21160869","127.20905264479066","37.237911300345324","SW8","지하철역","교통,수송 > 지하철,전철 > 용인에버라인"
625,"용인경전철","운동장·송담대",37.237845,127.209198,"21160869","운동장.송담대역 에버라인","경기 용인시 처인구 김량장동 144-6","경기 용인시 처인구 금학로 409","031-329-3576","http://place.map.kakao.com/21160869","127.20905264479066","37.237911300345324","SW8","지하철역","교통,수송 > 지하철,전철 > 용인에버라인"
626,"용인경전철","고진",37.24484,127.214251,"19471020","고진역 에버라인","경기 용인시 처인구 유방동 1029-8","경기 용인시 처인구 경안천로 141","031-329-3577","http://place.map.kakao.com/19471020","127.21418360142515","37.244638336050315","SW8","지하철역","교통,수송 > 지하철,전철 > 용인에버라인"
627,"용인경전철","보평",37.258965,127.218457,"21160885","보평역 에버라인","경기 용인시 처인구 유방동 276-1","경기 용인시 처인구 경안천로 313","031-329-3578","http://place.map.kakao.com/21160885","127.21848076908013","37.258964266014694","SW8","지하철역","교통,수송 > 지하철,전철 > 용인에버라인"
628,"용인경전철","둔전",37.267051,127.21364,"21161060","둔전역 에버라인","경기 용인시 처인구 포곡읍 둔전리 406-93","경기 용인시 처인구 포곡읍 포곡로 70","031-329-3579","http://place.map.kakao.com/21161060","127.21363872279483","37.26721221736258","SW8","지하철역","교통,수송 > 지하철,전철 > 용인에버라인"
629,"의정부경전철","발곡",37.727048,127.052803,"17606159","발곡역 의정부경전철","경기 의정부시 신곡동 741-3","경기 의정부시 장곡로 258","031-820-1000","http://place.map.kakao.com/17606159","127.052969199269","37.7271478742052","SW8","지하철역","교통,수송 > 지하철,전철 > 의정부경전철"
630,"의정부경전철","송산",37.737279,127.087159,"17606189","송산역 의정부경전철","경기 의정부시 용현동 558","경기 의정부시 충의로 59","031-820-1000","http://place.map.kakao.com/17606189","127.08721549161","37.7372760423191","SW8","지하철역","교통,수송 > 지하철,전철 > 의정부경전철"
631,"의정부경전철","탑석",37.733579,127.088704,"17606190","탑석역 의정부경전철","경기 의정부시 용현동 558","경기 의정부시 충의로 20","031-820-1000","http://place.map.kakao.com/17606190","127.088908165858","37.7334871006703","SW8","지하철역","교통,수송 > 지하철,전철 > 의정부경전철"
632,"우이신설경전철","북한산우이",37.663146,127.012789,"1361581615","북한산우이역 우이신설선","서울 강북구 우이동 16-27","서울 강북구 삼양로 지하 676","02-3499-5561","http://place.map.kakao.com/1361581615","127.01275713087601","37.66288704047998","SW8","지하철역","교통,수송 > 지하철,전철 > 우이신설경전철"
633,"03호선","약수",37.55434,127.010655,"21160813","약수역 3호선","서울 중구 신당동 369-44","서울 중구 다산로 지하 122","02-6110-3331","http://place.map.kakao.com/21160813","127.010891666957","37.5545053994984","SW8","지하철역","교통,수송 > 지하철,전철 > 수도권3호선"
634,"우이신설경전철","솔밭공원",37.656088,127.013252,"1495739393","솔밭공원역 우이신설선","서울 강북구 우이동 57-18","서울 강북구 삼양로 595","02-3499-5561","http://place.map.kakao.com/1495739393","127.013268181236","37.6559782562487","SW8","지하철역","교통,수송 > 지하철,전철 > 우이신설경전철"
635,"우이신설경전철","4.19민주묘지",37.6495332,127.011526,"1644708031","4.19민주묘지역 우이신설선","서울 강북구 우이동 72-182","서울 강북구 삼양로 519","02-3499-5561","http://place.map.kakao.com/1644708031","127.01369763482","37.6495307746374","SW8","지하철역","교통,수송 > 지하철,전철 > 우이신설경전철"
636,"우이신설경전철","가오리",37.641701,127.016792,"338574240","가오리역 우이신설선","서울 강북구 수유동 371-1","서울 강북구 삼양로 426","02-3499-5561","http://place.map.kakao.com/338574240","127.01676896839822","37.6415440572233","SW8","지하철역","교통,수송 > 지하철,전철 > 우이신설경전철"
637,"우이신설경전철","삼양사거리",37.621512,127.02048,"1799238778","삼양사거리역 우이신설선","서울 강북구 미아동 791-2244","서울 강북구 삼양로 197","02-3499-5561","http://place.map.kakao.com/1799238778","127.020488845069","37.6213181360851","SW8","지하철역","교통,수송 > 지하철,전철 > 우이신설경전철"
638,"우이신설경전철","솔샘",37.62124,127.013528,"320375633","솔샘역 우이신설선","서울 강북구 미아동 1353-29","서울 강북구 솔샘로 지하 189","02-3499-5561","http://place.map.kakao.com/320375633","127.01355180603669","37.620259575206596","SW8","지하철역","교통,수송 > 지하철,전철 > 우이신설경전철"
639,"우이신설경전철","북한산보국문",37.612343,127.008009,"1945429901","북한산보국문역 우이신설선","서울 성북구 정릉동 289-94","서울 성북구 보국문로 지하 88","02-3499-5561","http://place.map.kakao.com/1945429901","127.008263392003","37.6121367531121","SW8","지하철역","교통,수송 > 지하철,전철 > 우이신설경전철"
640,"우이신설경전철","정릉",37.602798,127.01349,"1208998751","정릉역 우이신설선","서울 성북구 정릉동 966-330","서울 성북구 아리랑로 지하 122","02-3499-5561","http://place.map.kakao.com/1208998751","127.013539545056","37.602614606648","SW8","지하철역","교통,수송 > 지하철,전철 > 우이신설경전철"
641,"우이신설경전철","성신여대입구",37.592624,127.016403,"1208998751","정릉역 우이신설선","서울 성북구 정릉동 966-330","서울 성북구 아리랑로 지하 122","02-3499-5561","http://place.map.kakao.com/1208998751","127.013539545056","37.602614606648","SW8","지하철역","교통,수송 > 지하철,전철 > 우이신설경전철"
642,"우이신설경전철","보문",37.585286,127.019381,"1089335859","보문역 우이신설선","서울 성북구 보문동1가 127-1","서울 성북구 보문로 지하 116","02-3499-5561","http://place.map.kakao.com/1089335859","127.019550510271","37.5850444246949","SW8","지하철역","교통,수송 > 지하철,전철 > 우이신설경전철"
643,"02호선","까치산",37.531768,126.846683,"21160499","까치산역 2호선","서울 강서구 화곡동 662-5","서울 강서구 강서로 지하 54","02-6311-5181","http://place.map.kakao.com/21160499","126.846948282657","37.5314060103327","SW8","지하철역","교통,수송 > 지하철,전철 > 수도권2호선"
644,"02호선","시청",37.564718,126.977108,"21160536","시청역 2호선","서울 중구 서소문동 90-1","서울 중구 서소문로 지하 127","02-6110-2011","http://place.map.kakao.com/21160536","126.97559827045151","37.56368183746611","SW8","지하철역","교통,수송 > 지하철,전철 > 수도권2호선"
645,"04호선","이촌",37.522272,126.974345,"25039152","이촌역 4호선","서울 용산구 용산동5가 17-112","서울 용산구 서빙고로 지하 83","02-6110-4301","http://place.map.kakao.com/25039152","126.97452008954151","37.522373484615365","SW8","지하철역","교통,수송 > 지하철,전철 > 수도권4호선"
646,"08호선","석촌",37.505431,127.106979,"21160778","석촌역 8호선","서울 송파구 석촌동 209","서울 송파구 송파대로 지하 439","02-6311-8151","http://place.map.kakao.com/21160778","127.107004062699","37.5054141216925","SW8","지하철역","교통,수송 > 지하철,전철 > 수도권8호선"
647,"08호선","송파",37.499703,127.112183,"21160714","송파역 8호선","서울 송파구 가락동 459-4","서울 송파구 송파대로 지하 354","02-6311-8161","http://place.map.kakao.com/21160714","127.112193506363","37.4997149535067","SW8","지하철역","교통,수송 > 지하철,전철 > 수도권8호선"
648,"08호선","가락시장",37.492522,127.118234,"21160731","가락시장역 8호선","서울 송파구 가락동 184-23","서울 송파구 송파대로 지하 257","02-6311-8171","http://place.map.kakao.com/21160731","127.118262745146","37.4930992522183","SW8","지하철역","교통,수송 > 지하철,전철 > 수도권8호선"
649,"08호선","문정",37.485855,127.1225,"21161046","문정역 8호선","서울 송파구 문정동 119-4","서울 송파구 송파대로 지하 179","02-6311-8181","http://place.map.kakao.com/21161046","127.122484886901","37.4860310539381","SW8","지하철역","교통,수송 > 지하철,전철 > 수도권8호선"
650,"08호선","장지",37.478703,127.126191,"21161044","장지역 8호선","서울 송파구 장지동 201-5","서울 송파구 송파대로 지하 82","02-6311-8191","http://place.map.kakao.com/21161044","127.12617656737","37.4786316933099","SW8","지하철역","교통,수송 > 지하철,전철 > 수도권8호선"
651,"08호선","복정",37.470047,127.126662,"21160729","복정역 8호선","서울 송파구 장지동 596-21","서울 송파구 송파대로 지하 6","02-6311-8201","http://place.map.kakao.com/21160729","127.126724009736","37.4707418689753","SW8","지하철역","교통,수송 > 지하철,전철 > 수도권8호선"
652,"08호선","산성",37.457122,127.149908,"21160715","산성역 8호선","경기 성남시 수정구 신흥동 7","경기 성남시 수정구 수정로 지하 365","02-6311-8211","http://place.map.kakao.com/21160715","127.14994186233623","37.456881468719025","SW8","지하철역","교통,수송 > 지하철,전철 > 수도권8호선"
653,"08호선","남한산성입구",37.451535,127.159816,"21160779","남한산성입구역 8호선","경기 성남시 수정구 단대동 96","경기 성남시 수정구 산성대로 지하 445","02-6311-8221","http://place.map.kakao.com/21160779","127.159882577768","37.4516686968693","SW8","지하철역","교통,수송 > 지하철,전철 > 수도권8호선"
654,"08호선","단대오거리",37.44521,127.156866,"21160732","단대오거리역 8호선","경기 성남시 수정구 신흥동 2467","경기 성남시 수정구 산성대로 지하 365","02-6311-8231","http://place.map.kakao.com/21160732","127.156769790167","37.44502248894697","SW8","지하철역","교통,수송 > 지하철,전철 > 수도권8호선"
655,"08호선","신흥",37.440918,127.147564,"21161047","신흥역 8호선","경기 성남시 수정구 신흥동 2467","경기 성남시 수정구 산성대로 지하 280","02-6311-8241","http://place.map.kakao.com/21161047","127.147538132656","37.4409230460675","SW8","지하철역","교통,수송 > 지하철,전철 > 수도권8호선"
656,"08호선","수진",37.437428,127.140722,"21160483","수진역 8호선","경기 성남시 수정구 수진동 2205-1","경기 성남시 수정구 산성대로 지하 200","02-6311-8251","http://place.map.kakao.com/21160483","127.140534508419","37.4373779787206","SW8","지하철역","교통,수송 > 지하철,전철 > 수도권8호선"
657,"08호선","모란",37.43213,127.129087,"21160780","모란역 8호선","경기 성남시 수정구 수진동 4518","경기 성남시 수정구 산성대로 지하 100","02-6311-8261","http://place.map.kakao.com/21160780","127.129970457799","37.4340382896277","SW8","지하철역","교통,수송 > 지하철,전철 > 수도권8호선"
658,"09호선","선정릉",37.51098,127.043593,"26550128","삼성중앙역 9호선","서울 강남구 삼성동 111-147","서울 강남구 봉은사로 지하 501","02-2656-0928","http://place.map.kakao.com/26550128","127.053043676912","37.5129614511319","SW8","지하철역","교통,수송 > 지하철,전철 > 수도권9호선"
659,"수인분당선","오리",37.339824,127.108942,"21160502","오리역 수인분당선","경기 성남시 분당구 구미동 197-1","경기 성남시 분당구 성남대로 지하 55","031-711-7740","http://place.map.kakao.com/21160502","127.108948940053","37.3398305519823","SW8","지하철역","교통,수송 > 지하철,전철 > 수인분당선"
660,"인천선","간석오거리",37.467048,126.707938,"21160988","간석오거리역 인천1호선","인천 남동구 간석동 239-3","인천 남동구 경인로 지하 642","032-434-3123","http://place.map.kakao.com/21160988","126.707918490817","37.4670826685298","SW8","지하철역","교통,수송 > 지하철,전철 > 인천1호선"
661,"01호선","종로3가",37.571607,126.991806,"21160784","종로3가역 1호선","서울 종로구 종로3가 10-5","서울 종로구 종로 지하 129","02-6110-1301","http://place.map.kakao.com/21160784","126.992153252476","37.570420844523","SW8","지하철역","교통,수송 > 지하철,전철 > 수도권1호선"
662,"01호선","종로5가",37.570926,127.001849,"21160791","종로5가역 1호선","서울 종로구 종로5가 82-1","서울 종로구 종로 지하 216","02-6110-1291","http://place.map.kakao.com/21160791","127.00153834521934","37.57097610838373","SW8","지하철역","교통,수송 > 지하철,전철 > 수도권1호선"
663,"01호선","동대문",37.57142,127.009745,"21160565","동대문역 1호선","서울 종로구 창신동 492-1","서울 종로구 종로 지하 302","02-6110-1281","http://place.map.kakao.com/21160565","127.01063381083677","37.571669405802616","SW8","지하철역","교통,수송 > 지하철,전철 > 수도권1호선"
664,"01호선","신설동",37.575297,127.025087,"21160522","신설동역 1호선","서울 동대문구 신설동 76-5","서울 동대문구 왕산로 지하 1","02-6110-1261","http://place.map.kakao.com/21160522","127.024456700382","37.5760299683175","SW8","지하철역","교통,수송 > 지하철,전철 > 수도권1호선"
665,"01호선","제기동",37.578103,127.034893,"21160567","제기동역 1호선","서울 동대문구 제기동 65","서울 동대문구 왕산로 지하 93","02-6110-1251","http://place.map.kakao.com/21160567","127.03494949507864","37.57817349658033","SW8","지하철역","교통,수송 > 지하철,전철 > 수도권1호선"
666,"01호선","청량리",37.580178,127.046835,"21160572","청량리역 1호선","서울 동대문구 전농동 620-69","서울 동대문구 왕산로 지하 205","02-6110-1241","http://place.map.kakao.com/21160572","127.04472723023305","37.580037056302906","SW8","지하철역","교통,수송 > 지하철,전철 > 수도권1호선"
667,"01호선","동묘앞",37.572627,127.016429,"21160608","동묘앞역 1호선","서울 종로구 숭인동 117","서울 종로구 종로 359","02-6110-1271","http://place.map.kakao.com/21160608","127.016364227103","37.5732166600283","SW8","지하철역","교통,수송 > 지하철,전철 > 수도권1호선"
668,"경의선","대곡",37.631626,126.811024,"26352406","대곡역 경의중앙선","경기 고양시 덕양구 대장동 420-1","경기 고양시 덕양구 대주로107번길 71-81","031-965-8516","http://place.map.kakao.com/26352406","126.809905469039","37.631852486342","SW8","지하철역","교통,수송 > 지하철,전철 > 경의중앙선"
669,"03호선","충무로",37.561243,126.99428,"21160543","충무로역 3호선","서울 중구 필동2가 16-2",0,"02-6110-4231","http://place.map.kakao.com/21160543","126.994150735779","37.5613965840169","SW8","지하철역","교통,수송 > 지하철,전철 > 수도권3호선"
670,"수인분당선","죽전",37.324753,127.107395,"21160931","죽전역 수인분당선","경기 용인시 수지구 죽전동 1286","경기 용인시 수지구 포은대로 530","031-896-9791","http://place.map.kakao.com/21160931","127.107505020642","37.3243773830569","SW8","지하철역","교통,수송 > 지하철,전철 > 수인분당선"
671,"신분당선","청계산입구",37.447211,127.055664,"27455606","청계산입구역 신분당선","서울 서초구 신원동 270-25","서울 서초구 청계산로 지하 179","031-8018-7740","http://place.map.kakao.com/27455606","127.054720327179","37.4483547387397","SW8","지하철역","교통,수송 > 지하철,전철 > 신분당선"
672,"우이신설경전철","신설동",37.575297,127.025087,"2019076990","신설동역 우이신설선","서울 동대문구 신설동 76-5","서울 동대문구 왕산로 지하 1","02-3499-5561","http://place.map.kakao.com/2019076990","127.02320708440578","37.576550995373644","SW8","지하철역","교통,수송 > 지하철,전철 > 우이신설경전철"
673,"서해선","소사",37.482753,126.79544,"1465106605","소사역 서해선","경기 부천시 소사동 43-51","경기 부천시 소사로 지하 284","031-5183-2701","http://place.map.kakao.com/1465106605","126.79506057713336","37.482905634947286","SW8","지하철역","교통,수송 > 지하철,전철 > 서해선"
674,"서해선","소새울",37.4680597,126.7953899,"1594464687","소새울역 서해선","경기 부천시 소사본동 420-1","경기 부천시 소사로 지하 120","031-5183-2711","http://place.map.kakao.com/1594464687","126.797283854897","37.4685095548124","SW8","지하철역","교통,수송 > 지하철,전철 > 서해선"
675,"서해선","시흥대야",37.4497007,126.7911453,"1636097863","시흥대야역 서해선","경기 시흥시 대야동 289-21","경기 시흥시 서해안로 지하 1670","031-5183-2721","http://place.map.kakao.com/1636097863","126.792993796201","37.4500998726813","SW8","지하철역","교통,수송 > 지하철,전철 > 서해선"
676,"서해선","신천",37.4497217,126.7845792,"1036562389","신천역 서해선","경기 시흥시 신천동 768-4","경기 시흥시 신천로 지하 92","031-5183-2731","http://place.map.kakao.com/1036562389","126.78678508124932","37.43924604520613","SW8","지하철역","교통,수송 > 지하철,전철 > 서해선"
677,"서해선","신현",37.4090117,126.7860713,"366673111","신현역 서해선","경기 시흥시 미산동 700-1","경기 시흥시 신현로12번길 지하 2-10","031-5183-2741","http://place.map.kakao.com/366673111","126.787838368873","37.40956486776796","SW8","지하철역","교통,수송 > 지하철,전철 > 서해선"
678,"서해선","시흥시청",37.3812127,126.8042048,"400062908","시흥시청역 서해선","경기 시흥시 광석동 397","경기 시흥시 시흥대로 지하 467","031-5183-2751","http://place.map.kakao.com/400062908","126.80594809695735","37.38156161940996","SW8","지하철역","교통,수송 > 지하철,전철 > 서해선"
679,"서해선","시흥능곡",37.3699062,126.8095783,"620284234","시흥능곡역 서해선","경기 시흥시 능곡동 717","경기 시흥시 시흥대로 지하 327","031-5183-2761","http://place.map.kakao.com/620284234","126.808721340419","37.3699465347315","SW8","지하철역","교통,수송 > 지하철,전철 > 서해선"
680,"서해선","달미",37.3494482,126.8065383,"1298658511","달미역 서해선","경기 안산시 단원구 선부동 481","경기 안산시 단원구 순환로 지하 160","031-5183-2771","http://place.map.kakao.com/1298658511","126.809416088572","37.3487879549025","SW8","지하철역","교통,수송 > 지하철,전철 > 서해선"
681,"서해선","선부",37.3344112,126.8078143,"515175375","선부역 서해선","경기 안산시 단원구 선부동 1075-2",0,"031-5183-2781","http://place.map.kakao.com/515175375","126.809989544577","37.3344084544244","SW8","지하철역","교통,수송 > 지하철,전철 > 서해선"
682,"서해선","초지",37.320646,126.805913,"472508899","원시역 서해선","경기 안산시 단원구 원시동 803","경기 안산시 단원구 산단로 지하 70","031-5183-2811","http://place.map.kakao.com/472508899","126.786793532374","37.3026237626179","SW8","지하철역","교통,수송 > 지하철,전철 > 서해선"
683,"서해선","원곡",37.3131572,126.7935293,"515175375","선부역 서해선","경기 안산시 단원구 선부동 1075-2",0,"031-5183-2781","http://place.map.kakao.com/515175375","126.809989544577","37.3344084544244","SW8","지하철역","교통,수송 > 지하철,전철 > 서해선"
684,"서해선","원시",37.3021882,126.7843008,"472508899","원시역 서해선","경기 안산시 단원구 원시동 803","경기 안산시 단원구 산단로 지하 70","031-5183-2811","http://place.map.kakao.com/472508899","126.786793532374","37.3026237626179","SW8","지하철역","교통,수송 > 지하철,전철 > 서해선"
685,"김포도시철도","양촌",37.6420537,126.6123451,"567922220","양촌역 김포골드라인","경기 김포시 양촌읍 유현리 275-7","경기 김포시 양촌읍 양촌역길 107","031-8048-1500","http://place.map.kakao.com/567922220","126.61462594837248","37.64178438994002","SW8","지하철역","교통,수송 > 지하철,전철 > 김포골드라인"
686,"김포도시철도","구래",37.643941,126.6267471,"814372103","구래역 김포골드라인","경기 김포시 구래동 6880-8","경기 김포시 김포한강7로 87","031-8048-1710","http://place.map.kakao.com/814372103","126.62857604330732","37.64539340715656","SW8","지하철역","교통,수송 > 지하철,전철 > 김포골드라인"
687,"김포도시철도","마산",37.6405342,126.6413464,"127313775","마산역 김포골드라인","경기 김포시 마산동 641-3","경기 김포시 김포한강3로 지하 442","031-8048-1720","http://place.map.kakao.com/127313775","126.644004368759","37.6406117204577","SW8","지하철역","교통,수송 > 지하철,전철 > 김포골드라인"
688,"김포도시철도","장기",37.6433848,126.6683859,"868158349","장기역 김포골드라인","경기 김포시 장기동 1798","경기 김포시 김포한강1로 지하 59","031-8048-1730(팩스)","http://place.map.kakao.com/868158349","126.66907862282","37.6440651946922","SW8","지하철역","교통,수송 > 지하철,전철 > 김포골드라인"
689,"김포도시철도","운양",37.6538552,126.6816543,"2133749153","운양역 김포골드라인","경기 김포시 운양동 1299-4","경기 김포시 김포한강1로 지하 235","031-8048-1740","http://place.map.kakao.com/2133749153","126.683844450975","37.6537750040601","SW8","지하철역","교통,수송 > 지하철,전철 > 김포골드라인"
690,"김포도시철도","걸포북변",37.6316512,126.7035993,"538945418","걸포북변역 김포골드라인","경기 김포시 북변동 909-6","경기 김포시 김포대로 지하 1040","031-8048-1750","http://place.map.kakao.com/538945418","126.70577572197524","37.631638772756794","SW8","지하철역","교통,수송 > 지하철,전철 > 김포골드라인"
691,"김포도시철도","사우",37.6203182,126.7176193,"1988082676","사우역 김포골드라인","경기 김포시 사우동 913","경기 김포시 김포대로 지하 852","031-8048-1760","http://place.map.kakao.com/1988082676","126.71976741873046","37.620321335136204","SW8","지하철역","교통,수송 > 지하철,전철 > 김포골드라인"
692,"김포도시철도","풍무",37.6120792,126.7305823,"509719617","풍무역 김포골드라인","경기 김포시 사우동 542-6","경기 김포시 김포대로 지하 710","031-8048-1770","http://place.map.kakao.com/509719617","126.7324492375288","37.61242840262763","SW8","지하철역","교통,수송 > 지하철,전철 > 김포골드라인"
693,"김포도시철도","고촌",37.6009367,126.7685188,"1339411490","고촌역 김포골드라인","경기 김포시 고촌읍 신곡리 1100","경기 김포시 고촌읍 김포대로 지하 350","031-8048-1780","http://place.map.kakao.com/1339411490","126.770325947061","37.601213413053","SW8","지하철역","교통,수송 > 지하철,전철 > 김포골드라인"
694,"김포도시철도","김포공항",37.562434,126.801058,"1450625973","김포공항역 김포골드라인","서울 강서구 방화동 886","서울 강서구 하늘길 지하 77","031-8048-1500","http://place.map.kakao.com/1450625973","126.80199188908921","37.56232990369519","SW8","지하철역","교통,수송 > 지하철,전철 > 김포골드라인"
695,"02호선","서초",37.491897,127.007917,"21160623","서초역 2호선","서울 서초구 서초동 1748-5","서울 서초구 서초대로 지하 233","02-6110-2241","http://place.map.kakao.com/21160623","127.007662120039","37.4918499338918","SW8","지하철역","교통,수송 > 지하철,전철 > 수도권2호선"
696,"경강선","이매",37.396104,127.12827,"402426806","이매역 경강선","경기 성남시 분당구 이매동 129-1","경기 성남시 분당구 성남대로 지하 738","031-701-2903","http://place.map.kakao.com/402426806","127.127318661399","37.3947135146921","SW8","지하철역","교통,수송 > 지하철,전철 > 경강선"
697,"01호선","소요산",37.9481,127.061034,"21160793","소요산역 1호선","경기 동두천시 상봉암동 126-3","경기 동두천시 평화로 2925","031-865-7788","http://place.map.kakao.com/21160793","127.061128608638","37.9488975919392","SW8","지하철역","교통,수송 > 지하철,전철 > 수도권1호선"
698,"인천2호선","남동구청",37.448161,126.736939,"1376643842","남동구청역 인천2호선","인천 남동구 만수동 1006","인천 남동구 인주대로 지하 889","032-451-4325","http://place.map.kakao.com/1376643842","126.736565773149","37.4481747324298","SW8","지하철역","교통,수송 > 지하철,전철 > 인천2호선"
699,"02호선","왕십리",37.561533,127.037732,"21160481","왕십리역 2호선","서울 성동구 행당동 192","서울 성동구 왕십리로 지하 300","02-6110-2081","http://place.map.kakao.com/21160481","127.03710337610202","37.561268363317176","SW8","지하철역","교통,수송 > 지하철,전철 > 수도권2호선"
700,"경강선","판교",37.394761,127.111217,"230594667","판교역 경강선","경기 성남시 분당구 백현동 19-2","경기 성남시 분당구 판교역로 지하 160","070-7821-5621","http://place.map.kakao.com/230594667","127.111982699564","37.394775885643","SW8","지하철역","교통,수송 > 지하철,전철 > 경강선"
701,"수인선","신포",37.46874,126.623853,"1530272008","신포역 수인분당선","인천 중구 사동 26-19","인천 중구 우현로 지하 3","1544-7788","http://place.map.kakao.com/1530272008","126.624533685908","37.4684545360849","SW8","지하철역","교통,수송 > 지하철,전철 > 수인분당선"
702,"06호선","신내",37.612887,127.103218,"6675513","신내역 6호선","서울 중랑구 신내동 19","서울 중랑구 용마산로136길 33",0,"http://place.map.kakao.com/6675513","127.104271439503","37.6124910157349","SW8","지하철역","교통,수송 > 지하철,전철 > 수도권6호선"
703,"02호선","상왕십리",37.564354,127.029354,"21160535","상왕십리역 2호선","서울 성동구 하왕십리동 946-14","서울 성동구 왕십리로 지하 374","02-6110-2071","http://place.map.kakao.com/21160535","127.02927241035283","37.56443666620397","SW8","지하철역","교통,수송 > 지하철,전철 > 수도권2호선"
704,"용인경전철","삼가",37.242115,127.168075,"21160935","시청.용인대역 에버라인","경기 용인시 처인구 삼가동 255-15","경기 용인시 처인구 중부대로 1199-1","031-329-3573","http://place.map.kakao.com/21160935","127.17888509175044","37.23944203003437","SW8","지하철역","교통,수송 > 지하철,전철 > 용인에버라인"
705,"경의선","한남",37.52943,127.009169,"21160736","한남역 경의중앙선","서울 용산구 한남동 399-7","서울 용산구 독서당로6길 12-13","02-798-5710","http://place.map.kakao.com/21160736","127.009209110584","37.5294289189437","SW8","지하철역","교통,수송 > 지하철,전철 > 경의중앙선"
706,"01호선","지제",37.0188,127.070444,"21160601","평택지제역 1호선","경기 평택시 지제동 559-4","경기 평택시 경기대로 777","031-691-7651","http://place.map.kakao.com/21160601","127.07051382655925","37.01890215095567","SW8","지하철역","교통,수송 > 지하철,전철 > 수도권1호선"
707,"용인경전철","전대·에버랜드",37.285342,127.219561,"21160868","전대.에버랜드역 에버라인","경기 용인시 처인구 포곡읍 전대리 192-38","경기 용인시 처인구 포곡읍 에버랜드로 143","031-329-3580","http://place.map.kakao.com/21160868","127.21950896826833","37.28541326931372","SW8","지하철역","교통,수송 > 지하철,전철 > 용인에버라인"
708,"02호선","대림",37.49297,126.895801,"21160532","대림역 2호선","서울 구로구 구로동 1204","서울 구로구 도림천로 351","02-6110-2331","http://place.map.kakao.com/21160532","126.894931036051","37.4933099444417","SW8","지하철역","교통,수송 > 지하철,전철 > 수도권2호선"
709,"인천2호선","아시아드경기장",37.5517,126.677122,"963256366","아시아드경기장역 인천2호선","인천 서구 연희동 94-6","인천 서구 서곶로 382","032-451-4309","http://place.map.kakao.com/963256366","126.677107520162","37.5513145630525","SW8","지하철역","교통,수송 > 지하철,전철 > 인천2호선"
710,"02호선","신설동",37.575297,127.025087,"21160805","신설동역 2호선","서울 동대문구 신설동 76-5","서울 동대문구 왕산로 지하 1","02-6110-1371","http://place.map.kakao.com/21160805","127.024918166399","37.5748045192005","SW8","지하철역","교통,수송 > 지하철,전철 > 수도권2호선"
711,"02호선","도림천",37.514287,126.882768,"21160621","도림천역 2호선","서울 구로구 신도림동 323-16","서울 구로구 경인로67길 160","02-6110-2441","http://place.map.kakao.com/21160621","126.882649092584","37.5145080414761","SW8","지하철역","교통,수송 > 지하철,전철 > 수도권2호선"
712,"02호선","양천구청",37.512398,126.865819,"21160802","양천구청역 2호선","서울 양천구 신정동 276-7","서울 양천구 목동로3길 지하 33","02-6110-2451","http://place.map.kakao.com/21160802","126.865722369229","37.5123888716808","SW8","지하철역","교통,수송 > 지하철,전철 > 수도권2호선"
713,"02호선","용두",37.574028,127.038091,"21160538","용두역 2호선","서울 동대문구 용두동 47-1","서울 동대문구 천호대로 지하 129","02-6110-1361","http://place.map.kakao.com/21160538","127.038275698211","37.5740621283646","SW8","지하철역","교통,수송 > 지하철,전철 > 수도권2호선"
714,"경춘선","중랑",37.594917,127.076116,"12706588","상봉역 경춘선","서울 중랑구 상봉동 100-9","서울 중랑구 망우로 297","02-432-7783","http://place.map.kakao.com/12706588","127.085085690038","37.5969733432502","SW8","지하철역","교통,수송 > 지하철,전철 > 경춘선"
715,"수인분당선","기흥",37.275619,127.115936,"15110701","구성역 수인분당선","경기 용인시 기흥구 마북동 460-3","경기 용인시 기흥구 용구대로 2403","1544-7788","http://place.map.kakao.com/15110701","127.105695833197","37.2989770487314","SW8","지하철역","교통,수송 > 지하철,전철 > 수인분당선"
716,"인천2호선","검단오류",37.594877,126.627178,"1932195227","검단오류역 인천2호선","인천 서구 오류동 450-4","인천 서구 검단로 187","032-451-4301","http://place.map.kakao.com/1932195227","126.627907494962","37.5949434686845","SW8","지하철역","교통,수송 > 지하철,전철 > 인천2호선"
717,"경의선","용산",37.529849,126.964561,"21160736","한남역 경의중앙선","서울 용산구 한남동 399-7","서울 용산구 독서당로6길 12-13","02-798-5710","http://place.map.kakao.com/21160736","127.009209110584","37.5294289189437","SW8","지하철역","교통,수송 > 지하철,전철 > 경의중앙선"
718,"수인분당선","수원",37.265974,126.999874,"1128793508","오목천역 수인분당선","경기 수원시 권선구 오목천동 472-3","경기 수원시 권선구 삼천병마로 지하 1570",0,"http://place.map.kakao.com/1128793508","126.963902835862","37.2433596329495","SW8","지하철역","교통,수송 > 지하철,전철 > 수인분당선"
719,"03호선","화정",37.634592,126.83265,"21160632","화정역 3호선","경기 고양시 덕양구 화정동 1098","경기 고양시 덕양구 화정로 지하 60","1544-7788","http://place.map.kakao.com/21160632","126.832688422366","37.6346440058753","SW8","지하철역","교통,수송 > 지하철,전철 > 수도권3호선"
720,"09호선","언주",37.507287,127.033868,"26550130","언주역 9호선","서울 강남구 논현동 279-165","서울 강남구 봉은사로 지하 201","02-2656-0926","http://place.map.kakao.com/26550130","127.033970921595","37.5073353959717","SW8","지하철역","교통,수송 > 지하철,전철 > 수도권9호선"
721,"용인경전철","기흥",37.275619,127.115936,"19471009","기흥역 에버라인","경기 용인시 기흥구 구갈동 480-36","경기 용인시 기흥구 중부대로 468","031-329-3541","http://place.map.kakao.com/19471009","127.11704645705142","37.27545287699772","SW8","지하철역","교통,수송 > 지하철,전철 > 용인에버라인"
722,"01호선","서울",37.554648,126.972559,"622214266","회기역 1호선","서울 동대문구 휘경동 317-101","서울 동대문구 회기로 196","02-965-1467","http://place.map.kakao.com/622214266","127.058048369273","37.5897962196601","SW8","지하철역","교통,수송 > 지하철,전철 > 수도권1호선"
723,"01호선","시청",37.564718,126.977108,"21160570","시청역 1호선","서울 중구 정동 5-5","서울 중구 세종대로 지하 101","02-6110-1321","http://place.map.kakao.com/21160570","126.97719821079865","37.56534539636417","SW8","지하철역","교통,수송 > 지하철,전철 > 수도권1호선"
724,"01호선","종각",37.570161,126.982923,"21160613","종각역 1호선","서울 종로구 종로1가 54","서울 종로구 종로 지하 55","02-6110-1311","http://place.map.kakao.com/21160613","126.98315081716676","37.570227990912244","SW8","지하철역","교통,수송 > 지하철,전철 > 수도권1호선"
725,"우이신설경전철","화계",37.634802,127.017519,"209235362","화계역 우이신설선","서울 강북구 수유동 472-678","서울 강북구 삼양로 341","02-3499-5561","http://place.map.kakao.com/209235362","127.017510491529","37.6340873974011","SW8","지하철역","교통,수송 > 지하철,전철 > 우이신설경전철"
726,"우이신설경전철","삼양",37.627165,127.018152,"320375633","솔샘역 우이신설선","서울 강북구 미아동 1353-29","서울 강북구 솔샘로 지하 189","02-3499-5561","http://place.map.kakao.com/320375633","127.01355180603669","37.620259575206596","SW8","지하철역","교통,수송 > 지하철,전철 > 우이신설경전철"
727,"경의선","회기",37.58946,127.057583,"21160926","회기역 경의중앙선","서울 동대문구 휘경동 317-101","서울 동대문구 회기로 196","1544-7788","http://place.map.kakao.com/21160926","127.05782624137","37.5895296349726","SW8","지하철역","교통,수송 > 지하철,전철 > 경의중앙선"