id,line,name,lat,lng,kakao_place_id,kakao_place_name,kakao_address,kakao_road_address,kakao_phone,kakao_place_url,kakao_lat,kakao_lng,kakao_category_group_code,kakao_category_group_name,kakao_category_name
201,"02호선","잠실새내",37.511687,127.086162,"21160539","잠실새내역 2호선","서울 송파구 잠실동 33","서울 송파구 올림픽로 지하 140","02-6110-2171","http://place.map.kakao.com/21160539","127.086314327913","37.5116263587296","SW8","지하철역","교통,수송 > 지하철,전철 > 수도권2호선"
202,"02호선","종합운동장",37.510997,127.073642,"21160812","종합운동장역 2호선","서울 송파구 잠실동 122","서울 송파구 올림픽로 지하 23","02-6110-2181","http://place.map.kakao.com/21160812","127.073849447402","37.5111446632705","SW8","지하철역","교통,수송 > 지하철,전철 > 수도권2호선"
203,"02호선","삼성",37.508844,127.06316,"21160620","삼성역 2호선","서울 강남구 삼성동 172-66","서울 강남구 테헤란로 지하 538","02-6110-2191","http://place.map.kakao.com/21160620","127.06302321147605","37.508822740225305","SW8","지하철역","교통,수송 > 지하철,전철 > 수도권2호선"
204,"02호선","선릉",37.504503,127.049008,"21160804","선릉역 2호선","서울 강남구 삼성동 172-66","서울 강남구 테헤란로 지하 340","02-6110-2201","http://place.map.kakao.com/21160804","127.04896282498558","37.504497373023206","SW8","지하철역","교통,수송 > 지하철,전철 > 수도권2호선"
205,"02호선","역삼",37.500622,127.036456,"21160619","역삼역 2호선","서울 강남구 역삼동 804","서울 강남구 테헤란로 지하 156","02-6110-2211","http://place.map.kakao.com/21160619","127.03646946847","37.5006744185994","SW8","지하철역","교통,수송 > 지하철,전철 > 수도권2호선"
206,"02호선","강남",37.497175,127.027926,"21160803","강남역 2호선","서울 강남구 역삼동 858","서울 강남구 강남대로 지하 396","02-6110-2221","http://place.map.kakao.com/21160803","127.02800140627488","37.49808633653005","SW8","지하철역","교통,수송 > 지하철,전철 > 수도권2호선"
207,"02호선","교대",37.493415,127.01408,"21160582","교대역 2호선","서울 서초구 서초동 1748-4","서울 서초구 서초대로 지하 294","02-6110-2231","http://place.map.kakao.com/21160582","127.014383829781","37.4938999991414","SW8","지하철역","교통,수송 > 지하철,전철 > 수도권2호선"
208,"02호선","방배",37.481426,126.997596,"21160807","방배역 2호선","서울 서초구 방배동 912-14","서울 서초구 방배로 지하 80","02-6110-2251","http://place.map.kakao.com/21160807","126.997553345516","37.4814561268152","SW8","지하철역","교통,수송 > 지하철,전철 > 수도권2호선"
209,"02호선","사당",37.47653,126.981685,"21160811","사당역 2호선","서울 동작구 사당동 1129","서울 동작구 남부순환로 지하 2089","02-6110-2261","http://place.map.kakao.com/21160811","126.98155858357366","37.47656223234824","SW8","지하철역","교통,수송 > 지하철,전철 > 수도권2호선"
210,"02호선","낙성대",37.47693,126.963693,"21160588","낙성대역 2호선","서울 관악구 봉천동 1693-39","서울 관악구 남부순환로 지하 1928","02-6110-2271","http://place.map.kakao.com/21160588","126.963523905001","37.4770932409965","SW8","지하철역","교통,수송 > 지하철,전철 > 수도권2호선"
211,"02호선","서울대입구",37.481247,126.952739,"21160541","서울대입구역 2호선","서울 관악구 봉천동 979-2","서울 관악구 남부순환로 지하 1822","02-6110-2281","http://place.map.kakao.com/21160541","126.952713197762","37.4812845080678","SW8","지하철역","교통,수송 > 지하철,전철 > 수도권2호선"
212,"02호선","봉천",37.482362,126.941892,"21160810","봉천역 2호선","서울 관악구 봉천동 979-7","서울 관악구 남부순환로 지하 1721","02-6110-2291","http://place.map.kakao.com/21160810","126.941686527151","37.4824725161034","SW8","지하철역","교통,수송 > 지하철,전철 > 수도권2호선"
213,"02호선","신림",37.484201,126.929715,"21160540","신림역 2호선","서울 관악구 신림동 1467-10","서울 관악구 남부순환로 지하 1614","02-6110-2301","http://place.map.kakao.com/21160540","126.929745374123","37.4842680361482","SW8","지하철역","교통,수송 > 지하철,전철 > 수도권2호선"
214,"02호선","구로디지털단지",37.485266,126.901401,"21160579","구로디지털단지역 2호선","서울 구로구 구로동 810-3","서울 구로구 도림천로 477","02-6110-2321","http://place.map.kakao.com/21160579","126.901473080039","37.4852605752505","SW8","지하철역","교통,수송 > 지하철,전철 > 수도권2호선"
215,"01호선","녹양",37.75938,127.042292,"21160465","녹양역 1호선","경기 의정부시 녹양동 96-1","경기 의정부시 평화로 757","031-828-3380","http://place.map.kakao.com/21160465","127.042279351606","37.759385253302","SW8","지하철역","교통,수송 > 지하철,전철 > 수도권1호선"
216,"02호선","을지로입구",37.566014,126.982618,"21160622","을지로입구역 2호선","서울 중구 을지로1가 100-1","서울 중구 을지로 지하 42","02-6110-2021","http://place.map.kakao.com/21160622","126.9821953112953","37.566035517712955","SW8","지하철역","교통,수송 > 지하철,전철 > 수도권2호선"
217,"02호선","을지로3가",37.566295,126.99191,"21160530","을지로3가역 2호선","서울 중구 을지로3가 347-3","서울 중구 을지로 지하 106","02-6110-2031","http://place.map.kakao.com/21160530","126.99098443539428","37.56629149790628","SW8","지하철역","교통,수송 > 지하철,전철 > 수도권2호선"
218,"02호선","을지로4가",37.566941,126.998079,"21160578","을지로4가역 2호선","서울 중구 을지로4가 267-1","서울 중구 을지로 지하 178","02-6110-2041","http://place.map.kakao.com/21160578","126.997632059113","37.5666405038268","SW8","지하철역","교통,수송 > 지하철,전철 > 수도권2호선"
219,"02호선","동대문역사문화공원",37.565138,127.007896,"21160617","동대문역사문화공원역 2호선","서울 중구 을지로7가 112-3","서울 중구 을지로 지하 279","02-6110-2051","http://place.map.kakao.com/21160617","127.009005301929","37.5656635044556","SW8","지하철역","교통,수송 > 지하철,전철 > 수도권2호선"
220,"02호선","신당",37.565972,127.01782,"21160801","신당역 2호선","서울 중구 신당동 99","서울 중구 퇴계로 지하 431-1","02-6110-2061","http://place.map.kakao.com/21160801","127.019477533278","37.5656730531732","SW8","지하철역","교통,수송 > 지하철,전철 > 수도권2호선"
221,"02호선","한양대",37.555273,127.043655,"21160585","한양대역 2호선","서울 성동구 행당동 산 17","서울 성동구 왕십리로 206","02-6110-2091","http://place.map.kakao.com/21160585","127.043639802768","37.5557159860408","SW8","지하철역","교통,수송 > 지하철,전철 > 수도권2호선"
222,"02호선","뚝섬",37.547184,127.047367,"21160627","뚝섬역 2호선","서울 성동구 성수동1가 656-745","서울 성동구 아차산로 18","02-6110-2101","http://place.map.kakao.com/21160627","127.04738727881","37.547241554679","SW8","지하철역","교통,수송 > 지하철,전철 > 수도권2호선"
223,"02호선","성수",37.544581,127.055961,"21160626","성수역 2호선","서울 성동구 성수동2가 300-1","서울 성동구 아차산로 100","02-6110-2111","http://place.map.kakao.com/21160626","127.056066999327","37.5445888153751","SW8","지하철역","교통,수송 > 지하철,전철 > 수도권2호선"
224,"02호선","건대입구",37.540693,127.07023,"21160625","건대입구역 2호선","서울 광진구 화양동 7-3","서울 광진구 아차산로 243","02-6110-2121","http://place.map.kakao.com/21160625","127.06920291650829","37.54040751726388","SW8","지하철역","교통,수송 > 지하철,전철 > 수도권2호선"
225,"02호선","구의",37.537077,127.085916,"21160586","구의역 2호선","서울 광진구 구의동 245-24","서울 광진구 아차산로 384-1","02-6110-2131","http://place.map.kakao.com/21160586","127.086180837795","37.5371752725594","SW8","지하철역","교통,수송 > 지하철,전철 > 수도권2호선"
226,"04호선","사당",37.47653,126.981685,"21160644","총신대입구역 4호선","서울 동작구 사당동 736-1","서울 동작구 동작대로 지하 117","02-6110-4321","http://place.map.kakao.com/21160644","126.982211871752","37.4867995957995","SW8","지하철역","교통,수송 > 지하철,전철 > 수도권4호선"
227,"05호선","신길",37.517122,126.917169,"21160688","신길역 5호선","서울 영등포구 영등포동1가 35","서울 영등포구 경인로114가길 지하 9","02-6311-5251","http://place.map.kakao.com/21160688","126.914913947722","37.517663974187","SW8","지하철역","교통,수송 > 지하철,전철 > 수도권5호선"
228,"인천2호선","검단사거리",37.60185,126.657108,"824066386","검단사거리역 인천2호선","인천 서구 왕길동 234-1","인천 서구 검단로 473","032-451-4303","http://place.map.kakao.com/824066386","126.65643839271","37.6016612295398","SW8","지하철역","교통,수송 > 지하철,전철 > 인천2호선"
229,"07호선","학동",37.514229,127.031656,"21160676","학동역 7호선","서울 강남구 논현동 279-67","서울 강남구 학동로 지하 180","02-6311-7311","http://place.map.kakao.com/21160676","127.03190190063152","37.51434578734927","SW8","지하철역","교통,수송 > 지하철,전철 > 수도권7호선"
230,"07호선","논현",37.511093,127.021415,"21161039","논현역 7호선","서울 강남구 논현동 279-67","서울 강남구 학동로 지하 102","02-6311-7321","http://place.map.kakao.com/21161039","127.02165424259898","37.51120000205266","SW8","지하철역","교통,수송 > 지하철,전철 > 수도권7호선"
231,"07호선","내방",37.487618,126.993513,"21160723","내방역 7호선","서울 서초구 방배동 874-16","서울 서초구 서초대로 지하 103","02-6311-7351","http://place.map.kakao.com/21160723","126.993600180589","37.4876585212369","SW8","지하철역","교통,수송 > 지하철,전철 > 수도권7호선"
232,"07호선","이수",37.484954,126.9793159,"21160773","이수역 7호선","서울 동작구 사당동 144-4","서울 동작구 사당로 지하 310","02-6311-7361","http://place.map.kakao.com/21160773","126.98167629035197","37.48528852311765","SW8","지하철역","교통,수송 > 지하철,전철 > 수도권7호선"
233,"07호선","숭실대입구",37.496029,126.953822,"21160725","숭실대입구역 7호선","서울 동작구 상도동 514","서울 동작구 상도로 지하 378","02-6311-7381","http://place.map.kakao.com/21160725","126.953621963422","37.4963172817574","SW8","지하철역","교통,수송 > 지하철,전철 > 수도권7호선"
234,"07호선","상도",37.502834,126.94791,"21160726","상도역 7호선","서울 동작구 상도1동 702-1","서울 동작구 상도로 지하 272","02-6311-7391","http://place.map.kakao.com/21160726","126.947917975554","37.5028706251049","SW8","지하철역","교통,수송 > 지하철,전철 > 수도권7호선"
235,"07호선","보라매",37.499872,126.920428,"21160724","보라매역 7호선","서울 동작구 대방동 466-51","서울 동작구 상도로 지하 2","02-6311-7421","http://place.map.kakao.com/21160724","126.92061230710924","37.49992085496506","SW8","지하철역","교통,수송 > 지하철,전철 > 수도권7호선"
236,"07호선","대림",37.49297,126.895801,"21160769","대림역 7호선","서울 영등포구 대림동 1050-17","서울 영등포구 도림로 지하 137","02-6311-7441","http://place.map.kakao.com/21160769","126.896722858042","37.4928430008915","SW8","지하철역","교통,수송 > 지하철,전철 > 수도권7호선"
237,"07호선","남구로",37.486056,126.887249,"21161037","남구로역 7호선","서울 구로구 구로동 801-95","서울 구로구 도림로 지하 7","02-6311-7451","http://place.map.kakao.com/21161037","126.88741505160269","37.48625714438263","SW8","지하철역","교통,수송 > 지하철,전철 > 수도권7호선"
238,"07호선","광명사거리",37.479252,126.854876,"21160706","광명사거리역 7호선","경기 광명시 광명동 158-211","경기 광명시 오리로 지하 980","02-6311-7481","http://place.map.kakao.com/21160706","126.854873735158","37.4792983082726","SW8","지하철역","교통,수송 > 지하철,전철 > 수도권7호선"
239,"07호선","천왕",37.486637,126.838713,"21160770","천왕역 7호선","서울 구로구 천왕동 14-25","서울 구로구 오리로 지하 1154","02-6311-7491","http://place.map.kakao.com/21160770","126.83860534807998","37.48685558277736","SW8","지하철역","교통,수송 > 지하철,전철 > 수도권7호선"
240,"09호선","삼성중앙",37.513011,127.053282,"26550128","삼성중앙역 9호선","서울 강남구 삼성동 111-147","서울 강남구 봉은사로 지하 501","02-2656-0928","http://place.map.kakao.com/26550128","127.053043676912","37.5129614511319","SW8","지하철역","교통,수송 > 지하철,전철 > 수도권9호선"
241,"인천2호선","인천대공원",37.448769,126.752618,"210123408","인천대공원역 인천2호선","인천 남동구 장수동 604-8","인천 남동구 수인로 3677","032-451-4326","http://place.map.kakao.com/210123408","126.752851963764","37.4484766105613","SW8","지하철역","교통,수송 > 지하철,전철 > 인천2호선"
242,"09호선","봉은사",37.514219,127.060245,"26550131","봉은사역 9호선","서울 강남구 삼성동 172","서울 강남구 봉은사로 지하 601","02-2656-0929","http://place.map.kakao.com/26550131","127.060233935114","37.5142554489848","SW8","지하철역","교통,수송 > 지하철,전철 > 수도권9호선"
243,"09호선","삼전",37.5042766,127.0884186,"1822985559","석촌고분역 9호선","서울 송파구 삼전동 157-1","서울 송파구 백제고분로 지하 274","02-2656-0932","http://place.map.kakao.com/1822985559","127.0965081858022","37.50246245994369","SW8","지하철역","교통,수송 > 지하철,전철 > 수도권9호선"
244,"09호선","석촌",37.505431,127.106979,"1578645608","석촌역 9호선","서울 송파구 석촌동 209","서울 송파구 백제고분로 지하 368","02-2656-0009","http://place.map.kakao.com/1578645608","127.10676479806769","37.504972845773686","SW8","지하철역","교통,수송 > 지하철,전철 > 수도권9호선"
245,"09호선","송파나루",37.5102451,127.1100425,"40611700","송파나루역 9호선","서울 송파구 방이동 2","서울 송파구 백제고분로 지하 446","02-2656-0934","http://place.map.kakao.com/40611700","127.11266171422027","37.51101671275264","SW8","지하철역","교통,수송 > 지하철,전철 > 수도권9호선"
246,"09호선","올림픽공원",37.516078,127.130848,"585546584","한성백제역 9호선","서울 송파구 방이동 88-17","서울 송파구 위례성대로 지하 29","02-2656-0009","http://place.map.kakao.com/585546584","127.116449169971","37.5165379932802","SW8","지하철역","교통,수송 > 지하철,전철 > 수도권9호선"
247,"07호선","부천종합운동장",37.50538,126.797337,"12344083","부천종합운동장역 7호선","경기 부천시 춘의동 15-1","경기 부천시 길주로 지하 502","02-6311-7520","http://place.map.kakao.com/12344083","126.797233841984","37.5054255130821","SW8","지하철역","교통,수송 > 지하철,전철 > 수도권7호선"
248,"07호선","춘의",37.503663,126.787036,"12818605","춘의역 7호선","경기 부천시 춘의동 145","경기 부천시 길주로 지하 406","02-6311-7531","http://place.map.kakao.com/12818605","126.786996627015","37.5036991939036","SW8","지하철역","교통,수송 > 지하철,전철 > 수도권7호선"
249,"07호선","신중동",37.503048,126.77596,"18433418","신중동역 7호선","경기 부천시 중동 1140-6","경기 부천시 길주로 지하 314","02-6311-7541","http://place.map.kakao.com/18433418","126.776897204578","37.5029525402622","SW8","지하철역","교통,수송 > 지하철,전철 > 수도권7호선"
250,"07호선","부천시청",37.504631,126.763538,"18432273","부천시청역 7호선","경기 부천시 중동 1243","경기 부천시 길주로 지하 202","02-6311-7551","http://place.map.kakao.com/18432273","126.76401271224958","37.504657430273305","SW8","지하철역","교통,수송 > 지하철,전철 > 수도권7호선"
251,"07호선","상동",37.505781,126.753083,"18432525","상동역 7호선","경기 부천시 상동 633","경기 부천시 길주로 지하 104","02-6311-7561","http://place.map.kakao.com/18432525","126.753192450274","37.50578860265","SW8","지하철역","교통,수송 > 지하철,전철 > 수도권7호선"
252,"07호선","삼산체육관",37.506411,126.742153,"21160776","삼산체육관역 7호선","인천 부평구 삼산동 466","인천 부평구 길주로 지하 713","1577-5678","http://place.map.kakao.com/21160776","126.7414221320359","37.50650314706075","SW8","지하철역","교통,수송 > 지하철,전철 > 수도권7호선"
253,"07호선","굴포천",37.506997,126.73128,"12344089","부평구청역 7호선","인천 부평구 갈산동 193-45","인천 부평구 길주로 지하 527","02-6311-7591","http://place.map.kakao.com/12344089","126.72143971800028","37.50743350044892","SW8","지하철역","교통,수송 > 지하철,전철 > 수도권7호선"
254,"07호선","부평구청",37.508336,126.720548,"12344089","부평구청역 7호선","인천 부평구 갈산동 193-45","인천 부평구 길주로 지하 527","02-6311-7591","http://place.map.kakao.com/12344089","126.72143971800028","37.50743350044892","SW8","지하철역","교통,수송 > 지하철,전철 > 수도권7호선"
255,"08호선","암사",37.55021,127.127562,"21160777","암사역 8호선","서울 강동구 암사동 501","서울 강동구 올림픽로 지하 776","02-6311-8101","http://place.map.kakao.com/21160777","127.12754072968517","37.55015818096496","SW8","지하철역","교통,수송 > 지하철,전철 > 수도권8호선"
256,"08호선","천호",37.538397,127.123572,"21160713","천호역 8호선","서울 강동구 천호동 455","서울 강동구 천호대로 지하 997","02-6311-5471","http://place.map.kakao.com/21160713","127.12320335921426","37.537936231906734","SW8","지하철역","교통,수송 > 지하철,전철 > 수도권8호선"
257,"08호선","강동구청",37.530341,127.120508,"21161045","강동구청역 8호선","서울 강동구 성내동 319","서울 강동구 올림픽로 지하 550","02-6311-8121","http://place.map.kakao.com/21161045","127.12044373032","37.5302111983522","SW8","지하철역","교통,수송 > 지하철,전철 > 수도권8호선"
258,"08호선","몽촌토성",37.517409,127.112359,"21160501","몽촌토성역 8호선","서울 송파구 신천동 19","서울 송파구 올림픽로 지하 383","02-6311-8131","http://place.map.kakao.com/21160501","127.11286534895457","37.5178055794687","SW8","지하철역","교통,수송 > 지하철,전철 > 수도권8호선"
259,"01호선","남영",37.541021,126.9713,"10182341","남영역 1호선","서울 용산구 갈월동 96-1","서울 용산구 한강대로77길 25","02-792-7788","http://place.map.kakao.com/10182341","126.97133096608212","37.540566672483216","SW8","지하철역","교통,수송 > 지하철,전철 > 수도권1호선"
260,"01호선","용산",37.529849,126.964561,"21160526","용산역 1호선","서울 용산구 한강로3가 40-999","서울 용산구 한강대로23길 55","02-798-6628","http://place.map.kakao.com/21160526","126.96462961258051","37.52977356999725","SW8","지하철역","교통,수송 > 지하철,전철 > 수도권1호선"
261,"01호선","노량진",37.514219,126.942454,"21160525","노량진역 1호선","서울 동작구 노량진동 67-2","서울 동작구 노량진로 151","02-814-7788","http://place.map.kakao.com/21160525","126.942109882124","37.5140547961008","SW8","지하철역","교통,수송 > 지하철,전철 > 수도권1호선"
262,"01호선","대방",37.513342,126.926382,"21160610","대방역 1호선","서울 영등포구 신길동 1368-3","서울 영등포구 여의대방로 300","02-2639-3331","http://place.map.kakao.com/21160610","126.92649449142719","37.51335413975466","SW8","지하철역","교통,수송 > 지하철,전철 > 수도권1호선"
263,"01호선","영등포",37.515504,126.907628,"21160794","영등포역 1호선","서울 영등포구 영등포동 618-496","서울 영등포구 경인로 846","02-2639-3320","http://place.map.kakao.com/21160794","126.907550274975","37.5156726288261","SW8","지하철역","교통,수송 > 지하철,전철 > 수도권1호선"
264,"01호선","신도림",37.508725,126.891295,"21160787","신도림역 1호선","서울 구로구 신도림동 460-26","서울 구로구 경인로 688","1544-7788","http://place.map.kakao.com/21160787","126.891312500851","37.508908482648","SW8","지하철역","교통,수송 > 지하철,전철 > 수도권1호선"
265,"경의선","이촌",37.522272,126.974345,"21161055","이촌역 경의중앙선","서울 용산구 용산동5가 17-69","서울 용산구 이촌로71길 42","02-6110-4301","http://place.map.kakao.com/21161055","126.97354268961969","37.52241291383126","SW8","지하철역","교통,수송 > 지하철,전철 > 경의중앙선"
266,"경의선","서빙고",37.519594,126.988537,"21160862","서빙고역 경의중앙선","서울 용산구 서빙고동 241-98","서울 용산구 서빙고로 238","1544-7788","http://place.map.kakao.com/21160862","126.98841094338457","37.519568139395346","SW8","지하철역","교통,수송 > 지하철,전철 > 경의중앙선"
267,"경의선","옥수",37.540685,127.017965,"21161054","옥수역 경의중앙선","서울 성동구 옥수동 168-1","서울 성동구 동호로 21","1544-7788","http://place.map.kakao.com/21161054","127.018746821679","37.5405137035097","SW8","지하철역","교통,수송 > 지하철,전철 > 경의중앙선"
268,"경의선","왕십리",37.561533,127.037732,"21160924","왕십리역 경의중앙선","서울 성동구 행당동 168-151","서울 성동구 왕십리광장로 17","1544-7788","http://place.map.kakao.com/21160924","127.0383329389645","37.56205814456861","SW8","지하철역","교통,수송 > 지하철,전철 > 경의중앙선"
269,"경의선","청량리",37.580178,127.046835,"8089626","청량리역 경의중앙선","서울 동대문구 전농동 591-53","서울 동대문구 왕산로 214","1544-7788","http://place.map.kakao.com/8089626","127.04786558187519","37.580279093795085","SW8","지하철역","교통,수송 > 지하철,전철 > 경의중앙선"
270,"01호선","회기",37.58946,127.057583,"21160926","회기역 경의중앙선","서울 동대문구 휘경동 317-101","서울 동대문구 회기로 196","1544-7788","http://place.map.kakao.com/21160926","127.05782624137","37.5895296349726","SW8","지하철역","교통,수송 > 지하철,전철 > 경의중앙선"
271,"01호선","외대앞",37.596073,127.063549,"10706726","외대앞역 1호선","서울 동대문구 이문동 360-5","서울 동대문구 휘경로 27","02-966-6705","http://place.map.kakao.com/10706726","127.06369251069","37.5962732416653","SW8","지하철역","교통,수송 > 지하철,전철 > 수도권1호선"
272,"01호선","신이문",37.601854,127.067325,"7977875","신이문역 1호선","서울 동대문구 이문동 7","서울 동대문구 한천로 472","02-960-1871","http://place.map.kakao.com/7977875","127.067398003775","37.6017816437084","SW8","지하철역","교통,수송 > 지하철,전철 > 수도권1호선"
273,"01호선","광운대",37.623632,127.061835,"10479392","광운대역 1호선","서울 노원구 월계동 85","서울 노원구 석계로 98-2","02-917-7445","http://place.map.kakao.com/10479392","127.061695160651","37.6238373628149","SW8","지하철역","교통,수송 > 지하철,전철 > 수도권1호선"
274,"01호선","월계",37.633212,127.058831,"21160518","월계역 1호선","서울 노원구 월계동 263-7","서울 노원구 월계로53길 40","02-900-4855","http://place.map.kakao.com/21160518","127.058857087601","37.6332775453974","SW8","지하철역","교통,수송 > 지하철,전철 > 수도권1호선"
275,"01호선","녹천",37.644799,127.051269,"21160573","녹천역 1호선","서울 도봉구 창동 57-11","서울 도봉구 덕릉로 376","02-905-0182","http://place.map.kakao.com/21160573","127.05138201885734","37.644633445567656","SW8","지하철역","교통,수송 > 지하철,전철 > 수도권1호선"
276,"01호선","창동",37.653166,127.047731,"21160604","창동역 1호선","서울 도봉구 창동 135-1","서울 도봉구 마들로11길 77","02-992-3388","http://place.map.kakao.com/21160604","127.047644999036","37.6533385121404","SW8","지하철역","교통,수송 > 지하철,전철 > 수도권1호선"
277,"수인분당선","선릉",37.504503,127.049008,"21161056","선릉역 수인분당선","서울 강남구 삼성동 172-66","서울 강남구 테헤란로 지하 340","1544-7788","http://place.map.kakao.com/21161056","127.04870992465413","37.505167825521674","SW8","지하철역","교통,수송 > 지하철,전철 > 수인분당선"
278,"수인분당선","한티",37.496237,127.052873,"8154510","한티역 수인분당선","서울 강남구 대치동 1011-28","서울 강남구 선릉로 지하 228","02-569-9704","http://place.map.kakao.com/8154510","127.052909749417","37.4962857047653","SW8","지하철역","교통,수송 > 지하철,전철 > 수인분당선"
279,"수인분당선","도곡",37.490858,127.055381,"21160928","도곡역 수인분당선","서울 강남구 도곡동 339-2","서울 강남구 남부순환로 지하 2814","02-576-2706","http://place.map.kakao.com/21160928","127.055109203665","37.4916282953544","SW8","지하철역","교통,수송 > 지하철,전철 > 수인분당선"
280,"수인분당선","구룡",37.486839,127.058856,"21160739","구룡역 수인분당선","서울 강남구 개포동 175-3","서울 강남구 개포로 지하 403","1544-7788","http://place.map.kakao.com/21160739","127.059492941655","37.4870274262116","SW8","지하철역","교통,수송 > 지하철,전철 > 수인분당선"
281,"수인분당선","개포동",37.489116,127.06614,"8192414","개포동역 수인분당선","서울 강남구 개포동 195","서울 강남구 개포로 지하 420","02-3412-4418","http://place.map.kakao.com/8192414","127.066120707828","37.4891394691891","SW8","지하철역","교통,수송 > 지하철,전철 > 수인분당선"
282,"수인분당선","대모산입구",37.491373,127.07272,"21160484","대모산입구역 수인분당선","서울 강남구 일원동 700-1","서울 강남구 개포로 지하 522","02-3412-9471","http://place.map.kakao.com/21160484","127.073070274916","37.4915500752654","SW8","지하철역","교통,수송 > 지하철,전철 > 수인분당선"
283,"수인분당선","왕십리",37.561533,127.037732,"18234123","왕십리역 수인분당선","서울 성동구 행당동 168-151","서울 성동구 왕십리광장로 17","02-2291-7787","http://place.map.kakao.com/18234123","127.03878380532441","37.56063982853407","SW8","지하철역","교통,수송 > 지하철,전철 > 수인분당선"
284,"수인분당선","수서",37.487371,127.10188,"27255180","수서역 수인분당선","서울 강남구 수서동 728","서울 강남구 광평로 지하 270","02-2226-6881","http://place.map.kakao.com/27255180","127.101645918947","37.4873734995025","SW8","지하철역","교통,수송 > 지하철,전철 > 수인분당선"
285,"수인분당선","복정",37.470047,127.126662,"21160469","복정역 수인분당선","서울 송파구 장지동 596-21","서울 송파구 송파대로 지하 6","02-449-8264","http://place.map.kakao.com/21160469","127.12657757539301","37.46904181976967","SW8","지하철역","교통,수송 > 지하철,전철 > 수인분당선"
286,"01호선","신길",37.517122,126.917169,"14577297","신길역 1호선","서울 영등포구 신길동 41-1","서울 영등포구 영등포로 327","02-2639-3553","http://place.map.kakao.com/14577297","126.91836721069228","37.51678703217714","SW8","지하철역","교통,수송 > 지하철,전철 > 수도권1호선"
287,"경의선","중랑",37.594917,127.076116,"21161053","망우역 경의중앙선","서울 중랑구 상봉동 172","서울 중랑구 망우로55길 11-10","02-432-7788","http://place.map.kakao.com/21161053","127.092367383432","37.5992960295399","SW8","지하철역","교통,수송 > 지하철,전철 > 경의중앙선"
288,"경의선","상봉",37.596362,127.085032,"21161053","망우역 경의중앙선","서울 중랑구 상봉동 172","서울 중랑구 망우로55길 11-10","02-432-7788","http://place.map.kakao.com/21161053","127.092367383432","37.5992960295399","SW8","지하철역","교통,수송 > 지하철,전철 > 경의중앙선"
289,"경의선","망우",37.59955,127.091909,"21160860","양원역 경의중앙선","서울 중랑구 망우동 269-5","서울 중랑구 송림길 147","1544-7788","http://place.map.kakao.com/21160860","127.107946139148","37.6066060557557","SW8","지하철역","교통,수송 > 지하철,전철 > 경의중앙선"
290,"경의선","양원",37.606596,127.107906,"21160860","양원역 경의중앙선","서울 중랑구 망우동 269-5","서울 중랑구 송림길 147","1544-7788","http://place.map.kakao.com/21160860","127.107946139148","37.6066060557557","SW8","지하철역","교통,수송 > 지하철,전철 > 경의중앙선"
291,"경의선","구리",37.603392,127.143869,"21160922","구리역 경의중앙선","경기 구리시 인창동 244-2","경기 구리시 건원대로34번길 32-29","031-552-7784","http://place.map.kakao.com/21160922","127.143350984187","37.6032707405088","SW8","지하철역","교통,수송 > 지하철,전철 > 경의중앙선"
292,"경의선","도농",37.608806,127.161153,"21160735","도농역 경의중앙선","경기 남양주시 다산동 4056-1","경기 남양주시 경춘로 433","1544-7788","http://place.map.kakao.com/21160735","127.161178663222","37.6087726045416","SW8","지하철역","교통,수송 > 지하철,전철 > 경의중앙선"
293,"경의선","양정",37.60533,127.19364,"25042939","양정역 경의중앙선","경기 남양주시 이패동 398-32","경기 남양주시 경강로 237","031-559-7786","http://place.map.kakao.com/25042939","127.19466908658632","37.604027962835566","SW8","지하철역","교통,수송 > 지하철,전철 > 경의중앙선"
294,"경의선","덕소",37.586781,127.208832,"21160737","덕소역 경의중앙선","경기 남양주시 와부읍 덕소리 590-17","경기 남양주시 와부읍 덕소로 56","031-577-7788","http://place.map.kakao.com/21160737","127.208842710609","37.5868903292078","SW8","지하철역","교통,수송 > 지하철,전철 > 경의중앙선"
295,"경의선","도심",37.579622,127.222672,"11090570","도심역 경의중앙선","경기 남양주시 와부읍 도곡리 1024-2","경기 남양주시 와부읍 덕소로 237","1544-7788","http://place.map.kakao.com/11090570","127.222683857886","37.579639075911","SW8","지하철역","교통,수송 > 지하철,전철 > 경의중앙선"
296,"경의선","팔당",37.547371,127.243939,"17491811","운길산역 경의중앙선","경기 남양주시 조안면 진중리 200-4","경기 남양주시 조안면 운길산로 20","1544-7788","http://place.map.kakao.com/17491811","127.310231608596","37.5546425431665","SW8","지하철역","교통,수송 > 지하철,전철 > 경의중앙선"
297,"경의선","운길산",37.554669,127.310115,"7996194","양수역 경의중앙선","경기 양평군 양서면 용담리 255-2","경기 양평군 양서면 목왕로 55-10","031-772-6006","http://place.map.kakao.com/7996194","127.329138380916","37.5459634283124","SW8","지하철역","교통,수송 > 지하철,전철 > 경의중앙선"
298,"경의선","양수",37.545981,127.329098,"7996194","양수역 경의중앙선","경기 양평군 양서면 용담리 255-2","경기 양평군 양서면 목왕로 55-10","031-772-6006","http://place.map.kakao.com/7996194","127.329138380916","37.5459634283124","SW8","지하철역","교통,수송 > 지하철,전철 > 경의중앙선"
299,"경의선","신원",37.525545,127.372921,"8436463","신원역 경의중앙선","경기 양평군 양서면 신원리 480-29","경기 양평군 양서면 신원역길 7","031-772-0506","http://place.map.kakao.com/8436463","127.373091698635","37.5255855578889","SW8","지하철역","교통,수송 > 지하철,전철 > 경의중앙선"
300,"경의선","응봉",37.549946,127.034538,"17493449","응봉역 경의중앙선","서울 성동구 응봉동 246","서울 성동구 고산자로 123","02-2295-6319","http://place.map.kakao.com/17493449","127.034483653629","37.5499526279456","SW8","지하철역","교통,수송 > 지하철,전철 > 경의중앙선"
301,"경의선","국수",37.516169,127.399367,"26431429","국수역 경의중앙선","경기 양평군 양서면 국수리 258-25","경기 양평군 양서면 국수역길 45","031-772-7578","http://place.map.kakao.com/26431429","127.399309828929","37.5161871164552","SW8","지하철역","교통,수송 > 지하철,전철 > 경의중앙선"
302,"경의선","아신",37.51382,127.443173,"11666916","아신역 경의중앙선","경기 양평군 옥천면 아신리 산 112-2","경기 양평군 옥천면 아신역1길 23","1544-7788","http://place.map.kakao.com/11666916","127.443211499187","37.5139186008078","SW8","지하철역","교통,수송 > 지하철,전철 > 경의중앙선"
303,"경의선","오빈",37.506062,127.473868,"12435456","오빈역 경의중앙선","경기 양평군 양평읍 오빈리 238-41","경기 양평군 양평읍 덕바위길 58","031-774-8873","http://place.map.kakao.com/12435456","127.473661407181","37.5061671737276","SW8","지하철역","교통,수송 > 지하철,전철 > 경의중앙선"
304,"경의선","양평",37.525648,126.885778,"7996194","양수역 경의중앙선","경기 양평군 양서면 용담리 255-2","경기 양평군 양서면 목왕로 55-10","031-772-6006","http://place.map.kakao.com/7996194","127.329138380916","37.5459634283124","SW8","지하철역","교통,수송 > 지하철,전철 > 경의중앙선"
305,"경의선","원덕",37.468672,127.547076,"11657670","원덕역 경의중앙선","경기 양평군 양평읍 원덕리 139-4","경기 양평군 양평읍 원덕흑천길 138","031-771-4196","http://place.map.kakao.com/11657670","127.546558679899","37.468781735546","SW8","지하철역","교통,수송 > 지하철,전철 > 경의중앙선"
306,"경의선","용문",37.48223,127.594647,"11657669","용문역 경의중앙선","경기 양평군 용문면 다문리 736-13","경기 양평군 용문면 용문역길 21","031-773-7788","http://place.map.kakao.com/11657669","127.593795306663","37.4818020661568","SW8","지하철역","교통,수송 > 지하철,전철 > 경의중앙선"
307,"경의선","지평",37.476444,127.629617,"2010086364","지평역 경의중앙선","경기 양평군 지평면 지평리 1120-10","경기 양평군 지평면 지평역길 32","031-773-7010","http://place.map.kakao.com/2010086364","127.62890592244803","37.476907283345135","SW8","지하철역","교통,수송 > 지하철,전철 > 경의중앙선"
308,"경의선","서울",37.554648,126.972559,"21161053","망우역 경의중앙선","서울 중랑구 상봉동 172","서울 중랑구 망우로55길 11-10","02-432-7788","http://place.map.kakao.com/21161053","127.092367383432","37.5992960295399","SW8","지하철역","교통,수송 > 지하철,전철 > 경의중앙선"
309,"경의선","신촌",37.555134,126.936893,"26352363","신촌역 경의중앙선","서울 서대문구 신촌동 74-12","서울 서대문구 신촌역로 30","1544-7788","http://place.map.kakao.com/26352363","126.94208931819857","37.55967513765615","SW8","지하철역","교통,수송 > 지하철,전철 > 경의중앙선"
310,"경의선","효창공원앞",37.539261,126.961351,"100473650","효창공원앞역 경의중앙선","서울 용산구 효창동 80","서울 용산구 백범로 지하 287","1544-7788","http://place.map.kakao.com/100473650","126.96282412672662","37.53860552677497","SW8","지하철역","교통,수송 > 지하철,전철 > 경의중앙선"
311,"경의선","공덕",37.544018,126.951592,"26352409","서울역 경의중앙선","서울 중구 봉래동2가 122-28","서울 중구 통일로 1","1544-7788","http://place.map.kakao.com/26352409","126.971316773975","37.5569351113375","SW8","지하철역","교통,수송 > 지하철,전철 > 경의중앙선"
312,"경의선","홍대입구",37.557192,126.925381,"26352390","홍대입구역 경의중앙선","서울 마포구 동교동 190-1","서울 마포구 양화로 지하 188","1544-7788","http://place.map.kakao.com/26352390","126.927118938976","37.5574494922411","SW8","지하철역","교통,수송 > 지하철,전철 > 경의중앙선"
313,"경의선","수색",37.580842,126.895611,"27256382","디지털미디어시티역 경의중앙선","서울 은평구 수색동 37-2","서울 은평구 수색로 193","02-305-1030","http://place.map.kakao.com/27256382","126.900690671594","37.5774034885485","SW8","지하철역","교통,수송 > 지하철,전철 > 경의중앙선"
314,"경의선","화전",37.602888,126.868387,"26352366","화전역 경의중앙선","경기 고양시 덕양구 화전동 183-10","경기 고양시 덕양구 화랑로 53","02-3158-0788","http://place.map.kakao.com/26352366","126.86832290956241","37.60297079813561","SW8","지하철역","교통,수송 > 지하철,전철 > 경의중앙선"
315,"경의선","강매",37.612314,126.843223,"26352355","강매역 경의중앙선","경기 고양시 덕양구 행신동 1115-1","경기 고양시 덕양구 소원로 202","1544-7788","http://place.map.kakao.com/26352355","126.84449823065067","37.6122904718741","SW8","지하철역","교통,수송 > 지하철,전철 > 경의중앙선"
316,"경의선","행신",37.612102,126.834146,"26352355","강매역 경의중앙선","경기 고양시 덕양구 행신동 1115-1","경기 고양시 덕양구 소원로 202","1544-7788","http://place.map.kakao.com/26352355","126.84449823065067","37.6122904718741","SW8","지하철역","교통,수송 > 지하철,전철 > 경의중앙선"
317,"경의선","능곡",37.618808,126.820783,"26352394","능곡역 경의중앙선","경기 고양시 덕양구 토당동 454-3","경기 고양시 덕양구 토당로 35","1544-7788","http://place.map.kakao.com/26352394","126.820422359748","37.6190245080032","SW8","지하철역","교통,수송 > 지하철,전철 > 경의중앙선"
318,"경의선","곡산",37.645676,126.801762,"26352410","곡산역 경의중앙선","경기 고양시 일산동구 백석동 1185-1","경기 고양시 일산동구 경의로 160","1544-7788","http://place.map.kakao.com/26352410","126.801806892782","37.6457575538988","SW8","지하철역","교통,수송 > 지하철,전철 > 경의중앙선"
319,"경의선","풍산",37.672346,126.786243,"26352413","풍산역 경의중앙선","경기 고양시 일산동구 풍동 1042","경기 고양시 일산동구 경의로 486","1544-7788","http://place.map.kakao.com/26352413","126.786275217066","37.6723381857514","SW8","지하철역","교통,수송 > 지하철,전철 > 경의중앙선"
320,"경의선","일산",37.682077,126.769846,"26352286","일산역 경의중앙선","경기 고양시 일산서구 일산동 655-691","경기 고양시 일산서구 경의로 672","1544-7788","http://place.map.kakao.com/26352286","126.770022642636","37.6820129415088","SW8","지하철역","교통,수송 > 지하철,전철 > 경의중앙선"
321,"경의선","탄현",37.694023,126.761086,"26352445","탄현역 경의중앙선","경기 고양시 일산서구 덕이동 238-12","경기 고양시 일산서구 경의로 856","1544-7788","http://place.map.kakao.com/26352445","126.761078262576","37.6939889446111","SW8","지하철역","교통,수송 > 지하철,전철 > 경의중앙선"
322,"경의선","운정",37.725826,126.767257,"26352397","운정역 경의중앙선","경기 파주시 야당동 299-4","경기 파주시 운정역길 368","1544-7788","http://place.map.kakao.com/26352397","126.76716330229101","37.72560181256856","SW8","지하철역","교통,수송 > 지하철,전철 > 경의중앙선"
323,"경의선","금릉",37.751322,126.765347,"26352302","금릉역 경의중앙선","경기 파주시 금촌동 605-1","경기 파주시 금릉역로 85","031-948-4788","http://place.map.kakao.com/26352302","126.765410119425","37.7513389843704","SW8","지하철역","교통,수송 > 지하철,전철 > 경의중앙선"
324,"경의선","월롱",37.796188,126.792587,"26352440","월롱역 경의중앙선","경기 파주시 월롱면 위전리 168-3","경기 파주시 월롱면 통일로 980","1544-7788","http://place.map.kakao.com/26352440","126.792585875504","37.7962146380874","SW8","지하철역","교통,수송 > 지하철,전철 > 경의중앙선"
325,"경의선","파주",37.815298,126.792783,"26352372","문산역 경의중앙선","경기 파주시 문산읍 문산리 17-14","경기 파주시 문산읍 문산역로 94","1544-7788","http://place.map.kakao.com/26352372","126.787395378931","37.854626895054","SW8","지하철역","교통,수송 > 지하철,전철 > 경의중앙선"
326,"경의선","문산",37.854619,126.788047,"26352372","문산역 경의중앙선","경기 파주시 문산읍 문산리 17-14","경기 파주시 문산읍 문산역로 94","1544-7788","http://place.map.kakao.com/26352372","126.787395378931","37.854626895054","SW8","지하철역","교통,수송 > 지하철,전철 > 경의중앙선"
327,"경의선","임진강",37.8888842,126.7453083,"809302145","임진강역 경의중앙선","경기 파주시 문산읍 마정리 1253-3","경기 파주시 문산읍 임진각로 115",0,"http://place.map.kakao.com/809302145","126.747078454706","37.8882750558283","SW8","지하철역","교통,수송 > 지하철,전철 > 경의중앙선"
328,"경춘선","광운대",37.623632,127.061835,"22079305","광운대역 경춘선","서울 노원구 월계동 85","서울 노원구 석계로 98-2","02-917-7445","http://place.map.kakao.com/22079305","127.061985215335","37.623916497664","SW8","지하철역","교통,수송 > 지하철,전철 > 경춘선"
329,"경춘선","청량리",37.580178,127.046835,"1811486888","청량리역 경춘선","서울 동대문구 전농동 591-53","서울 동대문구 왕산로 214","1544-7788","http://place.map.kakao.com/1811486888","127.0486360630067","37.581273475892466","SW8","지하철역","교통,수송 > 지하철,전철 > 경춘선"
330,"경춘선","회기",37.58946,127.057583,"670656740","회기역 경춘선","서울 동대문구 휘경동 317-101","서울 동대문구 회기로 196","02-965-1467","http://place.map.kakao.com/670656740","127.058537601316","37.5899221169641","SW8","지하철역","교통,수송 > 지하철,전철 > 경춘선"
331,"경춘선","상봉",37.596362,127.085032,"12706588","상봉역 경춘선","서울 중랑구 상봉동 100-9","서울 중랑구 망우로 297","02-432-7783","http://place.map.kakao.com/12706588","127.085085690038","37.5969733432502","SW8","지하철역","교통,수송 > 지하철,전철 > 경춘선"
332,"경춘선","망우",37.59955,127.091909,"12706589","망우역 경춘선","서울 중랑구 상봉동 172","서울 중랑구 망우로55길 11-10","1544-7788","http://place.map.kakao.com/12706589","127.091738656282","37.600017312378","SW8","지하철역","교통,수송 > 지하철,전철 > 경춘선"
333,"경춘선","신내",37.612887,127.103218,"12706592","신내역 경춘선","서울 중랑구 망우동 320","서울 중랑구 신내역로 20","1544-7788","http://place.map.kakao.com/12706592","127.10322521629693","37.61270546979327","SW8","지하철역","교통,수송 > 지하철,전철 > 경춘선"
334,"경춘선","갈매",37.634118,127.114757,"12706594","갈매역 경춘선","경기 구리시 갈매동 502-39","경기 구리시 경춘북로 229","031-572-8827","http://place.map.kakao.com/12706594","127.114760741021","37.6340689252244","SW8","지하철역","교통,수송 > 지하철,전철 > 경춘선"
335,"경춘선","별내",37.64202,127.12684,"21161058","별내역 경춘선","경기 남양주시 별내동 182-5","경기 남양주시 경춘북로 375","1544-7788","http://place.map.kakao.com/21161058","127.126969149167","37.6420679726917","SW8","지하철역","교통,수송 > 지하철,전철 > 경춘선"
336,"경춘선","퇴계원",37.648311,127.143952,"12706593","퇴계원역 경춘선","경기 남양주시 퇴계원읍 퇴계원리 218-142","경기 남양주시 퇴계원읍 경춘북로 545","031-571-7788","http://place.map.kakao.com/12706593","127.14353713662","37.6482657629059","SW8","지하철역","교통,수송 > 지하철,전철 > 경춘선"
337,"경춘선","사릉",37.65108,127.176933,"25038390","사릉역 경춘선","경기 남양주시 진건읍 사능리 605-3","경기 남양주시 진건읍 진건우회로 63","031-575-8862","http://place.map.kakao.com/25038390","127.17692620365439","37.65112427884554","SW8","지하철역","교통,수송 > 지하철,전철 > 경춘선"
338,"경춘선","평내호평",37.653225,127.244493,"12706598","평내호평역 경춘선","경기 남양주시 평내동 660","경기 남양주시 경춘로 1375","031-591-7788","http://place.map.kakao.com/12706598","127.244438968688","37.6532138128125","SW8","지하철역","교통,수송 > 지하철,전철 > 경춘선"
339,"경춘선","마석",37.652782,127.311767,"12706599","마석역 경춘선","경기 남양주시 화도읍 마석우리 222-2","경기 남양주시 화도읍 마석중앙로 107","031-593-7788","http://place.map.kakao.com/12706599","127.311686554885","37.652792215501","SW8","지하철역","교통,수송 > 지하철,전철 > 경춘선"
340,"경춘선","대성리",37.684071,127.379319,"12706604","대성리역 경춘선","경기 가평군 청평면 대성리 393-3","경기 가평군 청평면 경춘로 88","031-584-0616","http://place.map.kakao.com/12706604","127.379706254541","37.6839900741502","SW8","지하철역","교통,수송 > 지하철,전철 > 경춘선"
341,"경춘선","청평",37.735488,127.42661,"12706601","청평역 경춘선","경기 가평군 청평면 청평리 174","경기 가평군 청평면 청평역로 97-33","031-584-0012","http://place.map.kakao.com/12706601","127.426622860785","37.7355163992466","SW8","지하철역","교통,수송 > 지하철,전철 > 경춘선"
342,"경춘선","상천",37.770246,127.454821,"12706607","상천역 경춘선","경기 가평군 청평면 상천리 1260-1","경기 가평군 청평면 상천역로 29","1544-7788","http://place.map.kakao.com/12706607","127.454515681516","37.7701784041516","SW8","지하철역","교통,수송 > 지하철,전철 > 경춘선"
343,"경춘선","가평",37.814536,127.510739,"12706605","가평역 경춘선","경기 가평군 가평읍 달전리 603-2","경기 가평군 가평읍 문화로 13-42","031-581-2855","http://place.map.kakao.com/12706605","127.51073942455","37.8145200514507","SW8","지하철역","교통,수송 > 지하철,전철 > 경춘선"
344,"경춘선","굴봉산",37.832067,127.557695,"12706610","굴봉산역 경춘선","강원 춘천시 남산면 백양리 588-30","강원 춘천시 남산면 서백길 192","1544-7788","http://place.map.kakao.com/12706610","127.557769861431","37.8320661917515","SW8","지하철역","교통,수송 > 지하철,전철 > 경춘선"
345,"경춘선","백양리",37.830779,127.58933,"8319016","백양리역 경춘선","강원 춘천시 남산면 강촌리 680-7","강원 춘천시 남산면 북한강변길 690","033-262-8827","http://place.map.kakao.com/8319016","127.589324987859","37.8307917497493","SW8","지하철역","교통,수송 > 지하철,전철 > 경춘선"
346,"경춘선","강촌",37.805723,127.634146,"12706616","강촌역 경춘선","강원 춘천시 남산면 방곡리 409","강원 춘천시 남산면 강촌로 150","1544-7788","http://place.map.kakao.com/12706616","127.634151572422","37.805721704842","SW8","지하철역","교통,수송 > 지하철,전철 > 경춘선"
347,"경춘선","김유정",37.818466,127.71434,"12706614","김유정역 경춘선","강원 춘천시 신동면 증리 945-2","강원 춘천시 신동면 김유정로 1435","1544-7788","http://place.map.kakao.com/12706614","127.714323967766","37.8184490071056","SW8","지하철역","교통,수송 > 지하철,전철 > 경춘선"
348,"경춘선","남춘천",37.864007,127.723792,"25413324","남춘천역 경춘선","강원 춘천시 퇴계동 633-2","강원 춘천시 영서로 2260","1544-7788","http://place.map.kakao.com/25413324","127.723850659304","37.8640466747977","SW8","지하철역","교통,수송 > 지하철,전철 > 경춘선"
349,"01호선","석계",37.614805,127.065851,"7946022","석계역 1호선","서울 노원구 월계동 36-4","서울 노원구 화랑로 341","02-943-7788","http://place.map.kakao.com/7946022","127.06568946412851","37.61500552731744","SW8","지하철역","교통,수송 > 지하철,전철 > 수도권1호선"
350,"경의선","서강대",37.551881,126.935711,"26352318","서강대역 경의중앙선","서울 마포구 노고산동 112-5","서울 마포구 서강로 지하 118","1544-7788","http://place.map.kakao.com/26352318","126.935507621173","37.5521384864879","SW8","지하철역","교통,수송 > 지하철,전철 > 경의중앙선"
351,"경의선","백마",37.658239,126.794461,"26352399","백마역 경의중앙선","경기 고양시 일산동구 백석동 92","경기 고양시 일산동구 경의로 318","031-901-7788","http://place.map.kakao.com/26352399","126.79461646967","37.658016621853","SW8","지하철역","교통,수송 > 지하철,전철 > 경의중앙선"
352,"경의선","야당",37.712327,126.761356,"27221936","야당역 경의중앙선","경기 파주시 야당동 1088","경기 파주시 소리천로 10","1544-7788","http://place.map.kakao.com/27221936","126.761453983315","37.712611015679","SW8","지하철역","교통,수송 > 지하철,전철 > 경의중앙선"
353,"경의선","금촌",37.766217,126.774644,"26352302","금릉역 경의중앙선","경기 파주시 금촌동 605-1","경기 파주시 금릉역로 85","031-948-4788","http://place.map.kakao.com/26352302","126.765410119425","37.7513389843704","SW8","지하철역","교통,수송 > 지하철,전철 > 경의중앙선"
354,"경춘선","금곡",37.637382,127.207853,"21160883","금곡역 경춘선","경기 남양주시 금곡동 404-276","경기 남양주시 금곡로19번길 47","031-591-7109","http://place.map.kakao.com/21160883","127.207533674718","37.6373551430559","SW8","지하철역","교통,수송 > 지하철,전철 > 경춘선"
355,"경춘선","천마산",37.658978,127.285379,"11667001","천마산역 경춘선","경기 남양주시 화도읍 묵현리 320-11","경기 남양주시 화도읍 묵현로25번길 37","031-592-7798","http://place.map.kakao.com/11667001","127.285062700362","37.6592276778117","SW8","지하철역","교통,수송 > 지하철,전철 > 경춘선"
356,"01호선","봉명",36.801215,127.135763,"11474443","봉명역 1호선","충남 천안시 동남구 봉명동 20-2","충남 천안시 동남구 차돌로 51","041-579-7432","http://place.map.kakao.com/11474443","127.1360381121","36.8014198330363","SW8","지하철역","교통,수송 > 지하철,전철 > 수도권1호선"
357,"01호선","쌍용",36.7929093,127.1179293,"21160560","쌍용역 1호선","충남 천안시 서북구 쌍용동 426-3","충남 천안시 서북구 쌍용19로 20","1544-7788","http://place.map.kakao.com/21160560","127.121378271233","36.7937257780754","SW8","지하철역","교통,수송 > 지하철,전철 > 수도권1호선"
358,"01호선","아산",36.792053,127.104361,"11282875","신창역 1호선","충남 아산시 신창면 행목리 346-49","충남 아산시 신창면 행목로 50","041-543-7788","http://place.map.kakao.com/11282875","126.951393082675","36.7696422998843","SW8","지하철역","교통,수송 > 지하철,전철 > 수도권1호선"
359,"01호선","배방",36.777629,127.052991,"17037555","배방역 1호선","충남 아산시 배방읍 구령리 148-2","충남 아산시 배방읍 온천대로 1967","041-548-7788","http://place.map.kakao.com/17037555","127.052788090648","36.7776965014173","SW8","지하철역","교통,수송 > 지하철,전철 > 수도권1호선"
360,"01호선","온양온천",36.780483,127.003249,"11474459","온양온천역 1호선","충남 아산시 온천동 56-9","충남 아산시 온천대로 1496","041-541-0865","http://place.map.kakao.com/11474459","127.003181472942","36.7805448837693","SW8","지하철역","교통,수송 > 지하철,전철 > 수도권1호선"
361,"01호선","신창",36.769502,126.951108,"11282875","신창역 1호선","충남 아산시 신창면 행목리 346-49","충남 아산시 신창면 행목로 50","041-543-7788","http://place.map.kakao.com/11282875","126.951393082675","36.7696422998843","SW8","지하철역","교통,수송 > 지하철,전철 > 수도권1호선"
362,"04호선","경마공원",37.443885,127.007888,"21160830","경마공원역 4호선","경기 과천시 과천동 654","경기 과천시 경마공원대로 지하 105","1544-7788","http://place.map.kakao.com/21160830","127.007838042533","37.4439629881231","SW8","지하철역","교통,수송 > 지하철,전철 > 수도권4호선"
363,"04호선","대공원",37.435675,127.006523,"21160559","대공원역 4호선","경기 과천시 과천동 727-1","경기 과천시 대공원대로 지하 50","02-502-5491","http://place.map.kakao.com/21160559","127.006752481821","37.4360557449009","SW8","지하철역","교통,수송 > 지하철,전철 > 수도권4호선"
364,"04호선","과천",37.433021,126.996568,"21160649","과천역 4호선","경기 과천시 별양동 2","경기 과천시 별양로 지하 177","1544-7788","http://place.map.kakao.com/21160649","126.99661712263098","37.43287530237988","SW8","지하철역","교통,수송 > 지하철,전철 > 수도권4호선"
365,"04호선","정부과천청사",37.426513,126.98978,"21160679","정부과천청사역 4호선","경기 과천시 별양동 1","경기 과천시 중앙로 지하 100","1544-7788","http://place.map.kakao.com/21160679","126.989868044926","37.4265047272927","SW8","지하철역","교통,수송 > 지하철,전철 > 수도권4호선"
366,"04호선","인덕원",37.401553,126.976715,"21160834","인덕원역 4호선","경기 안양시 동안구 관양동 1563","경기 안양시 동안구 흥안대로 지하 529","031-422-7788","http://place.map.kakao.com/21160834","126.976679855187","37.4014941709597","SW8","지하철역","교통,수송 > 지하철,전철 > 수도권4호선"
367,"04호선","평촌",37.394287,126.963883,"21160653","평촌역 4호선","경기 안양시 동안구 관양동 1608-1","경기 안양시 동안구 부림로 지하 123","1544-7788","http://place.map.kakao.com/21160653","126.9638080221341","37.39423950914369","SW8","지하철역","교통,수송 > 지하철,전철 > 수도권4호선"
368,"04호선","범계",37.389793,126.950806,"11298518","범계역 4호선","경기 안양시 동안구 호계동 1039-2","경기 안양시 동안구 동안로 지하 130","031-384-7788","http://place.map.kakao.com/11298518","126.950783269518","37.3897837540429","SW8","지하철역","교통,수송 > 지하철,전철 > 수도권4호선"
369,"경강선","삼동",37.409522,127.20336,"67027436","삼동역 경강선","경기 광주시 중대동 산 18-37","경기 광주시 순암로 451","070-7821-5640","http://place.map.kakao.com/67027436","127.20338391386589","37.40868738382225","SW8","지하철역","교통,수송 > 지하철,전철 > 경강선"
370,"경강선","경기광주",37.399907,126.630347,"140988383","경기광주역 경강선","경기 광주시 역동 176-13","경기 광주시 광주역로 10","031-761-8460","http://place.map.kakao.com/140988383","127.253282668137","37.3989438131636","SW8","지하철역","교통,수송 > 지하철,전철 > 경강선"
371,"경강선","초월",37.374419,127.299,"673470942","초월역 경강선","경기 광주시 초월읍 쌍동리 213-15","경기 광주시 초월읍 경충대로 1066","070-7821-5660","http://place.map.kakao.com/673470942","127.299905223152","37.3733791295012","SW8","지하철역","교통,수송 > 지하철,전철 > 경강선"
372,"경강선","곤지암",37.351315,127.34674,"413042675","곤지암역 경강선","경기 광주시 곤지암읍 곤지암리 353-1","경기 광주시 곤지암읍 곤지암천로 333","070-7821-5670","http://place.map.kakao.com/413042675","127.346251343712","37.3505395429634","SW8","지하철역","교통,수송 > 지하철,전철 > 경강선"
373,"경강선","신둔도예촌",37.317185,127.40476,"264206059","신둔도예촌역 경강선","경기 이천시 신둔면 남정리 362-2","경기 이천시 신둔면 남정로 55","070-7821-5680","http://place.map.kakao.com/264206059","127.40524300441095","37.3156131233126","SW8","지하철역","교통,수송 > 지하철,전철 > 경강선"
374,"경강선","이천",37.265579,127.44226,"1069882312","이천역 경강선","경기 이천시 율현동 435","경기 이천시 이섭대천로 1063","070-7821-5690","http://place.map.kakao.com/1069882312","127.44216788016918","37.264225761758865","SW8","지하철역","교통,수송 > 지하철,전철 > 경강선"
375,"경강선","부발",37.260192,127.490277,"1083874244","부발역 경강선","경기 이천시 부발읍 아미리 505-7","경기 이천시 부발읍 신아로 87","070-7821-5700","http://place.map.kakao.com/1083874244","127.490321502069","37.2603923465465","SW8","지하철역","교통,수송 > 지하철,전철 > 경강선"
376,"경강선","여주",37.282701,127.628607,"1885163962","여주역 경강선","경기 여주시 교동 403-1","경기 여주시 교동로 80","070-7821-5721","http://place.map.kakao.com/1885163962","127.628529053998","37.2828596478666","SW8","지하철역","교통,수송 > 지하철,전철 > 경강선"
377,"01호선","구로",37.503039,126.881966,"21160519","구로역 1호선","서울 구로구 구로동 585-3","서울 구로구 구로중앙로 174","02-869-0089","http://place.map.kakao.com/21160519","126.88230806229326","37.50334155631282","SW8","지하철역","교통,수송 > 지하철,전철 > 수도권1호선"
378,"01호선","가산디지털단지",37.481072,126.882343,"1342197504","가산디지털단지역 1호선","서울 금천구 가산동 468-4","서울 금천구 벚꽃로 309","02-2639-3345","http://place.map.kakao.com/1342197504","126.882614758479","37.4815311901749","SW8","지하철역","교통,수송 > 지하철,전철 > 수도권1호선"
379,"01호선","금천구청",37.455626,126.89398,"21160614","금천구청역 1호선","서울 금천구 시흥동 113-55","서울 금천구 시흥대로63길 91","02-2639-3494","http://place.map.kakao.com/21160614","126.893608614581","37.4561943743749","SW8","지하철역","교통,수송 > 지하철,전철 > 수도권1호선"
380,"01호선","관악",37.419232,126.908706,"21160529","관악역 1호선","경기 안양시 만안구 석수동 110-21","경기 안양시 만안구 경수대로1273번길 46","031-471-7788","http://place.map.kakao.com/21160529","126.90849999541258","37.41956795517324","SW8","지하철역","교통,수송 > 지하철,전철 > 수도권1호선"
381,"01호선","안양",37.401592,126.922874,"21160799","안양역 1호선","경기 안양시 만안구 안양동 88-1","경기 안양시 만안구 만안로 232","031-448-7788","http://place.map.kakao.com/21160799","126.922729807594","37.4016838636508","SW8","지하철역","교통,수송 > 지하철,전철 > 수도권1호선"
382,"01호선","명학",37.384653,126.935433,"21160615","명학역 1호선","경기 안양시 만안구 안양동 1163-1","경기 안양시 만안구 만안로 20","031-441-7788","http://place.map.kakao.com/21160615","126.935592791667","37.3844604191546","SW8","지하철역","교통,수송 > 지하철,전철 > 수도권1호선"
383,"01호선","금정",37.372221,126.943429,"21160574","금정역 1호선","경기 군포시 금정동 613","경기 군포시 군포로 750","1544-7788","http://place.map.kakao.com/21160574","126.94327003910128","37.37233746119409","SW8","지하철역","교통,수송 > 지하철,전철 > 수도권1호선"
384,"01호선","의왕",37.320852,126.948217,"21160575","의왕역 1호선","경기 의왕시 삼동 191","경기 의왕시 철도박물관로 66","031-461-7788","http://place.map.kakao.com/21160575","126.9479765012","37.3203421132836","SW8","지하철역","교통,수송 > 지하철,전철 > 수도권1호선"
385,"01호선","성균관대",37.300349,126.97075,"21160798","성균관대역 1호선","경기 수원시 장안구 율전동 495-2","경기 수원시 장안구 서부로 2149","031-293-7788","http://place.map.kakao.com/21160798","126.971022000022","37.3003290017027","SW8","지하철역","교통,수송 > 지하철,전철 > 수도권1호선"
386,"경의선","디지털미디어시티",37.576646,126.900984,"27256382","디지털미디어시티역 경의중앙선","서울 은평구 수색동 37-2","서울 은평구 수색로 193","02-305-1030","http://place.map.kakao.com/27256382","126.900690671594","37.5774034885485","SW8","지하철역","교통,수송 > 지하철,전철 > 경의중앙선"
387,"경춘선","춘천",37.885054,127.717023,"12706617","춘천역 경춘선","강원 춘천시 근화동 190","강원 춘천시 공지로 591","1544-7788","http://place.map.kakao.com/12706617","127.716698593345","37.884512737384","SW8","지하철역","교통,수송 > 지하철,전철 > 경춘선"
388,"04호선","선바위",37.451673,127.002303,"21160645","선바위역 4호선","경기 과천시 과천동 355","경기 과천시 중앙로 지하 440","02-502-1356","http://place.map.kakao.com/21160645","127.00222869400723","37.451747988798516","SW8","지하철역","교통,수송 > 지하철,전철 > 수도권4호선"
389,"01호선","석수",37.435047,126.902295,"21160797","석수역 1호선","경기 안양시 만안구 석수동 737","경기 안양시 만안구 경수대로 1431","031-472-7788","http://place.map.kakao.com/21160797","126.90232078368835","37.43509293822681","SW8","지하철역","교통,수송 > 지하철,전철 > 수도권1호선"
390,"01호선","화서",37.283862,126.989627,"21160527","화서역 1호선","경기 수원시 팔달구 화서동 464","경기 수원시 팔달구 덕영대로 692","031-242-7788","http://place.map.kakao.com/21160527","126.9896120326472","37.2840016829776","SW8","지하철역","교통,수송 > 지하철,전철 > 수도권1호선"
391,"01호선","수원",37.265974,126.999874,"21160798","성균관대역 1호선","경기 수원시 장안구 율전동 495-2","경기 수원시 장안구 서부로 2149","031-293-7788","http://place.map.kakao.com/21160798","126.971022000022","37.3003290017027","SW8","지하철역","교통,수송 > 지하철,전철 > 수도권1호선"
392,"01호선","독산",37.466613,126.889249,"21160605","독산역 1호선","서울 금천구 가산동 717","서울 금천구 벚꽃로 115","02-2639-3229","http://place.map.kakao.com/21160605","126.88947790336374","37.46597376787178","SW8","지하철역","교통,수송 > 지하철,전철 > 수도권1호선"
393,"01호선","세류",37.245025,127.013222,"21160796","세류역 1호선","경기 수원시 권선구 장지동 25-4","경기 수원시 권선구 정조로 393-1","031-238-3089","http://place.map.kakao.com/21160796","127.01379969649852","37.243872520123844","SW8","지하철역","교통,수송 > 지하철,전철 > 수도권1호선"
394,"01호선","병점",37.207503,127.032731,"7896218","병점역 1호선","경기 화성시 진안동 824-1","경기 화성시 떡전골로 97","031-234-7788","http://place.map.kakao.com/7896218","127.03320037309325","37.206752699495524","SW8","지하철역","교통,수송 > 지하철,전철 > 수도권1호선"
395,"01호선","세마",37.187533,127.04318,"21160785","세마역 1호선","경기 오산시 세교동 244-5","경기 오산시 세마역로 88","031-377-7166","http://place.map.kakao.com/21160785","127.043426817312","37.1871352848477","SW8","지하철역","교통,수송 > 지하철,전철 > 수도권1호선"
396,"01호선","오산대",37.168953,127.063197,"21160602","오산대역 1호선","경기 오산시 수청동 435-1","경기 오산시 청학로 236","031-375-9354","http://place.map.kakao.com/21160602","127.063075726398","37.1693504386917","SW8","지하철역","교통,수송 > 지하철,전철 > 수도권1호선"
397,"01호선","송탄",37.075696,127.054301,"21160562","송탄역 1호선","경기 평택시 신장동 257-5","경기 평택시 송탄공원로 43","031-666-7788","http://place.map.kakao.com/21160562","127.05428046136659","37.0757126572027","SW8","지하철역","교통,수송 > 지하철,전철 > 수도권1호선"
398,"01호선","서정리",37.056496,127.052819,"21160514","서정리역 1호선","경기 평택시 서정동 427-53","경기 평택시 탄현로 51","031-662-7788","http://place.map.kakao.com/21160514","127.052881703722","37.0565637021655","SW8","지하철역","교통,수송 > 지하철,전철 > 수도권1호선"
399,"01호선","평택",36.990726,127.085159,"21160514","서정리역 1호선","경기 평택시 서정동 427-53","경기 평택시 탄현로 51","031-662-7788","http://place.map.kakao.com/21160514","127.052881703722","37.0565637021655","SW8","지하철역","교통,수송 > 지하철,전철 > 수도권1호선"
400,"01호선","성환",36.916076,127.126964,"21160513","성환역 1호선","충남 천안시 서북구 성환읍 성환리 449-128","충남 천안시 서북구 성환읍 성환1로 237-5","041-581-7788","http://place.map.kakao.com/21160513","127.126837110236","36.9159530167598","SW8","지하철역","교통,수송 > 지하철,전철 > 수도권1호선"