id,line,name,lat,lng,google_place_id,google_place_name,google_address,google_lat,google_lng
101,"05호선","고덕",37.555004,127.154151,"ChIJZ0izX0SwfDURz5b9CJTlRB4","고덕","서울특별시 고덕동",37.555058,127.154127
102,"05호선","상일동",37.556712,127.166417,"ChIJaWTxoVOwfDUR1kO7_wqcAZI","상일동","서울특별시 상일동",37.556663,127.165937
103,"05호선","둔촌동",37.527788,127.136248,"ChIJ8QN1rvqvfDUR_bk-mWVCAX0","둔촌동","서울특별시 강동구 둔촌동 양재대로 지하 1369",37.527692,127.136247
104,"05호선","올림픽공원",37.516078,127.130848,"ChIJI1sviouvfDURsd7w2LAsIuE","올림픽공원","서울특별시 오륜동",37.515883,127.130847
105,"05호선","방이",37.508857,127.126133,"ChIJoR5cWIevfDURM_Fg0s0Q1Eg","방이","서울특별시 성북구 돈암동",37.50856600000001,127.125977
106,"05호선","오금",37.502162,127.128111,"ChIJTalUAoCvfDURgMyND784b9k","오금역(3호선/5호선)","서울특별시 송파구 오금동 44-2",37.50206319999999,127.1280374
107,"05호선","개롱",37.498079,127.13482,"ChIJewagSXivfDURPvSPM-9TWtI","개롱","서울특별시 가락2동",37.49797,127.135085
109,"05호선","마천",37.49499,127.152781,"ChIJq6r9MqevfDUR1SY8qjmYGuo","마천","서울특별시 마천1동",37.495027,127.152806
110,"06호선","응암",37.598605,126.915577,"ChIJQSRb9jWYfDUROG0dAhs0Ps8","응암","서울특별시 신사동",37.598482,126.91561
112,"06호선","불광",37.610469,126.929887,"ChIJTcStXiCYfDURi49wZ8N5qKY","불광","서울특별시 불광1동",37.610079,126.93024
113,"06호선","독바위",37.618456,126.933031,"ChIJBz_btfKXfDURAy6i71jPDyE","독바위","서울특별시 불광동",37.618397,126.933056
115,"06호선","구산",37.611377,126.91727,"ChIJbdZmlieZfDURBUo4lLwxQGk","망원역(6호선)","서울특별시 마포구 망원동 378",37.5557572,126.909907
117,"06호선","증산",37.583876,126.909645,"ChIJFW1z56qZfDURHSNsn5y93N4","증산","서울특별시 증산동",37.583942,126.909704
119,"06호선","월드컵경기장",37.569532,126.899298,"ChIJ9wKTnxeZfDURivFirgg1M-4","월드컵경기장","서울특별시 성산2동",37.569657,126.899273
120,"06호선","마포구청",37.563515,126.903343,"ChIJbdZmlieZfDURBUo4lLwxQGk","망원역(6호선)","서울특별시 마포구 망원동 378",37.5557572,126.909907
121,"06호선","망원",37.556094,126.910052,"ChIJbdZmlieZfDURBUo4lLwxQGk","망원역(6호선)","서울특별시 마포구 망원동 378",37.5557572,126.909907
122,"06호선","합정",37.549463,126.913739,"ChIJV1A_Y9aYfDUR2PkPvMQNZ_g","합정","서울특별시 마포구 합정동 391-19",37.5495753,126.9139908
123,"06호선","상수",37.547716,126.922852,"ChIJbdZmlieZfDURBUo4lLwxQGk","망원역(6호선)","서울특별시 마포구 망원동 378",37.5557572,126.909907
124,"06호선","광흥창",37.547456,126.931993,"ChIJ2YDHkseYfDURO_ow1unMfgg","광흥창","서울특별시 창전동",37.547481,126.931951
125,"06호선","대흥",37.547771,126.942069,"ChIJbdZmlieZfDURBUo4lLwxQGk","망원역(6호선)","서울특별시 마포구 망원동 378",37.5557572,126.909907
127,"06호선","효창공원앞",37.539261,126.961351,"ChIJ9WL5jQ6ifDURfMYTpPnvfq4","효창공원앞","서울특별시 용문동",37.539298,126.961356
128,"06호선","삼각지",37.534777,126.97311,"ChIJ56ukWBaifDUR3Lkk9uSKJpM","삼각지","서울특별시 한강로동",37.534547,126.972987
129,"06호선","녹사평",37.534675,126.986695,"ChIJ9ZMj3jijfDURTveHoxtOaTU","6호선신당역","흥인동 162-1번지 6호 선신당역 중구 서울특별시 KR",37.567534,127.0161118
130,"06호선","이태원",37.534488,126.994302,"ChIJHX2z-UqifDUR6L9ZIciWFzo","이태원","서울특별시 용산구 이태원1동 녹사평대로46길 16",37.534542,126.994596
131,"06호선","한강진",37.539631,127.001725,"ChIJ5QRw962jfDURDY5Vf055XFw","한강진","서울특별시 한남동",37.539838,127.001766
132,"06호선","버티고개",37.548013,127.007055,"ChIJjXR4kwejfDURe0ivBCBXsp8","버티고개","서울특별시 신당2동",37.548111,127.00714
133,"06호선","약수",37.55434,127.010655,"ChIJpX7zzQ-jfDURjtMsQxSRQgA","약수역","서울특별시 중구 신당동 247-11",37.554347,127.011001
134,"06호선","청구",37.560245,127.013828,"ChIJ9ZMj3jijfDURTveHoxtOaTU","6호선신당역","흥인동 162-1번지 6호 선신당역 중구 서울특별시 KR",37.567534,127.0161118
135,"06호선","신당",37.565972,127.01782,"ChIJ9ZMj3jijfDURTveHoxtOaTU","6호선신당역","흥인동 162-1번지 6호 선신당역 중구 서울특별시 KR",37.567534,127.0161118
136,"06호선","동묘앞",37.572627,127.016429,"ChIJpz_FrDejfDURODF56Bdmbq0","동묘앞","서울특별시 숭인동",37.573246,127.016589
137,"06호선","창신",37.579661,127.015241,"ChIJT4Dt5zSjfDURJIpeIYE7KA8","창신","서울특별시 창신3동",37.579369,127.015299
138,"06호선","보문",37.585286,127.019381,"ChIJ9ZMj3jijfDURTveHoxtOaTU","6호선신당역","흥인동 162-1번지 6호 선신당역 중구 서울특별시 KR",37.567534,127.0161118
139,"04호선","금정",37.372221,126.943429,"ChIJB_utNVtnezURsM2mFYeJxF8","금정역","군포시 금정동",37.37196369999999,126.9436458
140,"06호선","안암",37.586272,127.029005,"ChIJ9ZMj3jijfDURTveHoxtOaTU","6호선신당역","흥인동 162-1번지 6호 선신당역 중구 서울특별시 KR",37.567534,127.0161118
141,"06호선","고려대",37.590508,127.036296,"ChIJedJww6G8fDURE8MgWFfo7bE","고려대","서울특별시 성북구 종암동",37.59040299999999,127.035926
142,"06호선","월곡",37.601948,127.041518,"ChIJdRVXvn27fDURbNwUu7zRPCA","월곡","서울특별시 월곡2동",37.60199,127.041575
143,"06호선","상월곡",37.606377,127.048491,"ChIJgx7Qi4K7fDURNpfuBB4B-YU","상월곡","서울특별시 상월곡동",37.60660800000001,127.04888
144,"06호선","돌곶이",37.610537,127.056431,"ChIJp-tLi5m7fDURaUPBhdWJzgY","돌곶이","서울특별시 석관동",37.610524,127.056439
145,"06호선","석계",37.614805,127.065851,"ChIJzwwiIL-7fDURgGnuRMEqK6k","석계","서울특별시 월계3동",37.615049,127.065683
146,"06호선","태릉입구",37.617983,127.07512,"ChIJves1Zy26fDURV6-_p8OG_ag","화랑대역(6호선)","서울특별시 노원구 공릉동 284-5",37.6201696,127.0843884
147,"06호선","화랑대",37.620064,127.084689,"ChIJves1Zy26fDURV6-_p8OG_ag","화랑대역(6호선)","서울특별시 노원구 공릉동 284-5",37.6201696,127.0843884
148,"06호선","봉화산",37.617283,127.091401,"ChIJa4zw1S-6fDURkaUfLA3xvtk","봉화산(서울의료원)","서울특별시 신내동",37.617379,127.091315
149,"07호선","장암",37.700109,127.053196,"ChIJxc2plbm4fDUR38l_OPAo1Zw","장암","의정부시 장암동",37.700145,127.0531804
150,"07호선","도봉산",37.689313,127.046222,"ChIJW3EpBc64fDURDgUtyj1pBu0","도봉산","서울특별시 도봉동",37.689552,127.046063
151,"07호선","수락산",37.67785,127.055315,"ChIJxc2plbm4fDUR38l_OPAo1Zw","장암","의정부시 장암동",37.700145,127.0531804
152,"07호선","마들",37.66494,127.057675,"ChIJ7dguwDy5fDURk4t1IqTarPU","마들","서울특별시 상계9동",37.665383,127.057634
154,"07호선","중계",37.644583,127.064303,"ChIJqfit02e5fDURVLi9wP_a-TU","중계","서울특별시 중계2.3동",37.645112,127.06411
155,"07호선","하계",37.636352,127.06799,"ChIJL1etP2K5fDUR2HlK_g2yB-s","하계","서울특별시 노원구 하계2동",37.63595,127.068213
156,"07호선","공릉",37.625742,127.072896,"ChIJves1Zy26fDURV6-_p8OG_ag","화랑대역(6호선)","서울특별시 노원구 공릉동 284-5",37.6201696,127.0843884
157,"07호선","태릉입구",37.617983,127.07512,"ChIJTarT48i7fDURAsiqkaR0Pqk","태릉입구","서울특별시 노원구 지하, 동일로 992-1",37.617365,127.07486
159,"07호선","중화",37.602545,127.079264,"ChIJ2SR_ka27fDURPwWZybYvi4Y","중화","서울특별시 중화2동",37.60258,127.079303
160,"07호선","상봉",37.596362,127.085032,"ChIJYeKSnlO6fDURtWcsuOZ7AbM","상봉","서울특별시 상봉1동",37.5972353,127.0859765
166,"07호선","어린이대공원",37.548014,127.074658,"ChIJn672-dqkfDUR6WGmqtUQjHU","어린이대공원","서울특별시 군자동",37.547913,127.07461
167,"07호선","건대입구",37.540693,127.07023,"ChIJBVAHrOmkfDURiatjSxtmL6o","건대입구","서울특별시 화양동",37.540372,127.069276
168,"07호선","뚝섬유원지",37.53154,127.066704,"ChIJe1gq1POkfDURRUpRYPq3xY4","뚝섬유원지","서울특별시 광진구 자양동 능동로 10",37.531544,127.066708
170,"07호선","강남구청",37.517186,127.04128,"ChIJBQm8bHWkfDURTuYU4bV3ty0","강남구청","서울특별시 삼성동",37.517168,127.041301
172,"07호선","고속터미널",37.50481,127.004943,"ChIJKxs2jFmhfDURPP--kvKavw0","강남","서울특별시 역삼동",37.497952,127.027619
173,"07호선","남성",37.484596,126.971251,"ChIJIdFmXrGhfDURDxh-seS2itk","총신대입구(이수)","서울특별시 사당동",37.48680299999999,126.982193
175,"02호선","신대방",37.487462,126.913149,"ChIJcftijsqffDUR4RorSjnrV04","신대방","서울특별시 신림동",37.487563,126.913346
176,"02호선","신도림",37.508725,126.891295,"ChIJ2TCGlWOefDURzJAlNmT2_-s","도림천","서울특별시 신도림동",37.51447,126.88264
177,"02호선","문래",37.517933,126.89476,"ChIJdQ2qAfSefDUR358kje79Nvs","문래","서울특별시 문래동3가",37.517999,126.894825
178,"02호선","영등포구청",37.52497,126.895951,"ChIJzWphwe6efDURcZe18CejFHs","영등포구청","서울특별시 당산동",37.525469,126.896564
179,"02호선","당산",37.53438,126.902281,"ChIJqa9oc9uefDUR8XtgKT0l81Y","당산","159 우송 빌딩 4 층, 영중로 영등포구 서울특별시",37.5347978,126.90265
180,"02호선","합정",37.549463,126.913739,"ChIJV1A_Y9aYfDUR2PkPvMQNZ_g","합정","서울특별시 마포구 합정동 391-19",37.5495753,126.9139908
181,"02호선","홍대입구",37.557192,126.925381,"ChIJExW378KYfDUR8aFijbcqirQ","홍대입구","서울특별시 서교동",37.5581082,126.9259574
182,"02호선","신촌",37.555134,126.936893,"ChIJg_2jvpWYfDURsKnLkq7lw2o","신촌","인천광역시 서구 가정3동",37.5550592,126.9364998
183,"02호선","이대",37.556733,126.946013,"ChIJmyBIrJuYfDURRPMftUo6eSw","이대","서울특별시 대흥동",37.556784,126.94626
184,"02호선","아현",37.557345,126.956141,"ChIJ0XcIRniifDURgQeVzfFTdNs","아현","서울특별시 북, 양금동",37.557388,126.956132
189,"07호선","철산",37.47605,126.867911,"ChIJF_Oq4_dhezURbjMkzVGz8LY","철산","경기도 광명시 철산3동 철산로 지하 13",37.4759679,126.8677304
191,"07호선","까치울",37.506207,126.810939,"ChIJcdGWmp1iezURqU4MlLjjBf8","까치울","경기도 부천시 원미구 성곡동 길주로",37.5062327,126.8113591
192,"08호선","잠실",37.51395,127.102234,"ChIJsaECEwqlfDURVEJQ6Agz7qc","잠실","서울특별시 잠실6동",37.5132612,127.1001336
193,"09호선","종합운동장",37.510997,127.073642,"ChIJ-xB9oU-kfDURnEQ7TGx3MiE","종합운동장","서울특별시 잠실동",37.511037,127.073674
194,"09호선","석촌고분",37.5031988,127.0968027,"ChIJl4SL1ZilfDURI0g6K0GLq9c","석촌","서울특별시 송파동",37.5057138,127.1070689
195,"09호선","한성백제",37.5162985,127.1147715,"ChIJIddeSGWlfDURYq1v3gD5p4g","한성백제","서울특별시 방이동",37.516421,127.116248
196,"09호선","둔촌오륜",37.5198096,127.1316377,"ChIJjVOTB-2vfDURysJowszUlfo","둔촌오륜","서울특별시 둔촌동",37.519296,127.138675
198,"02호선","강변",37.535095,127.094681,"ChIJCwYCJD2lfDURax4Dbiv1cic","강변","서울특별시 광진구 구의동 강변역로 53",37.535098,127.094695
199,"02호선","잠실나루",37.520733,127.10379,"ChIJeZ6SVg2lfDURKyMEoDRoJ1c","잠실나루역","서울특별시 송파구 잠실4동 오금로 20",37.520669,127.103839
200,"02호선","잠실",37.51395,127.102234,"ChIJsaECEwqlfDURVEJQ6Agz7qc","잠실","서울특별시 잠실6동",37.5132612,127.1001336