id,line,name,lat,lng,google_place_id,google_place_name,google_address,google_lat,google_lng
647,"08호선","송파",37.499703,127.112183,"ChIJGxtzY5qlfDURRCD26pEGoYA","송파","서울특별시 가락1동",37.499679,127.112276
648,"08호선","가락시장",37.492522,127.118234,"ChIJBSrczHalfDUR8c1EoBVpw2U","가락시장역2-1번출구","서울특별시 송파구 가락1동 600-1",37.4926465,127.1179969
649,"08호선","문정",37.485855,127.1225,"ChIJm7atzfSlfDURcl0zMnR2oAc","문정","서울특별시 문정동",37.485978,127.122489
650,"08호선","장지",37.478703,127.126191,"ZERO_RESULTS",,,,
651,"08호선","복정",37.470047,127.126662,"ChIJg37DDlavfDURnK06b8g9AWo","복정","서울특별시 문정2동",37.471209,127.126777
652,"08호선","산성",37.457122,127.149908,"ChIJ1Ye2IMuofDURDPZLOzvFC1U","산성","성남시 신흥동",37.45663,127.15011
653,"08호선","남한산성입구",37.451535,127.159816,"ChIJq9bxWNKofDUR9tLzDxxk-UU","남한산성입구","성남시 단대동",37.451548,127.159837
654,"08호선","단대오거리",37.44521,127.156866,"ChIJu9piE8WofDURqwsFF3a6Hjo","단대오거리","경기도 성남시 수정구 신흥2동",37.445188,127.156872
655,"08호선","신흥",37.440918,127.147564,"ChIJPc-2C8CofDURMHEPzh3OhD4","신흥","성남시 신흥3동",37.440956,127.147509
656,"08호선","수진",37.437428,127.140722,"ChIJPWgJOZGofDURwVD94JI6XaA","수진","성남시 신흥1동",37.4376051,127.1409692
657,"08호선","모란",37.43213,127.129087,"ChIJVbVOkYOofDUReN5_IbP2PvY","모란","성남시 성남동",37.43395599999999,127.130258
658,"09호선","선정릉",37.51098,127.043593,"ChIJm3PyxAukfDURBNY7nKP9hPA","선정릉","서울특별시 역삼동",37.5102747,127.0438167
659,"수인분당선","오리",37.339824,127.108942,"ZERO_RESULTS",,,,
660,"인천선","간석오거리",37.467048,126.707938,"ZERO_RESULTS",,,,
661,"01호선","종로3가",37.571607,126.991806,"ChIJm4u5qeCifDURKoTCTVSt134","종로3가","서울특별시 종로3가",37.570436,126.992148
662,"01호선","종로5가",37.570926,127.001849,"ChIJLw9rPyGjfDURFT2VCDR2ZSk","종로5가","경기도 용인시 기흥구 상갈동 백남준로 13",37.57099700000001,127.001939
663,"01호선","동대문",37.57142,127.009745,"ChIJRTkaPz2jfDUReQo0-UY580U","동대문역사문화공원","서울특별시 을지로7가",37.565682,127.008953
664,"01호선","신설동",37.575297,127.025087,"ChIJr8ZwmEyjfDURn9apORDkBc4","신설동","서울특별시 동대문구 용신동",37.575989,127.024381
665,"01호선","제기동",37.578103,127.034893,"ChIJW5VMVKm8fDUREtqg6KGr__o","제기동","서울특별시 동대문구 용두동",37.5781758,127.0345907
666,"01호선","청량리",37.580178,127.046835,"ChIJM2j8Blu7fDUR_dkwN-T660Y","청량리","서울특별시 전농1동",37.580229,127.0481242
667,"01호선","동묘앞",37.572627,127.016429,"ChIJpz_FrDejfDURODF56Bdmbq0","동묘앞","서울특별시 숭인동",37.573246,127.016589
668,"경의선","대곡",37.631626,126.811024,"ZERO_RESULTS",,,,
669,"03호선","충무로",37.561243,126.99428,"ChIJF0OnPOOifDUR58l2u5fFViM","충무로","서울특별시 필동",37.560997,126.994728
670,"수인분당선","죽전",37.324753,127.107395,"ChIJp1IwMh5aezURD160uaEPXCM","죽전","경기도 용인시 수지구 죽전동 포은대로 536",37.324583,127.107398
671,"신분당선","청계산입구",37.447211,127.055664,"ChIJ67tgmSSnfDURicUICcjmtfE","청계산입구","서울특별시 내곡동",37.448265,127.054697
672,"우이신설경전철","신설동",37.575297,127.025087,"ChIJr8ZwmEyjfDURn9apORDkBc4","신설동","서울특별시 동대문구 용신동",37.575989,127.024381
673,"서해선","소사",37.482753,126.79544,"ChIJByy9A9tiezUR30qYDEII6vk","소사","부천시 소사동",37.48277,126.795737
674,"서해선","소새울",37.4680597,126.7953899,"ChIJ68x_ZSRjezURjgaSaxJIAO8","소새울","부천시 소사본3동",37.46848,126.797291
675,"서해선","시흥대야",37.4497007,126.7911453,"ChIJqRmjY0VjezURWw-cICRftns","시흥대야","시흥시 대야동",37.450194,126.792977
676,"서해선","신천",37.4497217,126.7845792,"ChIJiVrw0atkezURa--Swqs7xa8","신천","시흥시 신천동",37.439035,126.786751
677,"서해선","신현",37.4090117,126.7860713,"ChIJkRSHW9FkezURb8dm-EUJtK8","신현","시흥시 신현동",37.40968,126.787828
678,"서해선","시흥시청",37.3812127,126.8042048,"ChIJy-4RqhVlezURIVHpyD4F0bY","시흥시청","시흥시 연성동",37.38148,126.805921
679,"서해선","시흥능곡",37.3699062,126.8095783,"ChIJR-9_tWhlezURq3ECa3_mcbM","시흥능곡","시흥시 능곡동",37.370157,126.808734
680,"서해선","달미",37.3494482,126.8065383,"ChIJ0_wqjZFvezURrsVMv0S2FNk","달미","안산시 선부동",37.348898,126.809404
681,"서해선","선부",37.3344112,126.8078143,"ChIJyeDrxrtvezURYbBGPFMZ9LU","선부","안산시 선부동",37.334407,126.810003
682,"서해선","초지",37.320646,126.805913,"ChIJbyDIUkpuezUR3t3tis576cg","초지역","안산시 초지동",37.32054040000001,126.8062369
683,"서해선","원곡",37.3131572,126.7935293,"ChIJl-slfzxuezURoq_y6jbtIqY","시우","안산시 원시동",37.313153,126.795718
684,"서해선","원시",37.3021882,126.7843008,"ChIJsywurRxuezURSPvCQpVyDdc","원시역","안산시 원시동",37.302573,126.786787
685,"김포도시철도","양촌",37.6420537,126.6123451,"ChIJSa8ZCKaAfDURf2CwcBPx19s","양촌","김포시 양촌읍",37.641717,126.614758
686,"김포도시철도","구래",37.643941,126.6267471,"ChIJPbUmH7WAfDURsPvNObN9h6s","구래","김포시 구래동",37.645397,126.628708
687,"김포도시철도","마산",37.6405342,126.6413464,"ChIJw-h-1dKAfDUR8ePJ2UXspO4","마산","김포시 마산동",37.640814,126.644507
688,"김포도시철도","장기",37.6433848,126.6683859,"ChIJ16G9g8aGfDURiZx7YMQKAXo","장기","김포시 장기동",37.64417,126.66911
689,"김포도시철도","운양",37.6538552,126.6816543,"ChIJK3BCF5CGfDURjwij3XZdqMA","운양","김포시 운양동",37.653851,126.683843
690,"김포도시철도","걸포북변",37.6316512,126.7035993,"ChIJ-__AEhqEfDURuO-OvnAUBEM","걸포북변","김포시 김포1동",37.63165000000001,126.705732
691,"김포도시철도","사우",37.6203182,126.7176193,"ChIJfUKUBnOEfDURLlpfkEIOSE0","사우(김포시청)","김포시 사우동",37.620314,126.719808
692,"김포도시철도","풍무",37.6120792,126.7305823,"ChIJYwHZO3mEfDURhVq5LSmrYL0","풍무","김포시 사우동",37.612294,126.732693
693,"김포도시철도","고촌",37.6009367,126.7685188,"ChIJ928f7aWEfDURlOlk5hAHcw0","고촌","김포시 고촌읍",37.601399,126.770214
694,"김포도시철도","김포공항",37.562434,126.801058,"ChIJKTEjo8GcfDURL1AbYZGDDmE","김포공항","서울특별시 방화2동",37.562402,126.801289
695,"02호선","서초",37.491897,127.007917,"ChIJRa9NXm2hfDURE5VAacS2DqY","서초","서울특별시 서초동",37.491848,127.007704
696,"경강선","이매",37.396104,127.12827,"ChIJL1WZ2QCofDURYxudO1ax5HU","이매","성남시 이매동",37.395853,127.128286
697,"01호선","소요산",37.9481,127.061034,"ChIJVUpmxUHZfDURsh22lz6ESfM","소요산","동두천시 상봉암동",37.948747,127.061049
698,"인천2호선","남동구청",37.448161,126.736939,"ChIJA52Pm_h7ezURlfhnoBUcrJ8","동암","인천광역시 남동구 만수6동 남동구 청역",37.470882,126.702898
699,"02호선","왕십리",37.561533,127.037732,"ChIJaWenQVijfDURn0RpYmEzwks","왕십리","서울특별시 행당동",37.561949,127.038485
700,"경강선","판교",37.394761,127.111217,"ChIJPylOEwlYezUROOYJvffQr4g","판교역","경기도 성남시 분당구 삼평동 판교역로 160",37.394776,127.11116
701,"수인선","신포",37.46874,126.623853,"ChIJY620vo54ezURhO4OYplNuyU","신포","인천광역시 신포동",37.468455,126.624525
702,"06호선","신내",37.612887,127.103218,"ChIJQbQaSz26fDURkrP-mdbmlBY","신 내역","서울특별시 망우본동",37.6126681,127.1032127
703,"02호선","상왕십리",37.564354,127.029354,"ChIJkSReLkWjfDUR0ezSzuKYkA8","상왕십리","서울특별시 하왕십리동",37.564321,127.029463
704,"용인경전철","삼가",37.242115,127.168075,"ChIJf5pJTzNQezURjpkR0litVoQ","삼가","용인시 역삼동",37.242143,127.168106
705,"경의선","한남",37.52943,127.009169,"ZERO_RESULTS",,,,
706,"01호선","지제",37.0188,127.070444,"ChIJt4TVh7k7ezURKY-1N4ea710","지제","평택시 세교동",37.018858,127.070476
707,"용인경전철","전대·에버랜드",37.285342,127.219561,"ZERO_RESULTS",,,,
708,"02호선","대림",37.49297,126.895801,"ChIJSXbEMj-efDUROuHoRvMqTCg","대림","서울특별시 대림2동",37.4932246,126.8973155
709,"인천2호선","아시아드경기장",37.5517,126.677122,"ChIJb1Cn2R5-ezURGW0CYgPV5tc","아시아드경기장(공촌사거리)","인천광역시 연희동",37.551304,126.677103
710,"02호선","신설동",37.575297,127.025087,"ChIJr8ZwmEyjfDURn9apORDkBc4","신설동","서울특별시 동대문구 용신동",37.575989,127.024381
711,"02호선","도림천",37.514287,126.882768,"ChIJ2TCGlWOefDURzJAlNmT2_-s","도림천","서울특별시 신도림동",37.51447,126.88264
712,"02호선","양천구청",37.512398,126.865819,"ChIJ76iV_tidfDURypjE4pG0FXc","양천구청","서울특별시 신정동",37.51238499999999,126.865668
713,"02호선","용두",37.574028,127.038091,"ChIJ07HSjKq8fDURF4GlAf7xOUc","용두","서울특별시 용두동",37.573964,127.038547
714,"경춘선","중랑",37.594917,127.076116,"ChIJd7_LYAe7fDUR5movXirsxf4","중랑","서울특별시 중랑구 중화2동",37.594904,127.075833
715,"수인분당선","기흥",37.275619,127.115936,"ZERO_RESULTS",,,,
716,"인천2호선","검단오류",37.594877,126.627178,"ZERO_RESULTS",,,,
717,"경의선","용산",37.529849,126.964561,"ChIJDxUjqASifDURYoe1LjkFbE0","용산","서울특별시 용산구 한강로3가 한강대로23길",37.5298837,126.9648019
718,"수인분당선","수원",37.265974,126.999874,"ZERO_RESULTS",,,,
719,"03호선","화정",37.634592,126.83265,"ChIJ0f3uTmSafDURdjc9djW8sHc","화정","고양시 화정2동",37.634643,126.832633
720,"09호선","언주",37.507287,127.033868,"ChIJCc5IMPqjfDUR6IDdnC0JGQo","언주","서울특별시 역삼1동",37.507323,127.033903
721,"용인경전철","기흥",37.275619,127.115936,"ZERO_RESULTS",,,,
722,"01호선","서울",37.554648,126.972559,"ChIJA3CU42aifDURaq-3csGXvuc","서울역","서울특별시 중구 소공동 세종대로18길 2",37.555946,126.972317
723,"01호선","시청",37.564718,126.977108,"ChIJGZGr6_KifDURCV2mRG9hAZ4","시청","서울특별시 중구 지하 101",37.5657037,126.9768616
724,"01호선","종각",37.570161,126.982923,"ChIJH5QaI-mifDURothhidjpo8g","종각","서울특별시 종로1가",37.570176,126.983197
725,"우이신설경전철","화계",37.634802,127.017519,"ChIJF9c7FEC8fDURKxXZ_GJ9UuY","화계","서울특별시 수유1동",37.634118,127.017512
726,"우이신설경전철","삼양",37.627165,127.018152,"ChIJZRcgmUK8fDURcxEMB67qARo","삼양","서울특별시 미아동",37.626922,127.018164
727,"경의선","회기",37.58946,127.057583,"ChIJCxR7T2y7fDURYRnVdmREfHc","회기","서울특별시 휘경1동",37.589686,127.0578