id,line,name,lat,lng,google_place_id,google_place_name,google_address,google_lat,google_lng
1,"02호선","용답",37.561904,127.050899,"ChIJCXwU4rGkfDURSBRdYdaAZMQ","용답","서울특별시 사근동",37.562178,127.050853
2,"02호선","신답",37.57004,127.046481,"ChIJQ5I7ZlO7fDURMqj886uZYg0","신답역","서울특별시 용답동",37.5698,127.047095
3,"02호선","신정네거리",37.520074,126.852912,"ChIJdx__RM-dfDURa67HJU8IVy0","신정네거리","서울특별시 신정3동",37.52023399999999,126.852868
4,"03호선","지축",37.648048,126.913951,"ChIJryLtp6mXfDUR_mblanFNFUw","지축","고양시 지축동",37.648124,126.913765
5,"03호선","구파발",37.636763,126.918821,"ChIJpcF3rKOXfDUR14iQQyFJkZo","구파발","서울특별시 진관동",37.63659000000001,126.918852
6,"03호선","연신내",37.619001,126.921008,"ChIJz7pfD4aXfDURW30AD80-GcY","연신내","서울특별시 은평구 구산동 은평 중학교",37.6193201,126.9212136
7,"03호선","불광",37.610469,126.929887,"ChIJTcStXiCYfDURi49wZ8N5qKY","불광","서울특별시 불광1동",37.610079,126.93024
8,"03호선","녹번",37.600927,126.935756,"ChIJIWglzhmYfDUR22eupx3B5f4","녹번","서울특별시 녹번동",37.600879,126.935779
9,"03호선","홍제",37.589066,126.943736,"ChIJLTHHRA2YfDUROqRrG6Mk-x4","홍제","서울특별시 서대문구 홍제3동 통일로 440-1",37.58880200000001,126.944112
10,"03호선","무악재",37.582299,126.950291,"ChIJnY7-QXSYfDUR3uAOC34KhEc","무악재역","서울특별시 서대문구 홍제2동 모래내로 411",37.5824455,126.9501447
11,"03호선","독립문",37.574571,126.957748,"ChIJQcFexpyifDURSTV7gurznMo","독립문","서울특별시 무악동",37.574463,126.957936
12,"03호선","경복궁",37.575762,126.97353,"ChIJieciEpWifDURJ8C1gbw1VvI","경복궁","서울특별시 사직동",37.575879,126.973567
13,"03호선","안국",37.576477,126.985443,"ChIJKY_9RsOifDUROKWSGd77QR4","안국","서울특별시 가회동",37.576565,126.98549
14,"03호선","종로3가",37.571607,126.991806,"ChIJm4u5qeCifDURKoTCTVSt134","종로3가","서울특별시 종로3가",37.570436,126.992148
15,"03호선","을지로3가",37.566295,126.99191,"ChIJAWNsHeSifDUREcuaWDQ1dv8","을지로3가","서울특별시 을지로3가",37.566288,126.991051
16,"03호선","동대입구",37.559052,127.005602,"ChIJH5RXqhujfDURzfo0ofNV-sQ","동대입구","서울특별시 장충동",37.55907699999999,127.005307
17,"03호선","금호",37.548034,127.015872,"ChIJl2IwfgyjfDURSS6knnDclqE","금호","서울특별시 금호4가동",37.548268,127.015806
18,"03호선","옥수",37.540685,127.017965,"ChIJC3gHh5-jfDUR-DSzm-cKyeY","옥수","신현대아파트, 116 압구정동 서울특별시",37.54042,127.01854
19,"03호선","압구정",37.527072,127.028461,"ChIJkfgp6JGjfDUR4P285_vxNVM","Apgujeong","서울특별시 신사동",37.52633,127.028513
20,"03호선","신사",37.516334,127.020114,"ChIJiQ4KsumjfDUR1fzxGVNCK70","신사","서울특별시 신사동",37.51621919999999,127.0195753
21,"03호선","잠원",37.512759,127.01122,"ChIJv1sh3NujfDURZ-6U4Jtkgjk","잠원","서울특별시 잠원동",37.512968,127.011628
22,"03호선","고속터미널",37.50481,127.004943,"ZERO_RESULTS",,,,
23,"03호선","교대",37.493415,127.01408,"ChIJjQarRGmhfDURFMWCM7HnwhE","교대","서울특별시 서초4동",37.493902,127.014395
24,"03호선","남부터미널",37.485013,127.016189,"ChIJIS38rRWhfDUR12X8R1NgYNg","남부터미널","서울특별시 서초동",37.484918,127.01629
25,"03호선","양재",37.484147,127.034631,"ChIJ6cFpb0mhfDURQzRecg-fdx8","양재","서울특별시 강남구 도곡1동 945-20",37.484557,127.034022
26,"03호선","매봉",37.486947,127.046769,"ChIJBeJ0P66mfDURzpEITfl3dgM","매봉","서울특별시 도곡1동",37.487038,127.046921
27,"03호선","도곡",37.490858,127.055381,"ChIJs14TTaemfDURtIzTFjCxo20","도곡","서울특별시 도곡2동",37.490892,127.055349
28,"03호선","대치",37.494612,127.063642,"ChIJqYATOiKkfDUR7s8MWfYvghE","대치","서울특별시 대치동",37.494577,127.063462
29,"03호선","학여울",37.496663,127.070594,"ChIJmb_9wzqkfDURMhyCdJvfdMo","학여울","서울특별시 대치2동",37.496701,127.070561
30,"03호선","대청",37.493514,127.079532,"ChIJcy0VaDKkfDURlya_g-yUmL4","대청","서울특별시 일원2동",37.493608,127.079542
31,"03호선","일원",37.483681,127.08439,"ChIJcy0VaDKkfDURlya_g-yUmL4","대청","서울특별시 일원2동",37.493608,127.079542
32,"03호선","수서",37.487371,127.10188,"ChIJB_ROScKlfDURX226uxkA7CM","수서","서울특별시 수서동",37.487477,127.102153
33,"03호선","가락시장",37.492522,127.118234,"ChIJKUFZ0Y2lfDURQpk9TWj-tfU","가락시장","서울특별시 가락1동",37.49222,127.117692
34,"03호선","경찰병원",37.495918,127.12454,"ChIJA5TJwIelfDURZ-p0r1ClNCg","경찰병원","서울특별시 가락동",37.495701,127.124206
35,"03호선","오금",37.502162,127.128111,"ChIJTalUAoCvfDURgMyND784b9k","오금역(3호선/5호선)","서울특별시 송파구 오금동 44-2",37.50206319999999,127.1280374
36,"04호선","당고개",37.670272,127.079066,"ChIJG_pA9f64fDURWASqu8KIHdY","당고개","서울특별시 상계동",37.670341,127.079128
37,"04호선","상계",37.660878,127.073572,"ChIJReik9g-5fDURdqxDcQnoN0Q","상계","서울특별시 중계4동",37.660707,127.073341
38,"04호선","노원",37.655128,127.061368,"ChIJbcUROkC5fDURdJLOCtm5Hew","노원","서울특별시 상계2동",37.6563645,127.0633647
39,"04호선","창동",37.653166,127.047731,"ChIJmWqVUE65fDURxsYnHd9VFjE","창동민자역사 아레나 x 스퀘어","서울특별시 창동 135번지",37.65276,127.047945
40,"04호선","쌍문",37.648627,127.034709,"ChIJAbyfIKq-fDUR58xJIqRmVTU","쌍문","서울특별시 창동",37.64861,127.034689
41,"04호선","수유",37.638052,127.025732,"ChIJAaM5axG8fDURZ4X3lBSSN1Q","수유(강북구청)","서울특별시 수유동",37.637828,127.025473
42,"04호선","미아",37.62667,127.025983,"ChIJj7I2jG68fDURiAH2cZyMSyU","미아","서울특별시 미아동",37.62645300000001,127.026119
43,"04호선","미아사거리",37.613292,127.030053,"ChIJSetoOH28fDURRxoX1UU24Fs","미아사거리","서울특별시 미아동",37.613259,127.030102
44,"04호선","길음",37.603407,127.025053,"ChIJIUQ2kZG8fDURBqRYEuRtVQI","길음","서울특별시 길음동",37.603245,127.024959
45,"04호선","성신여대입구",37.592624,127.016403,"ZERO_RESULTS",,,,
46,"04호선","한성대입구",37.588458,127.006221,"ChIJDy4BMNK8fDUROI9qQejWP3A","한성대입구역(4호선)","서울특별시 성북구 삼선동1가 14",37.5880209,127.0057966
47,"04호선","혜화",37.582336,127.001844,"ChIJe-UOjSujfDURny7gQjGg5ZA","혜화","서울특별시 종로구 이화동 대학로 120",37.58217,127.001893
48,"04호선","동대문",37.57142,127.009745,"ChIJRTkaPz2jfDUReQo0-UY580U","동대문역사문화공원","서울특별시 을지로7가",37.565682,127.008953
49,"04호선","동대문역사문화공원",37.565138,127.007896,"ChIJRTkaPz2jfDUReQo0-UY580U","동대문역사문화공원","서울특별시 을지로7가",37.565682,127.008953
50,"04호선","충무로",37.561243,126.99428,"ChIJF0OnPOOifDUR58l2u5fFViM","충무로","서울특별시 필동",37.560997,126.994728
51,"04호선","명동",37.560989,126.986325,"ChIJXXSl0R-jfDURmGHL_MxrrGE","을지로4가","서울특별시 중구 을지로동 178",37.566621,126.997733
52,"04호선","회현",37.558514,126.978246,"ChIJA3CU42aifDURaq-3csGXvuc","서울역","서울특별시 중구 소공동 세종대로18길 2",37.555946,126.972317
53,"04호선","서울",37.554648,126.972559,"ChIJA3CU42aifDURaq-3csGXvuc","서울역","서울특별시 중구 소공동 세종대로18길 2",37.555946,126.972317
54,"04호선","숙대입구",37.54456,126.972106,"ChIJl91RxmuifDUR6fD8b-877_c","숙대입구","서울특별시 남영동",37.544592,126.972114
55,"04호선","삼각지",37.534777,126.97311,"ChIJ56ukWBaifDUR3Lkk9uSKJpM","삼각지","서울특별시 한강로동",37.534547,126.972987
56,"04호선","신용산",37.52917,126.967894,"ChIJOcZZmxuifDUR8MRV-iEYYNs","신용산","서울특별시 한강로동",37.529196,126.967903
57,"04호선","동작",37.502971,126.979306,"ZERO_RESULTS",,,,
58,"04호선","총신대입구",37.486263,126.981989,"ChIJIdFmXrGhfDURDxh-seS2itk","총신대입구(이수)","서울특별시 사당동",37.48680299999999,126.982193
59,"04호선","남태령",37.463873,126.989134,"ChIJe5foX1ygfDURq5N8yNJ9wCY","남태령","서울특별시 방배2동",37.464246,126.989113
60,"05호선","방화",37.577446,126.812741,"ChIJXVDI4JycfDURUeNPm12R5GQ","방화","서울특별시 방화동",37.577605,126.812818
61,"05호선","개화산",37.572399,126.806171,"ChIJWzygopecfDURKWwQVSgcwVg","개화산","서울특별시 방화동",37.572454,126.806827
62,"05호선","김포공항",37.562434,126.801058,"ChIJKTEjo8GcfDURL1AbYZGDDmE","김포공항","서울특별시 방화2동",37.562402,126.801289
63,"05호선","송정",37.561184,126.811973,"ChIJ1br8Ou2cfDURL63vzGgu2YQ","송정","서울특별시 공항동",37.5612,126.812133
64,"05호선","마곡",37.560183,126.825448,"ChIJ9zsZeoqcfDURYdYdJ1l6Jz4","마곡","서울특별시 강서구 가양1동 공항대로 지하163",37.56025,126.824664
65,"05호선","발산",37.558598,126.837668,"ChIJubAVa2-cfDURsQ1UQGoEFrk","발산","서울특별시 발산1동",37.558545,126.837799
66,"05호선","우장산",37.548768,126.836318,"ChIJxVfSUEOcfDUR4qW2PiM4UwY","우장산","서울특별시 내발산동",37.548794,126.836351
67,"05호선","화곡",37.541513,126.840461,"ChIJK3YORk-cfDUR1z9HSeURsMw","화곡역","서울특별시 화곡동",37.541336,126.840673
68,"05호선","까치산",37.531768,126.846683,"ChIJ9ziyUDWcfDURt7vTLqeyMZM","까치산","서울특별시 화곡동",37.531431,126.846921
69,"05호선","신정",37.524997,126.856191,"ChIJJ4_Zns2dfDUR6XUmNMhuGK4","신정역","서울특별시 신정동",37.524987,126.856181
70,"05호선","목동",37.526065,126.864931,"ChIJsSjAAiucfDURenedZbnwXt4","목동","서울특별시 신정동",37.526097,126.864538
71,"05호선","오목교",37.524496,126.875181,"ChIJlXboloaefDURDO_WYdcrTTk","오목교","서울특별시 목1동",37.524547,126.875128
72,"05호선","양평",37.525648,126.885778,"ChIJtUhNj42efDURx_hkJWH5mlQ","양평","서울특별시 양평동",37.525616,126.886207
73,"05호선","영등포구청",37.52497,126.895951,"ChIJzWphwe6efDURcZe18CejFHs","영등포구청","서울특별시 당산동",37.525469,126.896564
74,"05호선","영등포시장",37.522669,126.905139,"ChIJG8mNDeSefDURAGwODK1gh1U","영등포시장역","서울특별시 영등포동",37.522735,126.905056
75,"05호선","여의도",37.521624,126.924191,"ChIJI0pyfD2ffDURS7Skr0U-e_M","여의도","서울특별시 여의도동",37.521625,126.924079
76,"05호선","여의나루",37.527098,126.932901,"ChIJoYcv-UeffDUROP7tCBRlilc","여의나루","서울특별시 여의동",37.52715,126.932827
77,"05호선","마포",37.539574,126.945932,"ChIJLeupoK-YfDURqmTF1KTCZuU","마포","서울특별시 마포구 도화동",37.539705,126.94604
78,"05호선","공덕",37.544018,126.951592,"ZERO_RESULTS",,,,
79,"05호선","애오개",37.553736,126.95682,"ChIJgU1uqneifDURQ1c_zwn1sog","애오개","서울특별시 공덕동",37.553599,126.956756
80,"05호선","충정로",37.559973,126.963672,"ChIJ8W1Q1nyifDURpQYScN_AzDs","충정로","서울특별시 충정로3가",37.559692,126.964332
81,"05호선","서대문",37.565773,126.966641,"ChIJNx9FzIiifDURIz4l-NPU4jw","서대문","서울특별시 충현동",37.565863,126.966642
82,"05호선","광화문",37.571026,126.976669,"ChIJ1ft_p-yifDURd9CrxasMUEc","광화문","서울특별시 종로구 종로1.2.3.4가동",37.571665,126.976502
83,"05호선","종로3가",37.571607,126.991806,"ChIJm4u5qeCifDURKoTCTVSt134","종로3가","서울특별시 종로3가",37.570436,126.992148
84,"05호선","을지로4가",37.566941,126.998079,"ChIJXXSl0R-jfDURmGHL_MxrrGE","을지로4가","서울특별시 중구 을지로동 178",37.566621,126.997733
85,"05호선","동대문역사문화공원",37.565138,127.007896,"ChIJRTkaPz2jfDUReQo0-UY580U","동대문역사문화공원","서울특별시 을지로7가",37.565682,127.008953
86,"05호선","청구",37.560245,127.013828,"ChIJz5-eMhSjfDUR59t0kbm1jnQ","청구","서울특별시 신당1동",37.56021399999999,127.013892
87,"05호선","신금호",37.554548,127.020331,"ZERO_RESULTS",,,,
88,"05호선","행당",37.557322,127.029476,"ChIJafD3UV2jfDUR3hE62tn4SRE","행당","서울특별시 행당2동",37.55741,127.029654
89,"05호선","왕십리",37.561533,127.037732,"ChIJaWenQVijfDURn0RpYmEzwks","왕십리","서울특별시 행당동",37.561949,127.038485
90,"05호선","마장",37.5661,127.042973,"ChIJGYSK06ukfDURoPRfktvzp90","마장","서울특별시 성동구 마장동 761-11",37.566136,127.042982
91,"05호선","답십리",37.566747,127.052704,"ChIJ-0q5NE27fDURWd3kvntKgT4","답십리","서울특별시 답십리1동",37.567091,127.052362
92,"05호선","장한평",37.56144,127.064623,"ChIJNVgZ58qkfDURI-0Ss5FptHk","장한평","서울특별시 장안1동",37.5616837,127.0652943
93,"05호선","군자",37.557121,127.079542,"ZERO_RESULTS",,,,
94,"05호선","아차산",37.551691,127.089761,"ChIJgdawlCylfDURA_71veEmG18","아차산","서울특별시 구의동",37.552031,127.089609
95,"05호선","광나루",37.545303,127.10357,"ChIJqRRbkDWlfDUR6TKhvwEe1As","광나루","서울특별시 광장동",37.545339,127.103623
96,"05호선","천호",37.538397,127.123572,"ChIJBcOeqVWlfDURL6r77rD0Kg8","천호","서울특별시 성내2동",37.538486,127.123905
97,"05호선","강동",37.535804,127.132481,"ChIJv6nPzv2vfDURcRJ5KktD24M","강동","서울특별시 천호동",37.535911,127.132307
98,"05호선","길동",37.537801,127.140004,"ChIJTaPOTxywfDURe8h8UwkrBKo","길동사거리.강동세무서","서울특별시 강남구 대치동 316",37.537776,127.140009
99,"05호선","굽은다리",37.545477,127.142853,"ChIJr9i32BawfDURw1UufZhNywo","굽은다리","서울특별시 명일동",37.545546,127.142923
100,"05호선","명일",37.55137,127.143999,"ChIJ7afG2hSwfDURjLFcKtOcdM0","명일","서울특별시 명일동",37.551345,127.144028
101,"05호선","고덕",37.555004,127.154151,"ChIJZ0izX0SwfDURz5b9CJTlRB4","고덕","서울특별시 고덕동",37.555058,127.154127
102,"05호선","상일동",37.556712,127.166417,"ChIJaWTxoVOwfDUR1kO7_wqcAZI","상일동","서울특별시 상일동",37.556663,127.165937
103,"05호선","둔촌동",37.527788,127.136248,"ChIJ8QN1rvqvfDUR_bk-mWVCAX0","둔촌동","서울특별시 강동구 둔촌동 양재대로 지하 1369",37.527692,127.136247
104,"05호선","올림픽공원",37.516078,127.130848,"ChIJI1sviouvfDURsd7w2LAsIuE","올림픽공원","서울특별시 오륜동",37.515883,127.130847
105,"05호선","방이",37.508857,127.126133,"ChIJoR5cWIevfDURM_Fg0s0Q1Eg","방이","서울특별시 성북구 돈암동",37.50856600000001,127.125977
106,"05호선","오금",37.502162,127.128111,"ChIJTalUAoCvfDURgMyND784b9k","오금역(3호선/5호선)","서울특별시 송파구 오금동 44-2",37.50206319999999,127.1280374
107,"05호선","개롱",37.498079,127.13482,"ChIJewagSXivfDURPvSPM-9TWtI","개롱","서울특별시 가락2동",37.49797,127.135085
108,"05호선","거여",37.493105,127.14415,"ZERO_RESULTS",,,,
109,"05호선","마천",37.49499,127.152781,"ChIJq6r9MqevfDUR1SY8qjmYGuo","마천","서울특별시 마천1동",37.495027,127.152806
110,"06호선","응암",37.598605,126.915577,"ChIJQSRb9jWYfDUROG0dAhs0Ps8","응암","서울특별시 신사동",37.598482,126.91561
111,"06호선","역촌",37.606021,126.922744,"ZERO_RESULTS",,,,
112,"06호선","불광",37.610469,126.929887,"ChIJTcStXiCYfDURi49wZ8N5qKY","불광","서울특별시 불광1동",37.610079,126.93024
113,"06호선","독바위",37.618456,126.933031,"ChIJBz_btfKXfDURAy6i71jPDyE","독바위","서울특별시 불광동",37.618397,126.933056
114,"06호선","연신내",37.619001,126.921008,"ZERO_RESULTS",,,,
115,"06호선","구산",37.611377,126.91727,"ChIJbdZmlieZfDURBUo4lLwxQGk","망원역(6호선)","서울특별시 마포구 망원동 378",37.5557572,126.909907
116,"06호선","새절",37.591148,126.913629,"ZERO_RESULTS",,,,
117,"06호선","증산",37.583876,126.909645,"ChIJFW1z56qZfDURHSNsn5y93N4","증산","서울특별시 증산동",37.583942,126.909704
118,"06호선","디지털미디어시티",37.576646,126.900984,"ChIJX-YLTAWZfDURvcJAkKtyW1I","디지털미디어시티","서울특별시 상암동",37.576422,126.901217
119,"06호선","월드컵경기장",37.569532,126.899298,"ChIJ9wKTnxeZfDURivFirgg1M-4","월드컵경기장","서울특별시 성산2동",37.569657,126.899273
120,"06호선","마포구청",37.563515,126.903343,"ChIJbdZmlieZfDURBUo4lLwxQGk","망원역(6호선)","서울특별시 마포구 망원동 378",37.5557572,126.909907
121,"06호선","망원",37.556094,126.910052,"ChIJbdZmlieZfDURBUo4lLwxQGk","망원역(6호선)","서울특별시 마포구 망원동 378",37.5557572,126.909907
122,"06호선","합정",37.549463,126.913739,"ChIJV1A_Y9aYfDUR2PkPvMQNZ_g","합정","서울특별시 마포구 합정동 391-19",37.5495753,126.9139908
123,"06호선","상수",37.547716,126.922852,"ChIJbdZmlieZfDURBUo4lLwxQGk","망원역(6호선)","서울특별시 마포구 망원동 378",37.5557572,126.909907
124,"06호선","광흥창",37.547456,126.931993,"ChIJ2YDHkseYfDURO_ow1unMfgg","광흥창","서울특별시 창전동",37.547481,126.931951
125,"06호선","대흥",37.547771,126.942069,"ChIJbdZmlieZfDURBUo4lLwxQGk","망원역(6호선)","서울특별시 마포구 망원동 378",37.5557572,126.909907
126,"06호선","공덕",37.544018,126.951592,"ChIJbdZmlieZfDURBUo4lLwxQGk","망원역(6호선)","서울특별시 마포구 망원동 378",37.5557572,126.909907
127,"06호선","효창공원앞",37.539261,126.961351,"ChIJ9WL5jQ6ifDURfMYTpPnvfq4","효창공원앞","서울특별시 용문동",37.539298,126.961356
128,"06호선","삼각지",37.534777,126.97311,"ChIJ56ukWBaifDUR3Lkk9uSKJpM","삼각지","서울특별시 한강로동",37.534547,126.972987
129,"06호선","녹사평",37.534675,126.986695,"ChIJ9ZMj3jijfDURTveHoxtOaTU","6호선신당역","흥인동 162-1번지 6호 선신당역 중구 서울특별시 KR",37.567534,127.0161118
130,"06호선","이태원",37.534488,126.994302,"ChIJHX2z-UqifDUR6L9ZIciWFzo","이태원","서울특별시 용산구 이태원1동 녹사평대로46길 16",37.534542,126.994596
131,"06호선","한강진",37.539631,127.001725,"ChIJ5QRw962jfDURDY5Vf055XFw","한강진","서울특별시 한남동",37.539838,127.001766
132,"06호선","버티고개",37.548013,127.007055,"ChIJjXR4kwejfDURe0ivBCBXsp8","버티고개","서울특별시 신당2동",37.548111,127.00714
133,"06호선","약수",37.55434,127.010655,"ChIJpX7zzQ-jfDURjtMsQxSRQgA","약수역","서울특별시 중구 신당동 247-11",37.554347,127.011001
134,"06호선","청구",37.560245,127.013828,"ZERO_RESULTS",,,,
135,"06호선","신당",37.565972,127.01782,"ChIJ9ZMj3jijfDURTveHoxtOaTU","6호선신당역","흥인동 162-1번지 6호 선신당역 중구 서울특별시 KR",37.567534,127.0161118
136,"06호선","동묘앞",37.572627,127.016429,"ChIJpz_FrDejfDURODF56Bdmbq0","동묘앞","서울특별시 숭인동",37.573246,127.016589
137,"06호선","창신",37.579661,127.015241,"ZERO_RESULTS",,,,
138,"06호선","보문",37.585286,127.019381,"ChIJ9ZMj3jijfDURTveHoxtOaTU","6호선신당역","흥인동 162-1번지 6호 선신당역 중구 서울특별시 KR",37.567534,127.0161118
139,"04호선","금정",37.372221,126.943429,"ChIJB_utNVtnezURsM2mFYeJxF8","금정역","군포시 금정동",37.37196369999999,126.9436458
140,"06호선","안암",37.586272,127.029005,"ChIJ9ZMj3jijfDURTveHoxtOaTU","6호선신당역","흥인동 162-1번지 6호 선신당역 중구 서울특별시 KR",37.567534,127.0161118
141,"06호선","고려대",37.590508,127.036296,"ChIJedJww6G8fDURE8MgWFfo7bE","고려대","서울특별시 성북구 종암동",37.59040299999999,127.035926
142,"06호선","월곡",37.601948,127.041518,"ChIJdRVXvn27fDURbNwUu7zRPCA","월곡","서울특별시 월곡2동",37.60199,127.041575
143,"06호선","상월곡",37.606377,127.048491,"ChIJgx7Qi4K7fDURNpfuBB4B-YU","상월곡","서울특별시 상월곡동",37.60660800000001,127.04888
144,"06호선","돌곶이",37.610537,127.056431,"ChIJp-tLi5m7fDURaUPBhdWJzgY","돌곶이","서울특별시 석관동",37.610524,127.056439
145,"06호선","석계",37.614805,127.065851,"ChIJzwwiIL-7fDURgGnuRMEqK6k","석계","서울특별시 월계3동",37.615049,127.065683
146,"06호선","태릉입구",37.617983,127.07512,"ChIJves1Zy26fDURV6-_p8OG_ag","화랑대역(6호선)","서울특별시 노원구 공릉동 284-5",37.6201696,127.0843884
147,"06호선","화랑대",37.620064,127.084689,"ChIJves1Zy26fDURV6-_p8OG_ag","화랑대역(6호선)","서울특별시 노원구 공릉동 284-5",37.6201696,127.0843884
148,"06호선","봉화산",37.617283,127.091401,"ChIJa4zw1S-6fDURkaUfLA3xvtk","봉화산(서울의료원)","서울특별시 신내동",37.617379,127.091315
149,"07호선","장암",37.700109,127.053196,"ChIJxc2plbm4fDUR38l_OPAo1Zw","장암","의정부시 장암동",37.700145,127.0531804
150,"07호선","도봉산",37.689313,127.046222,"ChIJW3EpBc64fDURDgUtyj1pBu0","도봉산","서울특별시 도봉동",37.689552,127.046063
151,"07호선","수락산",37.67785,127.055315,"ChIJxc2plbm4fDUR38l_OPAo1Zw","장암","의정부시 장암동",37.700145,127.0531804
152,"07호선","마들",37.66494,127.057675,"ZERO_RESULTS",,,,
153,"07호선","노원",37.655128,127.061368,"ZERO_RESULTS",,,,
154,"07호선","중계",37.644583,127.064303,"ChIJqfit02e5fDURVLi9wP_a-TU","중계","서울특별시 중계2.3동",37.645112,127.06411
155,"07호선","하계",37.636352,127.06799,"ChIJves1Zy26fDURV6-_p8OG_ag","화랑대역(6호선)","서울특별시 노원구 공릉동 284-5",37.6201696,127.0843884
156,"07호선","공릉",37.625742,127.072896,"ChIJves1Zy26fDURV6-_p8OG_ag","화랑대역(6호선)","서울특별시 노원구 공릉동 284-5",37.6201696,127.0843884
157,"07호선","태릉입구",37.617983,127.07512,"ChIJTarT48i7fDURAsiqkaR0Pqk","태릉입구","서울특별시 노원구 지하, 동일로 992-1",37.617365,127.07486
158,"07호선","먹골",37.610637,127.077725,"ZERO_RESULTS",,,,
159,"07호선","중화",37.602545,127.079264,"ZERO_RESULTS",,,,
160,"07호선","상봉",37.596362,127.085032,"ChIJYeKSnlO6fDURtWcsuOZ7AbM","상봉","서울특별시 상봉1동",37.5972353,127.0859765
161,"07호선","면목",37.588579,127.087503,"ZERO_RESULTS",,,,
162,"07호선","사가정",37.580894,127.088478,"ZERO_RESULTS",,,,
163,"07호선","용마산",37.573647,127.086727,"ZERO_RESULTS",,,,
164,"07호선","중곡",37.565923,127.08432,"ZERO_RESULTS",,,,
165,"07호선","군자",37.557121,127.079542,"ZERO_RESULTS",,,,
166,"07호선","어린이대공원",37.548014,127.074658,"ChIJn672-dqkfDUR6WGmqtUQjHU","어린이대공원","서울특별시 군자동",37.547913,127.07461
167,"07호선","건대입구",37.540693,127.07023,"ChIJBVAHrOmkfDURiatjSxtmL6o","건대입구","서울특별시 화양동",37.540372,127.069276
168,"07호선","뚝섬유원지",37.53154,127.066704,"ChIJe1gq1POkfDURRUpRYPq3xY4","뚝섬유원지","서울특별시 광진구 자양동 능동로 10",37.531544,127.066708
169,"07호선","청담",37.519365,127.05335,"ZERO_RESULTS",,,,
170,"07호선","강남구청",37.517186,127.04128,"ChIJBQm8bHWkfDURTuYU4bV3ty0","강남구청","서울특별시 삼성동",37.517168,127.041301
171,"07호선","반포",37.508178,127.011727,"ZERO_RESULTS",,,,
172,"07호선","고속터미널",37.50481,127.004943,"ZERO_RESULTS",,,,
173,"07호선","남성",37.484596,126.971251,"ChIJIdFmXrGhfDURDxh-seS2itk","총신대입구(이수)","서울특별시 사당동",37.48680299999999,126.982193
174,"07호선","장승배기",37.504898,126.93915,"ZERO_RESULTS",,,,
175,"02호선","신대방",37.487462,126.913149,"ChIJcftijsqffDUR4RorSjnrV04","신대방","서울특별시 신림동",37.487563,126.913346
176,"02호선","신도림",37.508725,126.891295,"ChIJnfLXQl2efDUR23sDiTisnuo","서울메트로신도림영업소","서울특별시 구로구 구로5동 3-25",37.5070431,126.8902185
177,"02호선","문래",37.517933,126.89476,"ChIJdQ2qAfSefDUR358kje79Nvs","문래","서울특별시 문래동3가",37.517999,126.894825
178,"02호선","영등포구청",37.52497,126.895951,"ChIJzWphwe6efDURcZe18CejFHs","영등포구청","서울특별시 당산동",37.525469,126.896564
179,"02호선","당산",37.53438,126.902281,"ChIJqa9oc9uefDUR8XtgKT0l81Y","당산","159 우송 빌딩 4 층, 영중로 영등포구 서울특별시",37.5347978,126.90265
180,"02호선","합정",37.549463,126.913739,"ChIJV1A_Y9aYfDUR2PkPvMQNZ_g","합정","서울특별시 마포구 합정동 391-19",37.5495753,126.9139908
181,"02호선","홍대입구",37.557192,126.925381,"ChIJExW378KYfDUR8aFijbcqirQ","홍대입구","서울특별시 서교동",37.5581082,126.9259574
182,"02호선","신촌",37.555134,126.936893,"ChIJg_2jvpWYfDURsKnLkq7lw2o","신촌","인천광역시 서구 가정3동",37.5550592,126.9364998
183,"02호선","이대",37.556733,126.946013,"ChIJmyBIrJuYfDURRPMftUo6eSw","이대","서울특별시 대흥동",37.556784,126.94626
184,"02호선","아현",37.557345,126.956141,"ChIJ0XcIRniifDURgQeVzfFTdNs","아현","서울특별시 북, 양금동",37.557388,126.956132
185,"02호선","충정로",37.559973,126.963672,"ZERO_RESULTS",,,,
186,"07호선","신대방삼거리",37.499701,126.928276,"ZERO_RESULTS",,,,
187,"07호선","신풍",37.50008,126.90993,"ZERO_RESULTS",,,,
188,"07호선","가산디지털단지",37.481072,126.882343,"ZERO_RESULTS",,,,
189,"07호선","철산",37.47605,126.867911,"ChIJF_Oq4_dhezURbjMkzVGz8LY","철산","경기도 광명시 철산3동 철산로 지하 13",37.4759679,126.8677304
190,"07호선","온수",37.492258,126.823388,"ZERO_RESULTS",,,,
191,"07호선","까치울",37.506207,126.810939,"ChIJcdGWmp1iezURqU4MlLjjBf8","까치울","경기도 부천시 원미구 성곡동 길주로",37.5062327,126.8113591
192,"08호선","잠실",37.51395,127.102234,"ChIJsaECEwqlfDURVEJQ6Agz7qc","잠실","서울특별시 잠실6동",37.5132612,127.1001336
193,"09호선","종합운동장",37.510997,127.073642,"ChIJ-xB9oU-kfDURnEQ7TGx3MiE","종합운동장","서울특별시 잠실동",37.511037,127.073674
194,"09호선","석촌고분",37.5031988,127.0968027,"ChIJl4SL1ZilfDURI0g6K0GLq9c","석촌","서울특별시 송파동",37.5057138,127.1070689
195,"09호선","한성백제",37.5162985,127.1147715,"ChIJIddeSGWlfDURYq1v3gD5p4g","한성백제","서울특별시 방이동",37.516421,127.116248
196,"09호선","둔촌오륜",37.5198096,127.1316377,"ChIJjVOTB-2vfDURysJowszUlfo","둔촌오륜","서울특별시 둔촌동",37.519296,127.138675
197,"09호선","중앙보훈병원",37.5268044,127.1454439,"ZERO_RESULTS",,,,
198,"02호선","강변",37.535095,127.094681,"ChIJCwYCJD2lfDURax4Dbiv1cic","강변","서울특별시 광진구 구의동 강변역로 53",37.535098,127.094695
199,"02호선","잠실나루",37.520733,127.10379,"ChIJeZ6SVg2lfDURKyMEoDRoJ1c","잠실나루역","서울특별시 송파구 잠실4동 오금로 20",37.520669,127.103839
200,"02호선","잠실",37.51395,127.102234,"ChIJsaECEwqlfDURVEJQ6Agz7qc","잠실","서울특별시 잠실6동",37.5132612,127.1001336
201,"02호선","잠실새내",37.511687,127.086162,"ChIJ4Q71Q6ylfDUR4vyVvBFHnLI","잠실새내","서울특별시 송파구 잠실동 올림픽로 140",37.511632,127.085602
202,"02호선","종합운동장",37.510997,127.073642,"ChIJ-xB9oU-kfDURnEQ7TGx3MiE","종합운동장","서울특별시 잠실동",37.511037,127.073674
203,"02호선","삼성",37.508844,127.06316,"ChIJsw9YakCkfDURa3zI5CTN6SM","삼성","서울특별시 강남구 대치2동",37.508872,127.063186
204,"02호선","선릉",37.504503,127.049008,"ChIJvZchkQ-kfDUR0-rnxf1OUls","선릉","서울특별시 역삼동",37.504487,127.048957
205,"02호선","역삼",37.500622,127.036456,"ChIJKxs2jFmhfDURPP--kvKavw0","강남","서울특별시 역삼동",37.497952,127.027619
206,"02호선","강남",37.497175,127.027926,"ChIJKxs2jFmhfDURPP--kvKavw0","강남","서울특별시 역삼동",37.497952,127.027619
207,"02호선","교대",37.493415,127.01408,"ZERO_RESULTS",,,,
208,"02호선","방배",37.481426,126.997596,"ChIJn2RpWgehfDUR1lZMFlVhYnw","방배","서울특별시 방배동",37.481496,126.997667
209,"02호선","사당",37.47653,126.981685,"ChIJb34qtU6gfDUR0Ehf_K-jp3w","사당역","서울특별시 동작구 사당동 1026-32",37.476568,126.981649
210,"02호선","낙성대",37.47693,126.963693,"ChIJEdjCHyWgfDUR7zUxfFYv6hs","낙성대","서울특별시 인헌동",37.477126,126.963433
211,"02호선","서울대입구",37.481247,126.952739,"ChIJ--IQSoiffDURAw6n1G1NCDw","서울대입구","서울특별시 청룡동",37.48122,126.952728
212,"02호선","봉천",37.482362,126.941892,"ChIJOfTuK5KffDURvgwfCYYCMNI","봉천","서울특별시 은천동",37.482486,126.94159
213,"02호선","신림",37.484201,126.929715,"ChIJcwuCBb-ffDUR0Ew6psdO6sU","신림역","서울특별시 서원동",37.484231,126.929699
214,"02호선","구로디지털단지",37.485266,126.901401,"ChIJlwBZZjCefDURzzZYC4_jUOk","구로디지털단지","서울특별시 대림동",37.485215,126.901594
215,"01호선","녹양",37.75938,127.042292,"ChIJawHQhdTGfDURLEORUobCDK4","녹양","의정부시 녹양동",37.759425,127.042293
216,"02호선","을지로입구",37.566014,126.982618,"ChIJA5RMFe6ifDURGrk7MY0umwc","을지로입구","서울특별시 중구 을지로동 42",37.566065,126.982679
217,"02호선","을지로3가",37.566295,126.99191,"ChIJAWNsHeSifDUREcuaWDQ1dv8","을지로3가","서울특별시 을지로3가",37.566288,126.991051
218,"02호선","을지로4가",37.566941,126.998079,"ChIJXXSl0R-jfDURmGHL_MxrrGE","을지로4가","서울특별시 중구 을지로동 178",37.566621,126.997733
219,"02호선","동대문역사문화공원",37.565138,127.007896,"ChIJRTkaPz2jfDUReQo0-UY580U","동대문역사문화공원","서울특별시 을지로7가",37.565682,127.008953
220,"02호선","신당",37.565972,127.01782,"ChIJcxwUT0ejfDURwzxdo4qEpto","신당","서울특별시 중구 황학동 퇴계로 지하 431-1",37.565669,127.019452
221,"02호선","한양대",37.555273,127.043655,"ChIJK9lqOqGkfDURY26ruOhxFHQ","한양대","서울특별시 사근동",37.5555961,127.0436859
222,"02호선","뚝섬",37.547184,127.047367,"ChIJhykhEpmkfDURZY1dpWRNiE0","뚝섬","서울특별시 성수1가2동",37.547206,127.047405
223,"02호선","성수",37.544581,127.055961,"ChIJM2dMgpakfDURtL7E74IE1QU","성수","서울특별시 성수2가3동",37.544577,127.055991
224,"02호선","건대입구",37.540693,127.07023,"ChIJBVAHrOmkfDURiatjSxtmL6o","건대입구","서울특별시 화양동",37.540372,127.069276
225,"02호선","구의",37.537077,127.085916,"ChIJdWUoySGlfDURSEI4uARPekw","구의","서울특별시 자양2동",37.537153,127.086152
226,"04호선","사당",37.47653,126.981685,"ChIJb34qtU6gfDUR0Ehf_K-jp3w","사당역","서울특별시 동작구 사당동 1026-32",37.476568,126.981649
227,"05호선","신길",37.517122,126.917169,"ZERO_RESULTS",,,,
228,"인천2호선","검단사거리",37.60185,126.657108,"ChIJsaayE6CBfDUR4FQWJGQKrac","완정","인천광역시 검단4동",37.592865,126.67303
229,"07호선","학동",37.514229,127.031656,"ZERO_RESULTS",,,,
230,"07호선","논현",37.511093,127.021415,"ZERO_RESULTS",,,,
231,"07호선","내방",37.487618,126.993513,"ZERO_RESULTS",,,,
232,"07호선","이수",37.484954,126.9793159,"ChIJIdFmXrGhfDURDxh-seS2itk","총신대입구(이수)","서울특별시 사당동",37.48680299999999,126.982193
233,"07호선","숭실대입구",37.496029,126.953822,"ChIJ83jK_hiefDURiXvQcHvqIYU","남구로역(7호선)","서울특별시 구로구 구로동 800",37.4860154,126.8872302
234,"07호선","상도",37.502834,126.94791,"ChIJ83jK_hiefDURiXvQcHvqIYU","남구로역(7호선)","서울특별시 구로구 구로동 800",37.4860154,126.8872302
235,"07호선","보라매",37.499872,126.920428,"ChIJk-Tq0qiffDURtsSBXO9jGy4","보라매 역","서울특별시 대방동",37.49973689999999,126.9206038
236,"07호선","대림",37.49297,126.895801,"ZERO_RESULTS",,,,
237,"07호선","남구로",37.486056,126.887249,"OVER_QUERY_LIMIT",,,,
238,"07호선","광명사거리",37.479252,126.854876,"OVER_QUERY_LIMIT",,,,
239,"07호선","천왕",37.486637,126.838713,"ChIJ83jK_hiefDURiXvQcHvqIYU","남구로역(7호선)","서울특별시 구로구 구로동 800",37.4860154,126.8872302
240,"09호선","삼성중앙",37.513011,127.053282,"ChIJQy0wGm2kfDURRYldk6OLPHQ","삼성중앙","서울특별시 삼성동",37.5128889,127.0526509
241,"인천2호선","인천대공원",37.448769,126.752618,"ChIJs_RYZGR7ezURBf4EU7l1qw4","인천대공원","인천광역시 장수동",37.448498,126.752826
242,"09호선","봉은사",37.514219,127.060245,"ChIJQ41i62mkfDURKWguQX-pa8M","봉은사.삼성1파출소앞","서울특별시 삼성1동",37.514221,127.060266
243,"09호선","삼전",37.5042766,127.0884186,"ChIJl4SL1ZilfDURI0g6K0GLq9c","석촌","서울특별시 송파동",37.5057138,127.1070689
244,"09호선","석촌",37.505431,127.106979,"ChIJl4SL1ZilfDURI0g6K0GLq9c","석촌","서울특별시 송파동",37.5057138,127.1070689
245,"09호선","송파나루",37.5102451,127.1100425,"ChIJLw5yVHalfDURxuaJnsEW9S0","송파나루","서울특별시 방이동",37.510276,127.112224
246,"09호선","올림픽공원",37.516078,127.130848,"ChIJI1sviouvfDURsd7w2LAsIuE","올림픽공원","서울특별시 오륜동",37.515883,127.130847
247,"07호선","부천종합운동장",37.50538,126.797337,"ZERO_RESULTS",,,,
248,"07호선","춘의",37.503663,126.787036,"ChIJGxgY1LNiezURQsh_xdSYPwc","춘의","부천시 춘의동",37.503722,126.787095
249,"07호선","신중동",37.503048,126.77596,"ChIJKRShhEl9ezURfZgSqA0Xcrw","신중동","부천시 중동",37.50306399999999,126.775977
250,"07호선","부천시청",37.504631,126.763538,"ChIJz6qCcT99ezURHepy3U8iaGY","부천시청","경기도 부천시 원미구 중동 길주로",37.504681,126.763618
251,"07호선","상동",37.505781,126.753083,"ChIJ55-AxxN9ezURi2Lztx_SC4M","상동","경기도 부천시 원미구 중동 부천시 보건소",37.505814,126.753163
252,"07호선","삼산체육관",37.506411,126.742153,"ZERO_RESULTS",,,,
253,"07호선","굴포천",37.506997,126.73128,"ZERO_RESULTS",,,,
254,"07호선","부평구청",37.508336,126.720548,"ChIJU0sjmLZ9ezURbEH16NOAi-Q","부평구청","인천광역시 갈산동",37.50745,126.721247
255,"08호선","암사",37.55021,127.127562,"ChIJA9iprgmwfDURcg3eqSjKDMA","암사역(8호선)","서울특별시 강동구 암사동 501",37.55114349999999,127.1281759
256,"08호선","천호",37.538397,127.123572,"ChIJBcOeqVWlfDURL6r77rD0Kg8","천호","서울특별시 성내2동",37.538486,127.123905
257,"08호선","강동구청",37.530341,127.120508,"ChIJtbpL1lulfDUR_u9S2HsTNHg","강동구청","서울특별시 성내동",37.530518,127.120552
258,"08호선","몽촌토성",37.517409,127.112359,"ChIJNag51HGlfDUR9hxC46oXRX8","몽촌토성","서울특별시 잠실4동",37.517648,127.112757
259,"01호선","남영",37.541021,126.9713,"ChIJy6fIsBSifDUR2_qAtUAN3y0","남영","서울특별시 남영동",37.540606,126.971316
260,"01호선","용산",37.529849,126.964561,"ChIJDxUjqASifDURYoe1LjkFbE0","용산","서울특별시 용산구 한강로3가 한강대로23길",37.5298837,126.9648019
261,"01호선","노량진",37.514219,126.942454,"ChIJFVIwBGiffDUR25EZohv31V0","노량진","서울특별시 노량진동",37.51408199999999,126.941687
262,"01호선","대방",37.513342,126.926382,"ZERO_RESULTS",,,,
263,"01호선","영등포",37.515504,126.907628,"ChIJESwrX_yefDUROj05E0iULTE","영등포","서울특별시 영등포구 영등포본동",37.515766,126.907427
264,"01호선","신도림",37.508725,126.891295,"ChIJkwIlpV2efDURwFYgcfPXQvw","신도림","서울특별시 구로구 신도림동 새말로 117-21",37.5089833,126.8915131
265,"경의선","이촌",37.522272,126.974345,"ChIJRRFp0B-ifDUR0DUy05OdfuI","이촌역","서울특별시 한강로동",37.522379,126.973651
266,"경의선","서빙고",37.519594,126.988537,"ChIJ88eK5SiifDUR4qpLYo-mjzQ","서빙고","서울특별시 용산구 서빙고동",37.519619,126.988375
267,"경의선","옥수",37.540685,127.017965,"ChIJjQarRGmhfDURFMWCM7HnwhE","교대","서울특별시 서초4동",37.493902,127.014395
268,"경의선","왕십리",37.561533,127.037732,"ChIJaWenQVijfDURn0RpYmEzwks","왕십리","서울특별시 행당동",37.561949,127.038485
269,"경의선","청량리",37.580178,127.046835,"ZERO_RESULTS",,,,
270,"01호선","회기",37.58946,127.057583,"ChIJCxR7T2y7fDURYRnVdmREfHc","회기","서울특별시 휘경1동",37.589686,127.0578
271,"01호선","외대앞",37.596073,127.063549,"ChIJrcVrcgu7fDURjow8YH1yuoo","외대앞역","서울특별시 이문동",37.596165,127.063591
272,"01호선","신이문",37.601854,127.067325,"ChIJ263Jyaa7fDUR4Sjwb3YSb_Q","신이문역","서울특별시 이문동",37.601809,127.067391
273,"01호선","광운대",37.623632,127.061835,"ChIJCXfWAMK7fDURDZFQ4dy-5R0","광운대","서울특별시 노원구 월계1동",37.6234616,127.0615573
274,"01호선","월계",37.633212,127.058831,"ChIJmX2GJ-e7fDURj23RD2ALfKo","월계","서울특별시 월계3동",37.633122,127.058854
275,"01호선","녹천",37.644799,127.051269,"ZERO_RESULTS",,,,
276,"01호선","창동",37.653166,127.047731,"ChIJmWqVUE65fDURxsYnHd9VFjE","창동민자역사 아레나 x 스퀘어","서울특별시 창동 135번지",37.65276,127.047945
277,"수인분당선","선릉",37.504503,127.049008,"ChIJvZchkQ-kfDUR0-rnxf1OUls","선릉","서울특별시 역삼동",37.504487,127.048957
278,"수인분당선","한티",37.496237,127.052873,"ZERO_RESULTS",,,,
279,"수인분당선","도곡",37.490858,127.055381,"ChIJs14TTaemfDURtIzTFjCxo20","도곡","서울특별시 도곡2동",37.490892,127.055349
280,"수인분당선","구룡",37.486839,127.058856,"ZERO_RESULTS",,,,
281,"수인분당선","개포동",37.489116,127.06614,"ChIJR7oFtiCkfDURKEpSyMzBshg","개포동","서울특별시 강남구 개포2동",37.489182,127.066496
282,"수인분당선","대모산입구",37.491373,127.07272,"ChIJZ2pMXS-kfDUR0U_FcfG_Ovc","대모산입구","서울특별시 일원2동",37.491375,127.072761
283,"수인분당선","왕십리",37.561533,127.037732,"ChIJaWenQVijfDURn0RpYmEzwks","왕십리","서울특별시 행당동",37.561949,127.038485
284,"수인분당선","수서",37.487371,127.10188,"ZERO_RESULTS",,,,
285,"수인분당선","복정",37.470047,127.126662,"ChIJg37DDlavfDURnK06b8g9AWo","복정","서울특별시 문정2동",37.471209,127.126777
286,"01호선","신길",37.517122,126.917169,"ZERO_RESULTS",,,,
287,"경의선","중랑",37.594917,127.076116,"ChIJd7_LYAe7fDUR5movXirsxf4","중랑","서울특별시 중랑구 중화2동",37.594904,127.075833
288,"경의선","상봉",37.596362,127.085032,"ChIJYeKSnlO6fDURtWcsuOZ7AbM","상봉","서울특별시 상봉1동",37.5972353,127.0859765
289,"경의선","망우",37.59955,127.091909,"ZERO_RESULTS",,,,
290,"경의선","양원",37.606596,127.107906,"ZERO_RESULTS",,,,
291,"경의선","구리",37.603392,127.143869,"ChIJ4a0iO7SwfDURgHrjKTFHBFc","구리","구리시 동구동",37.6033064,127.1432928
292,"경의선","도농",37.608806,127.161153,"ChIJx7-jDi-3fDURfpY2-ubcW94","도농","남양주시 도농동",37.608763,127.161123
293,"경의선","양정",37.60533,127.19364,"ZERO_RESULTS",,,,
294,"경의선","덕소",37.586781,127.208832,"ZERO_RESULTS",,,,
295,"경의선","도심",37.579622,127.222672,"ZERO_RESULTS",,,,
296,"경의선","팔당",37.547371,127.243939,"ZERO_RESULTS",,,,
297,"경의선","운길산",37.554669,127.310115,"ChIJhev4xFpLYzURibp5hf3xzW4","운길산역","남양주시 조안면",37.554742,127.309937
298,"경의선","양수",37.545981,127.329098,"ZERO_RESULTS",,,,
299,"경의선","신원",37.525545,127.372921,"ZERO_RESULTS",,,,
300,"경의선","응봉",37.549946,127.034538,"ChIJSZ0xBmSjfDURA1QgIXEz3N8","응봉","서울특별시 응봉동",37.5504328,127.0348241
301,"경의선","국수",37.516169,127.399367,"ChIJazX7j0tJYzURI3BhqiAGPyI","국수","양평군 양서면",37.516196,127.399461
302,"경의선","아신",37.51382,127.443173,"ZERO_RESULTS",,,,
303,"경의선","오빈",37.506062,127.473868,"ChIJ2dkCLiJGYzURrcVgmsBK2U0","오빈","양평군 양평읍",37.506129,127.473804
304,"경의선","양평",37.525648,126.885778,"ChIJQakqgmxGYzURzWAmKiGNdMw","양평","양평군 양평읍",37.4927315,127.4918245
305,"경의선","원덕",37.468672,127.547076,"ChIJ0w-s7rFGYzURcSyNQzYxROA","원덕역","양평군 양평읍",37.4685731,127.5471595
306,"경의선","용문",37.48223,127.594647,"ZERO_RESULTS",,,,
307,"경의선","지평",37.476444,127.629617,"ZERO_RESULTS",,,,
308,"경의선","서울",37.554648,126.972559,"ChIJA3CU42aifDURaq-3csGXvuc","서울역","서울특별시 중구 소공동 세종대로18길 2",37.555946,126.972317
309,"경의선","신촌",37.555134,126.936893,"ChIJ0RGmEpCYfDURAziCwM4_WcU","신촌","서울특별시 신촌동",37.559771,126.942367
310,"경의선","효창공원앞",37.539261,126.961351,"ChIJ9WL5jQ6ifDURfMYTpPnvfq4","효창공원앞","서울특별시 용문동",37.539298,126.961356
311,"경의선","공덕",37.544018,126.951592,"ChIJJ96OJ6GYfDURsi-MlTErH40","공덕","서울특별시 공덕동",37.544359,126.9507534
312,"경의선","홍대입구",37.557192,126.925381,"ChIJExW378KYfDUR8aFijbcqirQ","홍대입구","서울특별시 서교동",37.5581082,126.9259574
313,"경의선","수색",37.580842,126.895611,"ChIJFW1z56qZfDURHSNsn5y93N4","증산","서울특별시 증산동",37.583942,126.909704
314,"경의선","화전",37.602888,126.868387,"ChIJ2Y7Q2CmafDURAPKwt8gJdI8","Hwajeon","고양시 화전동",37.602908,126.868386
315,"경의선","강매",37.612314,126.843223,"ZERO_RESULTS",,,,
316,"경의선","행신",37.612102,126.834146,"ChIJITDuW1KafDUR4jx4M6x9E2g","행신","고양시 행신2동",37.612119,126.834317
317,"경의선","능곡",37.618808,126.820783,"ChIJowxTs_6afDURPaiuHvreUrI","능곡","고양시 행주동",37.618752,126.820863
318,"경의선","곡산",37.645676,126.801762,"ZERO_RESULTS",,,,
319,"경의선","풍산",37.672346,126.786243,"ChIJyQDTRQOQfDURbJGgtmH6ddc","풍산","고양시 풍산동",37.672185,126.786374
320,"경의선","일산",37.682077,126.769846,"ChIJ8waQa--PfDURUDVOWsphfuc","일산","고양시 일산동",37.6822263,126.7695264
321,"경의선","탄현",37.694023,126.761086,"ChIJGapAj8CPfDURyWKXrYOx70U","탄현","고양시 탄현동",37.6941135,126.7610753
322,"경의선","운정",37.725826,126.767257,"ChIJL3RNIRaOfDURt3WGZnsf59s","운정","파주시 야당동",37.725451,126.767096
323,"경의선","금릉",37.751322,126.765347,"ChIJ0-BNJ-SNfDUR8Cs58vGzpII","금릉","파주시 금촌2동",37.751306,126.765422
324,"경의선","월롱",37.796188,126.792587,"ZERO_RESULTS",,,,
325,"경의선","파주",37.815298,126.792783,"ChIJFfBQ11HtfDURMcT7gCHZxEc","파주","경기도 파주시 파주읍 통일로",37.815402,126.792448
326,"경의선","문산",37.854619,126.788047,"ZERO_RESULTS",,,,
327,"경의선","임진강",37.8888842,126.7453083,"ZERO_RESULTS",,,,
328,"경춘선","광운대",37.623632,127.061835,"ChIJCXfWAMK7fDURDZFQ4dy-5R0","광운대","서울특별시 노원구 월계1동",37.6234616,127.0615573
329,"경춘선","청량리",37.580178,127.046835,"ChIJM2j8Blu7fDUR_dkwN-T660Y","청량리","서울특별시 전농1동",37.580229,127.0481242
330,"경춘선","회기",37.58946,127.057583,"ChIJCxR7T2y7fDURYRnVdmREfHc","회기","서울특별시 휘경1동",37.589686,127.0578
331,"경춘선","상봉",37.596362,127.085032,"ChIJYeKSnlO6fDURtWcsuOZ7AbM","상봉","서울특별시 상봉1동",37.5972353,127.0859765
332,"경춘선","망우",37.59955,127.091909,"ChIJN7N7wk-6fDURcptA_-MyIQ8","망우","서울특별시 상봉1동",37.599295,127.092336
333,"경춘선","신내",37.612887,127.103218,"ChIJQbQaSz26fDURkrP-mdbmlBY","신 내역","서울특별시 망우본동",37.6126681,127.1032127
334,"경춘선","갈매",37.634118,127.114757,"ChIJqzHifei5fDURiitjKx7Ge8w","갈매","구리시 갈매동",37.634143,127.114822
335,"경춘선","별내",37.64202,127.12684,"ChIJoY9UFX23fDUR7TlaBIlsvzQ","별내역","남양주시 별내동",37.642271,127.127439
336,"경춘선","퇴계원",37.648311,127.143952,"ChIJy1w3zp63fDUR098ITB5t1PE","퇴계원역","남양주시 퇴계원면",37.648346,127.144032
337,"경춘선","사릉",37.65108,127.176933,"ChIJv00BOTa2fDURwhDabR9kUM8","사릉","남양주시 진건읍",37.651146,127.17684
338,"경춘선","평내호평",37.653225,127.244493,"ChIJnZYiS2XKfDUREwoxsXHOW4g","평내호평역","경기도 남양주시 평내동",37.6532888,127.2443983
339,"경춘선","마석",37.652782,127.311767,"ChIJSQJR6iY1YzURaLcjkNesxt4","마석","남양주시 화도읍",37.6523491,127.3116249
340,"경춘선","대성리",37.684071,127.379319,"ChIJASZe4uAzYzURTndOafa6i38","대성리","가평군 청평면",37.68386599999999,127.379509
341,"경춘선","청평",37.735488,127.42661,"ChIJi-T-3cwvYzURCJih1ep9MJs","청평","가평군 청평면",37.73546899999999,127.426589
342,"경춘선","상천",37.770246,127.454821,"ChIJ7z_wV0IvYzURgXP5kLg1JyU","상천역","가평군 청평면",37.770405,127.4542002
343,"경춘선","가평",37.814536,127.510739,"ZERO_RESULTS",,,,
344,"경춘선","굴봉산",37.832067,127.557695,"ChIJke2Rk03fYjURBU_qyiGc3vk","굴봉산","춘천시 남산면",37.832088,127.557755
345,"경춘선","백양리",37.830779,127.58933,"ChIJ7cLMXgzfYjURDSRcJTggcPw","백양리","강원도 춘천시 남산면 북한강변길 690",37.830883,127.589108
346,"경춘선","강촌",37.805723,127.634146,"ChIJqamfk-PfYjURphro1mkd5P0","강촌","강원도 춘천시 남산면 강촌로 150",37.805727,127.634058
347,"경춘선","김유정",37.818466,127.71434,"ChIJdR0pX13hYjURa7M6rZ64PJM","김유정역","춘천시 신동면",37.818365,127.714198
348,"경춘선","남춘천",37.864007,127.723792,"ChIJEbHv4SnkYjURtZZt4buyR-w","남춘천역","춘천시 퇴계동",37.8640817,127.723753
349,"01호선","석계",37.614805,127.065851,"ChIJzwwiIL-7fDURgGnuRMEqK6k","석계","서울특별시 월계3동",37.615049,127.065683
350,"경의선","서강대",37.551881,126.935711,"ChIJWVfqVL6YfDURvIeuRTct7Fc","서강대","서울특별시 대흥동",37.552167,126.935445
351,"경의선","백마",37.658239,126.794461,"ZERO_RESULTS",,,,
352,"경의선","야당",37.712327,126.761356,"ZERO_RESULTS",,,,
353,"경의선","금촌",37.766217,126.774644,"ZERO_RESULTS",,,,
354,"경춘선","금곡",37.637382,127.207853,"ChIJ3S9x8nS2fDURitIJpb5zu0Q","금곡","남양주시 금곡동",37.637364,127.20762
355,"경춘선","천마산",37.658978,127.285379,"ChIJbeqvYdrKfDURTkz0UOerfag","천마산","남양주시 화도읍",37.65899539999999,127.2857308
356,"01호선","봉명",36.801215,127.135763,"ChIJdQkg0gQoezURs-y5QTV50MY","봉명","천안시 봉명동",36.80146,127.136151
357,"01호선","쌍용",36.7929093,127.1179293,"ZERO_RESULTS",,,,
358,"01호선","아산",36.792053,127.104361,"ChIJGz6YqBTYejURakN978hN_SI","아산","아산시 배방읍",36.792097,127.104556
359,"01호선","배방",36.777629,127.052991,"ChIJT7fA3DrZejURkY-R8XJ__f8","배방역","충청남도 아산시 배방읍 온천대로 1967",36.777592,127.052842
360,"01호선","온양온천",36.780483,127.003249,"ChIJ82Zy147eejURFiNE8QDCWqc","온양온천","아산시 온천동",36.780542,127.003178
361,"01호선","신창",36.769502,126.951108,"ZERO_RESULTS",,,,
362,"04호선","경마공원",37.443885,127.007888,"ChIJKfUhs5qgfDURpjc7hGLswKE","경마공원","과천시 과천동",37.443996,127.007914
363,"04호선","대공원",37.435675,127.006523,"ChIJ47ZfoIKgfDUROYz7zhDUhEI","대공원고가교","경기도 과천시 막계동",37.435733,127.006489
364,"04호선","과천",37.433021,126.996568,"ChIJD8XmdoJfezURoiYoWaaBZ5I","과천역","과천시 별양동",37.433172,126.996388
365,"04호선","정부과천청사",37.426513,126.98978,"ChIJrwr9D5lfezUR5O0lWngwvT4","정부과천청사","경기도 과천시 중앙동 중앙로",37.426532,126.98973
366,"04호선","인덕원",37.401553,126.976715,"ZERO_RESULTS",,,,
367,"04호선","평촌",37.394287,126.963883,"ChIJswwjOhheezURdohxxPdn2JY","평촌","안양시 관양동",37.394355,126.963894
368,"04호선","범계",37.389793,126.950806,"ChIJB2uQ76hgezURDQ6g5q6RdRc","범계","경기도 안양시 동안구 범계동",37.389792,126.950766
369,"경강선","삼동",37.409522,127.20336,"ChIJ81RD4nqpfDURUVc3SXDJ3Wo","삼동","광주시 중대동",37.408737,127.203461
370,"경강선","경기광주",37.399907,126.630347,"ChIJYfIoYKCrfDURR5fbpNyL0hY","경기광주","광주시 역동",37.398924,127.253313
371,"경강선","초월",37.374419,127.299,"ChIJ_03OWNJUYzURiGvlVHhLn14","초월","광주시 초월읍",37.373394,127.30001
372,"경강선","곤지암",37.351315,127.34674,"ChIJqQMHcVNUYzURd2gWd4z_r18","곤지암","광주시 곤지암읍",37.350529,127.3462
373,"경강선","신둔도예촌",37.317185,127.40476,"ChIJX76qi0JWYzURzu-yXymf5QY","신둔도예촌","이천시 신둔면",37.315568,127.405237
374,"경강선","이천",37.265579,127.44226,"ZERO_RESULTS",,,,
375,"경강선","부발",37.260192,127.490277,"ZERO_RESULTS",,,,
376,"경강선","여주",37.282701,127.628607,"ZERO_RESULTS",,,,
377,"01호선","구로",37.503039,126.881966,"ZERO_RESULTS",,,,
378,"01호선","가산디지털단지",37.481072,126.882343,"ChIJd-O5jR2efDURymHt8lXACFY","가산디지털단지","서울특별시 가리봉동",37.48144,126.882652
379,"01호선","금천구청",37.455626,126.89398,"ChIJIbB5375hezURTP80k1k9UMo","금천구청","서울특별시 금천구 시흥1동 시흥대로63길 91",37.455652,126.894009
380,"01호선","관악",37.419232,126.908706,"ChIJdQTCXx5hezUR_7FAb7GmvFY","관악","안양시 석수1동",37.419588,126.908491
381,"01호선","안양",37.401592,126.922874,"ChIJ5TeXWcVgezURRPT8c3SQ1DQ","안양","안양시 안양동",37.401938,126.922661
382,"01호선","명학",37.384653,126.935433,"ChIJfXSOsktnezURC0Zm2v6ns5U","명학","경기도 안양시 만안구 안양동 1163-1",37.385181,126.9354047
383,"01호선","금정",37.372221,126.943429,"ZERO_RESULTS",,,,
384,"01호선","의왕",37.320852,126.948217,"ChIJpZ3y1_BnezURlvfy55TghL0","의왕","의왕시 부곡동",37.32041,126.948113
385,"01호선","성균관대",37.300349,126.97075,"ChIJhct_r7RCezURyOZclqxEigQ","성균관대역","수원시 율천동",37.300316,126.971163
386,"경의선","디지털미디어시티",37.576646,126.900984,"ChIJX-YLTAWZfDURvcJAkKtyW1I","디지털미디어시티","서울특별시 상암동",37.576422,126.901217
387,"경춘선","춘천",37.885054,127.717023,"ZERO_RESULTS",,,,
388,"04호선","선바위",37.451673,127.002303,"ChIJtdt5-YugfDURKxJfWU3S_ys","선바위","과천시 과천동",37.451863,127.002179
389,"01호선","석수",37.435047,126.902295,"ChIJEaeFugdhezUR67mj16OXZcM","석수","경기도 안양시 만안구 석수동 경수대로 1431",37.435171,126.902248
390,"01호선","화서",37.283862,126.989627,"ChIJ8wYyfNpCezURvZEWe50ivcw","화서역","수원시 화서동",37.283999,126.989586
391,"01호선","수원",37.265974,126.999874,"ChIJK63NnBVDezURNMbrCSZeWMU","매교역","수원시 매교동",37.265512,127.015717
392,"01호선","독산",37.466613,126.889249,"ZERO_RESULTS",,,,
393,"01호선","세류",37.245025,127.013222,"ChIJ7wSmUKFDezURa75p0mKnF8U","세류","경기도 수원시 권선구 세류2동 정조로 387",37.2443116,127.0141262
394,"01호선","병점",37.207503,127.032731,"ChIJx4roQ_xDezUR1BZTx5ArI6k","병점","화성시 진안동",37.20685,127.033266
395,"01호선","세마",37.187533,127.04318,"ZERO_RESULTS",,,,
396,"01호선","오산대",37.168953,127.063197,"ChIJqb1GkulGezURFsjCaIP2qFI","오산대역","오산시 수청동",37.169296,127.063103
397,"01호선","송탄",37.075696,127.054301,"ChIJdYtfMTs5ezUR2tcUsBXzQIE","송탄","평택시 지산동",37.075512,127.054383
398,"01호선","서정리",37.056496,127.052819,"ChIJWTM65lo5ezURxYgu3_EnSpI","서정리","평택시 서정동",37.0566271,127.0532698
399,"01호선","평택",36.990726,127.085159,"ZERO_RESULTS",,,,
400,"01호선","성환",36.916076,127.126964,"ChIJw9jWQYcvezURze7yUjl6cxU","성환","천안시 성환읍",36.9156969,127.1270306
401,"01호선","직산",36.870593,127.143904,"ChIJwUoe20svezURLNhpzmWQW8c","직산","천안시 직산읍",36.870892,127.143789
402,"01호선","두정",36.833705,127.14896,"ChIJtd57E_MoezURWN1Hd6iRc3k","두정","천안시 두정동",36.8330178,127.1490986
403,"01호선","천안",36.810005,127.146826,"ZERO_RESULTS",,,,
404,"01호선","광명",37.416182,126.884466,"ChIJV5ttDEZhezURoNkwRVfNXyE","광명역","-dong, 소하2동 광명시 경기도",37.416481,126.884791
405,"04호선","산본",37.358101,126.933274,"ChIJN135MXNnezURpDAes8SPICQ","산본역","군포시 산본동",37.358028,126.932983
406,"04호선","대야미",37.328467,126.917332,"ChIJR2W3ktFnezUR_axDswjh3Qs","대야미","군포시 대야미동",37.328007,126.916914
407,"04호선","반월",37.312212,126.903524,"ZERO_RESULTS",,,,
408,"04호선","상록수",37.302795,126.866489,"ChIJY7um7CpvezURmuOtEHDhUec","상록수","안산시 일동",37.302854,126.86661
409,"04호선","한대앞",37.309689,126.85344,"ChIJoZak7CZvezURtK6B0tcpQOE","한대앞","안산시 이동",37.309484,126.853883
410,"04호선","중앙",37.315941,126.838573,"ChIJAd7ifRxvezURCk5OoBrIWCw","중앙역","경기도 안산시 단원구 고잔동",37.316036,126.838974
411,"04호선","고잔",37.316777,126.823249,"ChIJzfdg2FRuezURpQBEd7ombM8","고잔","안산시 호수동",37.3168267,126.8230369
412,"04호선","초지",37.320646,126.805913,"ChIJbyDIUkpuezUR3t3tis576cg","초지역","안산시 초지동",37.32054040000001,126.8062369
413,"04호선","안산",37.327082,126.788532,"ChIJ91tqXCxuezURPpAVm7zJJcA","안산역","안산시 원곡본동",37.326801,126.789239
414,"04호선","신길온천",37.338212,126.765844,"ChIJOQngNDNwezURzLBkZxJnM-Q","신길온천","안산시 신길동",37.337476,126.767341
415,"04호선","정왕",37.351735,126.742989,"ChIJeUaSlVZwezURv0wEkfR7WJo","정왕","시흥시 정왕본동",37.351828,126.742858
416,"04호선","오이도",37.362357,126.738714,"ZERO_RESULTS",,,,
417,"04호선","수리산",37.349801,126.925365,"ChIJo6wGmqZnezURJd1EECvrFAI","수리산","군포시 수리동",37.350609,126.925622
418,"수인선","오이도",37.362357,126.738714,"ZERO_RESULTS",,,,
419,"01호선","개봉",37.494594,126.85868,"ChIJucvhGPqdfDURWz-Ki5BiIpQ","개봉역","서울특별시 개봉1동",37.494546,126.859157
420,"01호선","오류동",37.494526,126.845365,"ChIJpVS0ZHViezURdGwibeL5kxY","오류동","서울특별시 오류2동",37.494416,126.84475
421,"01호선","역곡",37.485178,126.811502,"ChIJtdTaTOxiezURLnvLYPtf5os","역곡","부천시 역곡동",37.4851398,126.8116223
422,"01호선","군포",37.35356,126.948462,"ChIJDYfLfHtnezURil0fvISf-xs","군포역","군포시 군포1동",37.354006,126.948539
423,"01호선","당정",37.344285,126.948345,"ChIJp2E2L4JnezUR20rJmLg9bQk","당정역","군포시 군포1동",37.34338899999999,126.948401
424,"01호선","서동탄",37.195504,127.051672,"ChIJm6BVzqdGezURs5jmoQnmQg8","서동탄역","경기도 화성시 능동 697-13",37.195683,127.051904
425,"01호선","부천",37.48405,126.782686,"ChIJRwWzpdRiezURgjzbiQioWtg","부천 다방","경기도 부천시 소사구 괴",37.484085,126.782803
426,"01호선","송내",37.4876,126.753664,"ChIJjRRYu-N8ezUR9-zvFOtVZbY","송내","부천시 송내동",37.487646,126.752854
427,"01호선","부평",37.489493,126.724805,"ChIJpRxsS0R8ezURwHfaIhZd9Ko","부평","인천광역시 부평동",37.489481,126.724517
428,"01호선","백운",37.483664,126.707704,"ChIJpRxsS0R8ezURwHfaIhZd9Ko","부평","인천광역시 부평동",37.489481,126.724517
429,"01호선","주안",37.464941,126.679923,"ZERO_RESULTS",,,,
430,"01호선","제물포",37.466769,126.656666,"ChIJt7U6xR55ezURNEFb_9ow2fg","제물포","인천광역시 중구 항동7가",37.4668431,126.6569666
431,"01호선","동인천",37.475276,126.632802,"ChIJfWyjFut4ezURoQ7l3X2MK9I","동인천","인천광역시 인현동",37.475427,126.632614
432,"01호선","인천",37.476691,126.616936,"ChIJf2yIGZt4ezUR42Mac9P-DxI","인천역","인천광역시 중구 북성동 제물량로 269",37.47637700000001,126.616952
433,"01호선","구일",37.496756,126.870793,"ChIJofwcQQiefDURywRoueO_rlI","구일","서울특별시 구로구 구로1동",37.496261,126.86959
434,"01호선","소사",37.482753,126.79544,"ChIJByy9A9tiezUR30qYDEII6vk","소사","부천시 소사동",37.48277,126.795737
435,"01호선","부개",37.488418,126.74109,"ChIJ6Z-a-fh8ezURKhc_uFUCz2A","부개","인천광역시 부개동",37.488474,126.740707
436,"01호선","간석",37.464737,126.694181,"ChIJbcWiSVh5ezUReaLM-CdkyVE","간석","인천광역시 간석4동",37.464701,126.693423
437,"01호선","도원",37.468446,126.642706,"ChIJ6T6amuV4ezURE2ajrlRNGcg","도원","인천광역시 숭의동",37.46871,126.642611
438,"01호선","온수",37.492258,126.823388,"ChIJkz7xa4hiezURkQM-8JEAxqs","온수","서울특별시 구로구 온수동 경인로3길 지하 64",37.4924845,126.8240842
439,"01호선","중동",37.486562,126.764843,"ChIJe9dqpyB9ezUR_ig9f9xRhac","중동역 ✓","부천시 상동",37.486675,126.76449
440,"수인분당선","서울숲",37.543617,127.044707,"ZERO_RESULTS",,,,
441,"수인분당선","압구정로데오",37.527381,127.040534,"ChIJX4gGfXikfDURPO0YAKh1j40","압구정로데오","서울특별시 신사동",37.527394,127.040572
442,"수인분당선","강남구청",37.517186,127.04128,"ZERO_RESULTS",,,,
443,"수인분당선","선정릉",37.51098,127.043593,"ChIJm3PyxAukfDURBNY7nKP9hPA","선정릉","서울특별시 역삼동",37.5102747,127.0438167
444,"수인분당선","가천대",37.448605,127.126697,"ZERO_RESULTS",,,,
445,"수인분당선","태평",37.440019,127.127709,"ZERO_RESULTS",,,,
446,"수인분당선","모란",37.43213,127.129087,"ZERO_RESULTS",,,,
447,"수인분당선","야탑",37.411185,127.128715,"ChIJb3SX4XSofDURkMRiEPLn1ac","야탑역","경기도 성남시 분당구 야탑동 성남대로 903",37.41132,127.128674
448,"수인분당선","서현",37.385126,127.123592,"ChIJ4XaL2AJYezURF5OdFr3cZOQ","서현","경기도 성남시 분당구 서현1동 성남대로 지하 601",37.384994,127.123402
449,"수인분당선","수내",37.378455,127.114322,"ChIJ3dbD5BdYezURWwQ7TEAnDh0","수내역","성남시 수내1동",37.378442,127.11423
450,"수인분당선","정자",37.36706,127.108105,"ChIJ4fFUOzRYezUR30DZGgtr5Us","정자","경기도 성남시 분당구 정자동 176-1",37.366163,127.108088
451,"수인분당선","미금",37.350077,127.10891,"ZERO_RESULTS",,,,
452,"수인분당선","이매",37.396104,127.12827,"ZERO_RESULTS",,,,
453,"수인분당선","신갈",37.286102,127.111313,"ZERO_RESULTS",,,,
454,"수인분당선","상갈",37.26181,127.108847,"ZERO_RESULTS",,,,
455,"수인분당선","청명",37.259489,127.078934,"ChIJQQ_L9NREezURlkChjZ95bgU","청명","수원시 영통동",37.2595832,127.0790738
456,"수인분당선","영통",37.251568,127.071394,"ZERO_RESULTS",,,,
457,"수인분당선","망포",37.245795,127.057353,"ChIJtVjs8pNEezURbeJHXAOpGZg","망포","경기도 수원시 영통구 지하 덕영대로 1520",37.245807,127.057375
458,"수인분당선","매탄권선",37.252759,127.040566,"ChIJqZ_qBJ5EezURAnq5Ye61gow","매탄권선","수원시 매탄3동",37.252704,127.040661
459,"수인분당선","수원시청",37.261911,127.030736,"ChIJMaqjFV1DezURVdCBFD1ow74","수원 시청역","경기도 수원시 권선구 권선1동",37.261851,127.031121
460,"수인분당선","매교",37.265481,127.015678,"ChIJK63NnBVDezURNMbrCSZeWMU","매교역","수원시 매교동",37.265512,127.015717
461,"수인선","달월",37.379681,126.745177,"ChIJrSBeIHlwezURwnYaL4EGruI","달월역","시흥시 군자동",37.380008,126.745449
462,"수인선","월곶",37.391769,126.742699,"ZERO_RESULTS",,,,
463,"경강선","세종대왕릉",37.295309,127.570938,"ChIJqyIASqNeYzURlvONPrKDJBA","세종대왕릉","여주군 능서면",37.293638,127.570776
464,"01호선","오산",37.145885,127.06672,"ChIJYeAIVRdHezUR18xKxmKnvf4","오산","오산시 오산동",37.145398,127.066706
465,"01호선","진위",37.109447,127.062278,"ChIJlanV9pc4ezURDwXZaKrRX5Y","진위","평택시 진위면",37.109779,127.062351
466,"01호선","동암",37.471408,126.702896,"ChIJA52Pm_h7ezURlfhnoBUcrJ8","동암","인천광역시 남동구 만수6동 남동구 청역",37.470882,126.702898
467,"01호선","도화",37.46607,126.668672,"ChIJpVBf_T15ezURBq8AwZcPvxk","도화","인천광역시 남구 도화2.3동 668",37.466128,126.6685204
468,"수인분당선","구성",37.298969,127.105664,"ZERO_RESULTS",,,,
469,"수인선","소래포구",37.40095,126.733522,"ChIJGQI9U2F6ezUR1M6fgPmEAl8","소래포구역","인천광역시 논현1동",37.400975,126.733547
470,"수인선","인천논현",37.400614,126.722478,"ChIJDYOhe_h5ezURWqAFQmpEOwo","남동인더스파크역","인천광역시 논현고잔동",37.4077668,126.6953557
471,"수인선","호구포",37.401637,126.708627,"ChIJz9uhGQ96ezURWRP_aSVq5ts","호구포","인천광역시 논현2동",37.401634,126.708696
472,"수인선","남동인더스파크",37.407722,126.695216,"ChIJDYOhe_h5ezURWqAFQmpEOwo","남동인더스파크역","인천광역시 논현고잔동",37.4077668,126.6953557
473,"수인선","원인재",37.412603,126.687389,"ZERO_RESULTS",,,,
474,"수인선","연수",37.417804,126.67894,"ZERO_RESULTS",,,,
475,"수인선","송도",37.428514,126.657772,"ZERO_RESULTS",,,,
476,"수인선","인하대",37.448493,126.649619,"ChIJQ4XSn1N4ezURN_p2WCoP0-4","인하대","인천광역시 용현1.4동",37.4482422,126.6499823
477,"수인선","숭의",37.460789,126.638297,"ChIJozWL8fZ4ezURH6C_GfRGjWg","숭의","인천광역시 숭의동",37.460889,126.638083
478,"수인선","인천",37.476691,126.616936,"ChIJf2yIGZt4ezUR42Mac9P-DxI","인천역","인천광역시 중구 북성동 제물량로 269",37.47637700000001,126.616952
479,"01호선","방학",37.667503,127.044273,"ChIJ43-07TO5fDUR5LoK_UgyTzY","방학","서울특별시 방학1동",37.667401,127.044357
480,"01호선","도봉",37.679563,127.045595,"ChIJAbyfIKq-fDUR58xJIqRmVTU","쌍문","서울특별시 창동",37.64861,127.034689
481,"01호선","도봉산",37.689313,127.046222,"ChIJW3EpBc64fDURDgUtyj1pBu0","도봉산","서울특별시 도봉동",37.689552,127.046063
482,"01호선","망월사",37.709914,127.047455,"ChIJ494Q6K64fDURrh_G9OW-TdA","망월사","의정부시 호원동",37.710507,127.04738
483,"01호선","회룡",37.724846,127.046895,"ChIJG1Q8ulHHfDURpsVC_py_z1o","회룡","의정부시 호원동",37.724045,127.047339
484,"01호선","의정부",37.738415,127.045958,"ChIJI4fzmTbHfDURoSybmAsHG1c","의정부","의정부시 의정부동",37.7387295,127.0458908
485,"01호선","가능",37.748577,127.044213,"ChIJr8OqFSzHfDURnTSdVSpL9EA","가능","의정부시 가능1동",37.74837,127.044272
486,"01호선","양주",37.774381,127.044708,"ChIJ22I427XGfDUR6_4zZpsJOMQ","양주역","양주시 남방동",37.77429,127.044741
487,"01호선","덕계",37.818486,127.056486,"ChIJHxDmUmHEfDURxl7vlAVRlzs","덕계","양주시 덕계동",37.818769,127.056698
488,"01호선","덕정",37.843188,127.061277,"ChIJHfHWn8DEfDURy_272t1j61M","덕정","경기도 동두천시 지행동",37.843224,127.061533
489,"01호선","지행",37.892334,127.055716,"ChIJ61OZU3HbfDUR608aBzP3XAw","지행역","동두천시 송내동",37.892369,127.055757
490,"01호선","동두천중앙",37.901885,127.056482,"ZERO_RESULTS",,,,
491,"01호선","동두천",37.927878,127.05479,"ChIJHZcbSeTbfDURVh9cz0aCTsY","동두천","동두천시 동두천동",37.927573,127.054845
492,"03호선","원당",37.653324,126.843041,"ChIJ-b9LbJeQfDUR4o_3b0dF20g","원당","고양시 성사2동",37.65326,126.842985
493,"03호선","대곡",37.631626,126.811024,"ChIJKayEgu6afDURc1WCd8ajULc","대곡","경기도 고양시 덕양구 대장동 대주로107번길 71-81",37.63164,126.811044
494,"03호선","백석",37.643114,126.78787,"ChIJH5u0kcmafDURSFvqxHwPzNg","백석","경기도 고양시 일산동구 백석2동 중앙로 1042",37.64303,126.788066
495,"03호선","마두",37.652206,126.77762,"ChIJWaw-7EuFfDURwl4_OoNBOH8","마두","고양시 마두2동",37.652197,126.77766
496,"03호선","정발산",37.659477,126.773359,"ChIJo0ThLlCFfDURqdpvimChKkY","정발산","고양시 마두동",37.6596496,126.7732889
497,"03호선","주엽",37.670072,126.761334,"ChIJyXCAMV6FfDUR2WAxNZispYs","주엽","고양시 주엽2동",37.67015,126.761252
498,"03호선","대화",37.676087,126.747569,"ChIJOWr-Dn2FfDURUzR3GB92k7c","대화","고양시 대화동",37.676154,126.747443
499,"수인분당선","청량리",37.580178,127.046835,"ChIJM2j8Blu7fDUR_dkwN-T660Y","청량리","서울특별시 전농1동",37.580229,127.0481242
500,"수인분당선","보정",37.312752,127.108196,"ChIJA21avhZaezURu9IKFH-HE8Y","보정","용인시 보정동",37.312747,127.108232
501,"01호선","보산",37.913702,127.057277,"ChIJYy0qupTbfDURXJFxd-L72qE","보산","동두천시 보산동",37.914277,127.057158
502,"03호선","원흥",37.650658,126.872642,"ChIJGQNt_zWXfDUR57AEGe8YDRA","원흥","경기도 고양시 덕양구 원흥동",37.650735,126.873188
503,"03호선","삼송",37.653083,126.895558,"ChIJS6-3IxqXfDURHkzH0rvFNQ0","삼송","경기도 고양시 덕양구 삼송동",37.653106,126.895578
504,"인천선","계양",37.571462,126.735637,"ZERO_RESULTS",,,,
505,"인천선","귤현",37.566379,126.742654,"ZERO_RESULTS",,,,
506,"인천선","박촌",37.553703,126.745077,"ZERO_RESULTS",,,,
507,"인천선","임학",37.545059,126.738665,"ZERO_RESULTS",,,,
508,"인천선","계산",37.543238,126.728128,"ZERO_RESULTS",,,,
509,"인천선","경인교대입구",37.538157,126.722597,"ChIJOTm8Aop9ezURaijAQ5NQN3Y","경인교대입구","인천광역시 계산동",37.53818,126.722623
510,"인천선","작전",37.530415,126.722527,"ZERO_RESULTS",,,,
511,"인천선","갈산",37.517268,126.721514,"ChIJ0RdYvr59ezURJqiibiXxtqs","갈산","인천광역시 부평구 청천2동",37.51706799999999,126.721561
512,"인천선","부평구청",37.508336,126.720548,"ZERO_RESULTS",,,,
513,"인천선","부평시장",37.498383,126.722244,"ZERO_RESULTS",,,,
514,"인천선","부평",37.489493,126.724805,"ZERO_RESULTS",,,,
515,"인천선","동수",37.485312,126.718247,"ZERO_RESULTS",,,,
516,"인천선","부평삼거리",37.477679,126.710208,"ChIJ7-lHIA58ezUR_mBjOlIFIrM","부평삼거리","인천광역시 간석3동",37.478279,126.710477
517,"인천선","인천시청",37.457405,126.702221,"ChIJz-5Ko-Z7ezURdV2ThI7mgs8","인천시청","인천광역시 간석1동",37.457619,126.70222
518,"인천선","예술회관",37.449396,126.701012,"ChIJtRIJFrd3ezURjPwQMyY0TDY","센트럴파크","인천광역시 송도2동",37.3934923,126.6348629
519,"인천선","인천터미널",37.442383,126.699706,"ChIJ7TZN-XaQezUR0UAqfjDR5eU","인천국제공항제2여객터미널청사","인천광역시 중구 운서동 공항로 272",37.4848155,126.4396163
520,"인천선","문학경기장",37.434935,126.698579,"ChIJ6_8HICt6ezURdT7GewiQIKw","문학경기장","인천광역시 선학동",37.43495900000001,126.698344
521,"인천선","선학",37.426684,126.698863,"ChIJ9_Z-gih6ezURNzy92acAOeI","선학","인천광역시 선학동",37.427001,126.698925
522,"인천선","신연수",37.41804,126.693863,"ChIJE6qjFvV5ezURImd-yFn9YQU","신연수","인천광역시 연수3동",37.41806200000001,126.694023
523,"인천선","원인재",37.412603,126.687389,"ZERO_RESULTS",,,,
524,"인천선","동춘",37.404737,126.681015,"ChIJswnvlVh3ezURqASInTNeoow","동춘역","인천광역시 동춘3동",37.404732,126.680786
525,"인천선","동막",37.397878,126.674005,"ChIJi806Gmh3ezURpkXYue6HBYg","동막","인천광역시 동춘2동",37.39814,126.673603
526,"인천선","캠퍼스타운",37.387855,126.661673,"ChIJ3cHbFA53ezURQ2sEVkshIj8","캠퍼스타운","인천광역시 송도1동",37.388205,126.662085
527,"인천선","테크노파크",37.382268,126.656365,"ChIJtRIJFrd3ezURjPwQMyY0TDY","센트럴파크","인천광역시 송도2동",37.3934923,126.6348629
528,"인천선","지식정보단지",37.378384,126.645168,"ChIJ77BDuVN2ezURfURqCQuKwY8","지식정보단지","인천광역시 송도1동",37.378016,126.645426
529,"인천선","인천대입구",37.386007,126.639484,"ZERO_RESULTS",,,,
530,"인천선","센트럴파크",37.393054,126.634729,"ChIJtRIJFrd3ezURjPwQMyY0TDY","센트럴파크","인천광역시 송도2동",37.3934923,126.6348629
531,"인천선","국제업무지구",37.399907,126.630347,"ZERO_RESULTS",,,,
532,"인천2호선","마전",37.597566,126.666998,"ZERO_RESULTS",,,,
533,"인천2호선","독정",37.585212,126.675844,"ZERO_RESULTS",,,,
534,"인천2호선","검바위",37.561405,126.677566,"ZERO_RESULTS",,,,
535,"인천2호선","서구청",37.543742,126.676787,"ChIJqwWFqhd-ezURqujeCgfpVVk","서구청","인천광역시 심곡동",37.5440329,126.6769945
536,"인천2호선","가정",37.524649,126.675539,"ZERO_RESULTS",,,,
537,"인천2호선","인천가좌",37.4897,126.675208,"ChIJscbrwbd-ezURSRB3DjJnKOg","인천가좌","인천광역시 가좌동",37.490035,126.675237
538,"인천2호선","가재울",37.484192,126.683673,"ChIJb07y7LF-ezURsuVvlrxhBw8","가재울","인천광역시 가좌동",37.484106,126.683833
539,"인천2호선","주안국가산단",37.473703,126.68113,"ZERO_RESULTS",,,,
540,"인천2호선","인천시청",37.457405,126.702221,"ChIJz-5Ko-Z7ezURdV2ThI7mgs8","인천시청","인천광역시 간석1동",37.457619,126.70222
541,"인천2호선","석천사거리",37.456805,126.709986,"ZERO_RESULTS",,,,
542,"인천2호선","모래내시장",37.45583,126.719298,"ZERO_RESULTS",,,,
543,"인천2호선","만수",37.454911,126.732094,"ChIJSRidXIR7ezURiKu9F7lh1mc","만수","인천광역시 만수동",37.454967,126.731792
544,"인천2호선","운연",37.440127,126.75997,"ZERO_RESULTS",,,,
545,"인천2호선","검암",37.569104,126.673728,"ChIJEUxZCsKBfDURdXPOW_9oLzg","검암역","인천광역시 서구 검암동",37.5692314,126.6736077
546,"인천2호선","가정중앙시장",37.517054,126.676672,"ZERO_RESULTS",,,,
547,"인천2호선","석남",37.506193,126.676203,"ZERO_RESULTS",,,,
548,"인천2호선","서부여성회관",37.506193,126.676203,"ChIJO1jiY5V-ezURzcGaODD2Hwk","서부여성회관","인천광역시 석남3동",37.500303,126.675857
549,"인천2호선","주안",37.464941,126.679923,"ChIJ0zd750N5ezURKv3g7ALSvs4","주안남부역","인천광역시 남구 주안1동 주안로 95-19",37.465074,126.679709
550,"인천2호선","시민공원",37.458335,126.681192,"ChIJfxYGDWl5ezURoWI6iCobJ_Y","시민공원(문화창작지대)역","인천광역시 주안동",37.4584652,126.6800989
551,"인천2호선","석바위시장",37.457611,126.692575,"ChIJd3T-L155ezURSQeK1077Ud0","석바위시장","인천광역시 주안동",37.457696,126.692191
552,"09호선","개화",37.578608,126.798153,"ChIJ-e2xiKScfDURHgeZZrks1GY","개화역","서울특별시 개화동",37.578464,126.796992
553,"09호선","김포공항",37.562434,126.801058,"ChIJKTEjo8GcfDURL1AbYZGDDmE","김포공항","서울특별시 방화2동",37.562402,126.801289
554,"09호선","공항시장",37.563726,126.810678,"ChIJKTEjo8GcfDURL1AbYZGDDmE","김포공항","서울특별시 방화2동",37.562402,126.801289
555,"09호선","신방화",37.567532,126.816601,"ChIJD3UOB4-cfDUR3M_KUNFng4o","신방화사거리","서울특별시 방화동",37.567513,126.817353
556,"09호선","마곡나루",37.567336,126.829497,"ChIJN7o5In2cfDURtUqTdLDXf9U","마곡나루","서울특별시 가양1동",37.566776,126.827282
557,"09호선","양천향교",37.568381,126.841333,"ZERO_RESULTS",,,,
558,"09호선","증미",37.557402,126.861939,"ChIJgxJgKAScfDURU2ArneA2GXM","증미","서울특별시 강서구 양천로 560",37.55814,126.860623
559,"09호선","등촌",37.550632,126.865689,"ChIJUReFHx2cfDURL4t1PQQpJao","등촌","서울특별시 강서구 등촌1동",37.55124139999999,126.8645132
560,"09호선","선유도",37.53802,126.893525,"ChIJ53iYwMaefDURVbsy1odYCuc","선유도","서울특별시 양평동5가",37.537865,126.893927
561,"09호선","샛강",37.517274,126.928422,"ChIJXdoERhSffDUR35D6F0GfuNY","샛강","서울특별시 여의도동",37.5167428,126.9288901
562,"09호선","노량진",37.514219,126.942454,"ChIJ8W1EpGmffDURpT2HKChI4H0","지하철9호선","서울특별시 동작구 노량진동 44-1번지",37.5137695,126.9397718
563,"09호선","흑석",37.50877,126.963708,"ZERO_RESULTS",,,,
564,"09호선","구반포",37.501364,126.987332,"ChIJhTCNxpmhfDURoFepf2Ac2ug","구반포","서울특별시 반포본동",37.501438,126.987442
565,"09호선","신반포",37.503415,126.995925,"ChIJ8W1EpGmffDURpT2HKChI4H0","지하철9호선","서울특별시 동작구 노량진동 44-1번지",37.5137695,126.9397718
566,"09호선","신논현",37.504598,127.02506,"ChIJY6vcR-KjfDUR8qwlYYkETps","신논현","서울특별시 서초구 반포1동 746-10",37.5044498,127.0245716
567,"공항철도","김포공항",37.562434,126.801058,"ChIJKTEjo8GcfDURL1AbYZGDDmE","김포공항","서울특별시 방화2동",37.562402,126.801289
568,"공항철도","계양",37.571462,126.735637,"ZERO_RESULTS",,,,
569,"신분당선","동천",37.337928,127.102976,"ZERO_RESULTS",,,,
570,"신분당선","수지구청",37.322702,127.095026,"ChIJxxfrcSVaezURoUehBPPRJc4","수지구청","용인시 풍덕천동",37.322622,127.094891
571,"신분당선","성복",37.313335,127.0801,"ChIJw_A69rRbezURFPDLy7JGUQk","성복","경기도 용인시 수지구 성복동",37.313557,127.080341
572,"신분당선","상현",37.297664,127.069342,"ChIJu9qM40JbezUR4ClzxAhlj2I","신분당선광교중앙역","경기도 수원시 영통구 이의동 177-18",37.2877462,127.0526221
573,"신분당선","광교중앙",37.288617,127.051478,"ChIJu9qM40JbezUR4ClzxAhlj2I","신분당선광교중앙역","경기도 수원시 영통구 이의동 177-18",37.2877462,127.0526221
574,"인천2호선","왕길",37.59518,126.642696,"ZERO_RESULTS",,,,
575,"인천2호선","완정",37.592928,126.673203,"ChIJsaayE6CBfDUR4FQWJGQKrac","완정","인천광역시 검단4동",37.592865,126.67303
576,"09호선","염창",37.546936,126.874916,"ZERO_RESULTS",,,,
577,"09호선","신목동",37.544277,126.88308,"ZERO_RESULTS",,,,
578,"09호선","당산",37.53438,126.902281,"ChIJqa9oc9uefDUR8XtgKT0l81Y","당산","159 우송 빌딩 4 층, 영중로 영등포구 서울특별시",37.5347978,126.90265
579,"09호선","국회의사당",37.528105,126.917874,"ChIJweUpiyOffDURIaD-dLwqdfQ","국회의사당","서울특별시 여의동",37.528242,126.917765
580,"09호선","여의도",37.521624,126.924191,"ChIJI0pyfD2ffDURS7Skr0U-e_M","여의도","서울특별시 여의도동",37.521625,126.924079
581,"09호선","노들",37.512887,126.953222,"ChIJ8W1EpGmffDURpT2HKChI4H0","지하철9호선","서울특별시 동작구 노량진동 44-1번지",37.5137695,126.9397718
582,"09호선","동작",37.502971,126.979306,"ZERO_RESULTS",,,,
583,"09호선","고속터미널",37.50481,127.004943,"ZERO_RESULTS",,,,
584,"09호선","사평",37.504206,127.015259,"ZERO_RESULTS",,,,
585,"공항철도","마곡나루",37.567336,126.829497,"ZERO_RESULTS",,,,
586,"공항철도","검암",37.569104,126.673728,"ChIJEUxZCsKBfDURdXPOW_9oLzg","검암역","인천광역시 서구 검암동",37.5692314,126.6736077
587,"신분당선","정자",37.36706,127.108105,"ChIJ4fFUOzRYezUR30DZGgtr5Us","정자","경기도 성남시 분당구 정자동 176-1",37.366163,127.108088
588,"신분당선","미금",37.350077,127.10891,"ChIJQZYziMZZezUR5MAaFCi-wHQ","미금","경기도 성남시 분당구 금곡동 성남대로 지하 156",37.350751,127.108901
589,"의정부경전철","동오",37.745271,127.056947,"ChIJn6SDWSHHfDURsbq09jw2bDU","동오","의정부시 신곡동",37.745269,127.056979
590,"의정부경전철","새말",37.748885,127.06362,"ChIJ1X3nUeDGfDURIPpnJMKoXCw","새말","의정부시 신곡동",37.748869,127.063785
591,"의정부경전철","경기도청북부청사",37.75059,127.071495,"ChIJd6Ob0OTGfDURL58mEf9-F9A","경기도청북부청사","의정부시 신곡동",37.750773,127.071607
592,"의정부경전철","효자",37.754025,127.076902,"ChIJS50CLPHGfDURkW2NOauCcdk","효자","의정부시 신곡동",37.753999,127.077281
593,"09호선","가양",37.561391,126.854456,"ZERO_RESULTS",,,,
594,"공항철도","서울",37.554648,126.972559,"ChIJA3CU42aifDURaq-3csGXvuc","서울역","서울특별시 중구 소공동 세종대로18길 2",37.555946,126.972317
595,"공항철도","공덕",37.544018,126.951592,"ChIJA3CU42aifDURaq-3csGXvuc","서울역","서울특별시 중구 소공동 세종대로18길 2",37.555946,126.972317
596,"공항철도","홍대입구",37.557192,126.925381,"ChIJExW378KYfDUR8aFijbcqirQ","홍대입구","서울특별시 서교동",37.5581082,126.9259574
597,"공항철도","디지털미디어시티",37.576646,126.900984,"ZERO_RESULTS",,,,
598,"공항철도","청라국제도시",37.555878,126.625327,"ZERO_RESULTS",,,,
599,"공항철도","운서",37.492904,126.49379,"ChIJ6dSLsOmEezURCaBSutl6uJs","운서","인천광역시 운서동",37.4929259,126.4936563
600,"신분당선","양재시민의숲",37.470023,127.03842,"ChIJt-n4ZS2hfDUR9_L-xkCQ2aY","양재시민의숲","서울특별시 양재2동",37.469913,127.038396
601,"신분당선","판교",37.394761,127.111217,"ChIJPylOEwlYezUROOYJvffQr4g","판교역","경기도 성남시 분당구 삼평동 판교역로 160",37.394776,127.11116
602,"신분당선","광교",37.30211,127.044483,"ChIJs7I8tXxbezURgXxj9flMvUY","광교(경기대)","120 로 지하, 풍덕천동 수지구 용인시 경기도",37.3021303,127.0441582
603,"의정부경전철","회룡",37.724846,127.046895,"ZERO_RESULTS",,,,
604,"의정부경전철","범골",37.728755,127.04353,"ChIJu80_sU3HfDURmsmJVvOWXv4","범골","의정부시 호원2동",37.728796,127.043664
605,"의정부경전철","경전철의정부",37.737202,127.043257,"ChIJawuXojXHfDURu2oCbWHgNKY","경전철의정부","의정부시 의정부동",37.737291,127.043317
606,"의정부경전철","의정부시청",37.739256,127.034781,"ChIJS3F3_7XAfDURKTu9oOOyS2w","의정부시청","의정부시 의정부동",37.739242,127.034866
607,"의정부경전철","흥선",37.743302,127.037023,"ChIJ04OVfszAfDUR46wyGrfMb9g","흥선","의정부시 가능동",37.743284,127.037121
608,"의정부경전철","의정부중앙",37.743676,127.049565,"ChIJD-2a6C_HfDURoj9H9-7Kcvs","의정부중앙","의정부시 의정부동",37.743684,127.049663
609,"의정부경전철","곤제",37.750471,127.083715,"ZERO_RESULTS",,,,
610,"의정부경전철","어룡",37.742802,127.085035,"ChIJ_WwjtlXGfDUR0kCqEscZlvw","어룡","의정부시 용현동",37.742696,127.085226
611,"공항철도","공항화물청사",37.458366,126.476241,"ChIJcXrsZuCaezURuDJQEZz2dd8","공항화물청사","인천광역시 운서동",37.459064,126.477507
612,"공항철도","인천공항1터미널",37.4475222,126.4503887,"ChIJzdcB04CbezURJslSrJKOgeo","인천공항1터미널역","인천광역시 중구 운서동 공항로 271",37.4475951,126.4580803
613,"공항철도","인천공항2터미널",37.4848197,126.4374276,"ChIJ7TZN-XaQezUR0UAqfjDR5eU","인천국제공항제2여객터미널청사","인천광역시 중구 운서동 공항로 272",37.4848155,126.4396163
614,"공항철도","영종",37.511466,126.5237,"ZERO_RESULTS",,,,
615,"신분당선","강남",37.497175,127.027926,"ChIJKxs2jFmhfDURPP--kvKavw0","강남","서울특별시 역삼동",37.497952,127.027619
616,"신분당선","양재",37.484147,127.034631,"ChIJ6cFpb0mhfDURQzRecg-fdx8","양재","서울특별시 강남구 도곡1동 945-20",37.484557,127.034022
617,"용인경전철","강남대",37.270161,127.126033,"ChIJZ9vU1XdQezURBurFiEmDHj8","강남대","용인시 구갈동",37.270197,127.126007
618,"용인경전철","지석",37.269606,127.136515,"ChIJ25WiNGVQezURQWpyNtiDRHE","지석","용인시 상하동",37.269711,127.136613
619,"용인경전철","어정",37.274917,127.143714,"ChIJn0qO2GFQezURocooa4LAklU","어정","용인시 상하동",37.274954,127.143758
620,"용인경전철","동백",37.269043,127.152716,"ChIJ8WqnLFlQezURQl72KPeMCrw","동백역","용인시 동백동",37.2691239,127.1527886
621,"용인경전철","초당",37.260752,127.159443,"ChIJ0YjEPVBQezURO2TeInDjoTc","초당","용인시 동백동",37.26083,127.159477
622,"용인경전철","시청·용인대",37.239151,127.178406,"ChIJn0Q4rshRezUR6by_NHAWMQI","시청.용인대","용인시 역삼동",37.2394,127.178839
623,"용인경전철","명지대",37.237964,127.190294,"ChIJx_94nupRezURBhN3VsbzM3U","명지대역","용인시 역북동",37.238068,127.190282
624,"용인경전철","김량장",37.237247,127.198781,"ChIJE-h43JJRezURRtmmRAbK6wQ","김량장역","용인시 김량장동",37.237299,127.198683
625,"용인경전철","운동장·송담대",37.237845,127.209198,"ChIJt7kjnYlRezUR-FvKAjh0huM","운동장.송담대","용인시 김량장동",37.237896,127.209057
626,"용인경전철","고진",37.24484,127.214251,"ChIJ9yKfKipSezURzE7jVj-fhfA","고진","용인시 유림동",37.244694,127.214222
627,"용인경전철","보평",37.258965,127.218457,"ChIJPWPQS9pTezURrtnQnLDWhvo","보평역","용인시 유림동",37.2590595,127.218462
628,"용인경전철","둔전",37.267051,127.21364,"ChIJARd7z99TezURrOww2XjmZnM","둔전","용인시 포곡읍",37.267155,127.213625
629,"의정부경전철","발곡",37.727048,127.052803,"ChIJYVw5yEXHfDURrrE2JtkrMx8","발곡","의정부시 신곡동",37.726992,127.05291
630,"의정부경전철","송산",37.737279,127.087159,"ChIJUUVMaqvHfDURFoB0_f-pRZk","송산","의정부시 용현동",37.737281,127.087209
631,"의정부경전철","탑석",37.733579,127.088704,"ChIJe_ofA6zHfDURcEk3L-Gan1E","탑석","의정부시 용현동",37.733507,127.088914
632,"우이신설경전철","북한산우이",37.663146,127.012789,"ChIJwWA4JJq-fDURfXF0WJ1Sy-0","북한산우이","서울특별시 우이동",37.662909,127.012798
633,"03호선","약수",37.55434,127.010655,"ChIJpX7zzQ-jfDURjtMsQxSRQgA","약수역","서울특별시 중구 신당동 247-11",37.554347,127.011001
634,"우이신설경전철","솔밭공원",37.656088,127.013252,"ChIJw0xhCp6-fDURR6WnSMThq20","솔밭공원","서울특별시 쌍문동",37.656048,127.013278
635,"우이신설경전철","4.19민주묘지",37.6495332,127.011526,"ChIJtUgN8SO8fDURW5_86ypo0WQ","4.19민주묘지","서울특별시 우이동",37.649529,127.0137147
636,"우이신설경전철","가오리",37.641701,127.016792,"ChIJpQ4Nuz28fDUR0BUmh_cV3qQ","가오리","서울특별시 수유2동",37.641559,127.01681
637,"우이신설경전철","삼양사거리",37.621512,127.02048,"ChIJCW_dF2e8fDURAWLVecpyUkM","삼양사거리","서울특별시 미아동",37.621341,127.020507
638,"우이신설경전철","솔샘",37.62124,127.013528,"ChIJJUiFKV-8fDURAyAxBuvWjMs","솔샘","서울특별시 미아동",37.620266,127.013535
639,"우이신설경전철","북한산보국문",37.612343,127.008009,"ChIJAwl1c_C8fDUReOGLIssyI2s","북한산보국문","서울특별시 정릉동",37.612216,127.008154
640,"우이신설경전철","정릉",37.602798,127.01349,"ChIJ93eb2eu8fDURoNo6tD_zv0k","정릉","서울특별시 정릉1동",37.602667,127.013494
641,"우이신설경전철","성신여대입구",37.592624,127.016403,"ChIJc0iwHce8fDURptw3slomEFY","성신여대입구","서울특별시 성북구 동선동",37.592709,127.016539
642,"우이신설경전철","보문",37.585286,127.019381,"ChIJobxYNra8fDURoJh6rvQlN_c","보문","서울특별시 성북구 보문동",37.585533,127.019943
643,"02호선","까치산",37.531768,126.846683,"ChIJ9ziyUDWcfDURt7vTLqeyMZM","까치산","서울특별시 화곡동",37.531431,126.846921
644,"02호선","시청",37.564718,126.977108,"ChIJGZGr6_KifDURCV2mRG9hAZ4","시청","서울특별시 중구 지하 101",37.5657037,126.9768616
645,"04호선","이촌",37.522272,126.974345,"ChIJRRFp0B-ifDUR0DUy05OdfuI","이촌역","서울특별시 한강로동",37.522379,126.973651
646,"08호선","석촌",37.505431,127.106979,"ChIJl4SL1ZilfDURI0g6K0GLq9c","석촌","서울특별시 송파동",37.5057138,127.1070689